[
  {
    "id": 1002,
    "name": "HIDIRASA",
    "zip_code": "84182"
  },
  {
    "id": 1003,
    "name": "KALEO",
    "zip_code": "84182"
  },
  {
    "id": 1004,
    "name": "LAMBU",
    "zip_code": "84182"
  },
  {
    "id": 1005,
    "name": "LANTA",
    "zip_code": "84182"
  },
  {
    "id": 1006,
    "name": "LAUTA BARAT",
    "zip_code": "84182"
  },
  {
    "id": 1007,
    "name": "MANGGE",
    "zip_code": "84182"
  },
  {
    "id": 1008,
    "name": "MELAYU",
    "zip_code": "84182"
  },
  {
    "id": 1009,
    "name": "MONTA BARU",
    "zip_code": "84182"
  },
  {
    "id": 1010,
    "name": "NGGELU",
    "zip_code": "84182"
  },
  {
    "id": 1011,
    "name": "RATO",
    "zip_code": "84182"
  },
  {
    "id": 1012,
    "name": "SANGGA",
    "zip_code": "84182"
  },
  {
    "id": 1013,
    "name": "SIMPASAI",
    "zip_code": "84182"
  },
  {
    "id": 1014,
    "name": "SORO",
    "zip_code": "84182"
  },
  {
    "id": 1015,
    "name": "SUMI",
    "zip_code": "84182"
  }
]