[
  {
    "id": 55258,
    "name": "AMAN JAYA",
    "zip_code": "32361"
  },
  {
    "id": 55259,
    "name": "CIPTA MUDA",
    "zip_code": "32361"
  },
  {
    "id": 55260,
    "name": "GANJAR AGUNG",
    "zip_code": "32361"
  },
  {
    "id": 55261,
    "name": "KURUNGAN NYAWA",
    "zip_code": "32361"
  },
  {
    "id": 55262,
    "name": "KURUNGAN NYAWA I",
    "zip_code": "32361"
  },
  {
    "id": 55263,
    "name": "KURUNGAN NYAWA II",
    "zip_code": "32361"
  },
  {
    "id": 55264,
    "name": "KURUNGAN NYAWA III",
    "zip_code": "32361"
  },
  {
    "id": 55265,
    "name": "MUDA SENTOSA",
    "zip_code": "32361"
  },
  {
    "id": 55266,
    "name": "MULYO AGUNG",
    "zip_code": "32361"
  },
  {
    "id": 55267,
    "name": "PISANG JAYA",
    "zip_code": "32361"
  },
  {
    "id": 55268,
    "name": "SRI DADI (SARIDATI)",
    "zip_code": "32361"
  },
  {
    "id": 55269,
    "name": "SUKARAJA",
    "zip_code": "32361"
  },
  {
    "id": 55270,
    "name": "SUKARAJA TUHA",
    "zip_code": "32361"
  },
  {
    "id": 55271,
    "name": "SUMBER AGUNG",
    "zip_code": "32361"
  },
  {
    "id": 55272,
    "name": "TANJUNG BULAN",
    "zip_code": "32361"
  },
  {
    "id": 55273,
    "name": "TEBAT JAYA",
    "zip_code": "32361"
  },
  {
    "id": 55274,
    "name": "WAY HALOM",
    "zip_code": "32361"
  }
]