[
  {
    "id": 36941,
    "name": "AERAMO",
    "zip_code": "86472"
  },
  {
    "id": 36942,
    "name": "DANGA",
    "zip_code": "86472"
  },
  {
    "id": 36943,
    "name": "DHAWE",
    "zip_code": "86472"
  },
  {
    "id": 36944,
    "name": "LABOLEWA",
    "zip_code": "86472"
  },
  {
    "id": 36945,
    "name": "LAPE",
    "zip_code": "86472"
  },
  {
    "id": 36946,
    "name": "MARAPOKOT",
    "zip_code": "86472"
  },
  {
    "id": 36947,
    "name": "MBAY I",
    "zip_code": "86472"
  },
  {
    "id": 36948,
    "name": "MBAY II",
    "zip_code": "86472"
  },
  {
    "id": 36949,
    "name": "NANGADHERO",
    "zip_code": "86472"
  },
  {
    "id": 36950,
    "name": "NGEGEDHAWE",
    "zip_code": "86472"
  },
  {
    "id": 36951,
    "name": "NGGOLO MBAY",
    "zip_code": "86472"
  },
  {
    "id": 36952,
    "name": "NGGOLONIO",
    "zip_code": "86472"
  },
  {
    "id": 36953,
    "name": "OLAIA",
    "zip_code": "86472"
  },
  {
    "id": 36954,
    "name": "TEDAKISA",
    "zip_code": "86472"
  },
  {
    "id": 36955,
    "name": "TEDAMUDE",
    "zip_code": "86472"
  },
  {
    "id": 36956,
    "name": "TONGGU RAMBANG",
    "zip_code": "86472"
  },
  {
    "id": 36957,
    "name": "TOWAK",
    "zip_code": "86472"
  },
  {
    "id": 36958,
    "name": "WAEKOKAK",
    "zip_code": "86472"
  }
]