[
  {
    "id": 27448,
    "name": "BARUYU SIBOHOU",
    "zip_code": "22881"
  },
  {
    "id": 27449,
    "name": "BAWONIFAOSO",
    "zip_code": "22881"
  },
  {
    "id": 27450,
    "name": "DURU",
    "zip_code": "22881"
  },
  {
    "id": 27451,
    "name": "EHO",
    "zip_code": "22881"
  },
  {
    "id": 27452,
    "name": "HILIANOMBASELA",
    "zip_code": "22881"
  },
  {
    "id": 27453,
    "name": "HILIKANA",
    "zip_code": "22881"
  },
  {
    "id": 27454,
    "name": "HILINIFAESE",
    "zip_code": "22881"
  },
  {
    "id": 27455,
    "name": "HILIORO DUA TEBOLO",
    "zip_code": "22881"
  },
  {
    "id": 27456,
    "name": "HILIORO MAO",
    "zip_code": "22881"
  },
  {
    "id": 27457,
    "name": "LUMBUI MELAYU",
    "zip_code": "22881"
  },
  {
    "id": 27458,
    "name": "LUMBUI NIAS",
    "zip_code": "22881"
  },
  {
    "id": 27459,
    "name": "OMEGA",
    "zip_code": "22881"
  },
  {
    "id": 27460,
    "name": "SEPAKAT",
    "zip_code": "22881"
  },
  {
    "id": 27461,
    "name": "SIALEMA",
    "zip_code": "22881"
  },
  {
    "id": 27462,
    "name": "TANO MOKINU",
    "zip_code": "22881"
  },
  {
    "id": 27463,
    "name": "TEBOLO MELAYU",
    "zip_code": "22881"
  },
  {
    "id": 27464,
    "name": "TUWASO",
    "zip_code": "22881"
  }
]