[
  {
    "id": 7397,
    "name": "AIR BATANG",
    "zip_code": "38964"
  },
  {
    "id": 7398,
    "name": "BATU LUNGUN",
    "zip_code": "38964"
  },
  {
    "id": 7399,
    "name": "BUKIT INDAH",
    "zip_code": "38964"
  },
  {
    "id": 7400,
    "name": "BURNI",
    "zip_code": "38964"
  },
  {
    "id": 7401,
    "name": "GEDUNG MENUNG",
    "zip_code": "38964"
  },
  {
    "id": 7402,
    "name": "MERPAS",
    "zip_code": "38964"
  },
  {
    "id": 7403,
    "name": "MUARA DUA",
    "zip_code": "38964"
  },
  {
    "id": 7404,
    "name": "PASAR BARU",
    "zip_code": "38964"
  },
  {
    "id": 7405,
    "name": "PASAR JUMAT",
    "zip_code": "38964"
  },
  {
    "id": 7406,
    "name": "SINAR BANTEN",
    "zip_code": "38964"
  },
  {
    "id": 7407,
    "name": "SUKA JAYA",
    "zip_code": "38964"
  },
  {
    "id": 7408,
    "name": "SUKU TIGA",
    "zip_code": "38964"
  },
  {
    "id": 7409,
    "name": "SUMBER HARAPAN",
    "zip_code": "38964"
  },
  {
    "id": 7410,
    "name": "TANJUNG BETUAH",
    "zip_code": "38964"
  },
  {
    "id": 7411,
    "name": "TEBING RAMBUTAN",
    "zip_code": "38964"
  },
  {
    "id": 7412,
    "name": "TRI JAYA",
    "zip_code": "38964"
  },
  {
    "id": 7413,
    "name": "ULAK PANDAN",
    "zip_code": "38964"
  }
]