[
  {
    "id": 44386,
    "name": "BOMERTO",
    "zip_code": "56318"
  },
  {
    "id": 44387,
    "name": "BUMIRESO",
    "zip_code": "56317"
  },
  {
    "id": 44388,
    "name": "JARAKSARI",
    "zip_code": "56314"
  },
  {
    "id": 44389,
    "name": "JLAMPRANG",
    "zip_code": "56319"
  },
  {
    "id": 44390,
    "name": "JOGOYITNAN",
    "zip_code": "56315"
  },
  {
    "id": 44391,
    "name": "KALIANGET",
    "zip_code": "56319"
  },
  {
    "id": 44392,
    "name": "KEJIWAN",
    "zip_code": "56311"
  },
  {
    "id": 44393,
    "name": "KRAMATAN",
    "zip_code": "56315"
  },
  {
    "id": 44394,
    "name": "MLIPAK",
    "zip_code": "56312"
  },
  {
    "id": 44395,
    "name": "PAGERKUKUH",
    "zip_code": "56314"
  },
  {
    "id": 44396,
    "name": "PANCURWENING",
    "zip_code": "56316"
  },
  {
    "id": 44397,
    "name": "ROJOIMO",
    "zip_code": "56316"
  },
  {
    "id": 44398,
    "name": "SAMBEK",
    "zip_code": "56312"
  },
  {
    "id": 44399,
    "name": "SARIYOSO",
    "zip_code": "56317"
  },
  {
    "id": 44400,
    "name": "TAWANGSARI",
    "zip_code": "56313"
  },
  {
    "id": 44401,
    "name": "TLOGOJATI",
    "zip_code": "56317"
  },
  {
    "id": 44402,
    "name": "WONOLELO",
    "zip_code": "56313"
  },
  {
    "id": 44403,
    "name": "WONOSARI",
    "zip_code": "56318"
  },
  {
    "id": 44404,
    "name": "WONOSOBO BARAT",
    "zip_code": "56311"
  },
  {
    "id": 44405,
    "name": "WONOSOBO TIMUR",
    "zip_code": "56317"
  }
]