[
  {
    "id": 70410,
    "name": "BAIPAJUNG",
    "zip_code": "69172"
  },
  {
    "id": 70411,
    "name": "BASANAH",
    "zip_code": "69172"
  },
  {
    "id": 70412,
    "name": "BATANGAN",
    "zip_code": "69172"
  },
  {
    "id": 70413,
    "name": "BUDDAN",
    "zip_code": "69172"
  },
  {
    "id": 70414,
    "name": "DLAMBAH DAJAH",
    "zip_code": "69172"
  },
  {
    "id": 70415,
    "name": "DLAMBAH LAOK",
    "zip_code": "69172"
  },
  {
    "id": 70416,
    "name": "DUMAJAH",
    "zip_code": "69172"
  },
  {
    "id": 70417,
    "name": "JANGKAR",
    "zip_code": "69172"
  },
  {
    "id": 70418,
    "name": "KENDABAN",
    "zip_code": "69172"
  },
  {
    "id": 70419,
    "name": "KRANGGAN BARAT",
    "zip_code": "69172"
  },
  {
    "id": 70420,
    "name": "LANDAK",
    "zip_code": "69172"
  },
  {
    "id": 70421,
    "name": "MRECAH",
    "zip_code": "69172"
  },
  {
    "id": 70422,
    "name": "PACENTAN",
    "zip_code": "69172"
  },
  {
    "id": 70423,
    "name": "PADURUNGAN",
    "zip_code": "69172"
  },
  {
    "id": 70424,
    "name": "PANGELEYAN",
    "zip_code": "69172"
  },
  {
    "id": 70425,
    "name": "PATEMON",
    "zip_code": "69172"
  },
  {
    "id": 70426,
    "name": "PETRAH",
    "zip_code": "69172"
  },
  {
    "id": 70427,
    "name": "PETTONG",
    "zip_code": "69172"
  },
  {
    "id": 70428,
    "name": "POTER",
    "zip_code": "69172"
  },
  {
    "id": 70429,
    "name": "RONGDURIN",
    "zip_code": "69172"
  },
  {
    "id": 70430,
    "name": "TANAH MERAH DAJAH",
    "zip_code": "69172"
  },
  {
    "id": 70431,
    "name": "TANAH MERAH LAOK",
    "zip_code": "69172"
  },
  {
    "id": 70432,
    "name": "TLOMAR (TLOMOR)",
    "zip_code": "69172"
  }
]