[
  {
    "id": 27973,
    "name": "BINJOHARA",
    "zip_code": "22565"
  },
  {
    "id": 27974,
    "name": "BINJOHARA BARU",
    "zip_code": "22565"
  },
  {
    "id": 27975,
    "name": "BINJOHARA URUK",
    "zip_code": "22565"
  },
  {
    "id": 27976,
    "name": "LAE MONONG",
    "zip_code": "22565"
  },
  {
    "id": 27977,
    "name": "MANDUAMAS BARU",
    "zip_code": "22565"
  },
  {
    "id": 27978,
    "name": "MANDUAMAS LAMA",
    "zip_code": "22565"
  },
  {
    "id": 27979,
    "name": "MUARA TAPUS",
    "zip_code": "22565"
  },
  {
    "id": 27980,
    "name": "PAGARAN BARU",
    "zip_code": "22565"
  },
  {
    "id": 27981,
    "name": "PAGARAN NAULI",
    "zip_code": "22565"
  },
  {
    "id": 27982,
    "name": "PARSIHOTANGAN",
    "zip_code": "22565"
  },
  {
    "id": 27983,
    "name": "PASAR ONAN MANDUAMAS",
    "zip_code": "22565"
  },
  {
    "id": 27984,
    "name": "PERLUASAN",
    "zip_code": "22565"
  },
  {
    "id": 27985,
    "name": "SARAGIH",
    "zip_code": "22565"
  },
  {
    "id": 27986,
    "name": "SARAGIH BARAT",
    "zip_code": "22565"
  },
  {
    "id": 27987,
    "name": "SARAGIH TIMUR",
    "zip_code": "22565"
  },
  {
    "id": 27988,
    "name": "SARMA NAULI",
    "zip_code": "22565"
  },
  {
    "id": 27989,
    "name": "TAMBAHAN NANJUR",
    "zip_code": "22565"
  },
  {
    "id": 27990,
    "name": "TUMBA",
    "zip_code": "22565"
  },
  {
    "id": 27991,
    "name": "TUMBA JAE",
    "zip_code": "22565"
  },
  {
    "id": 27992,
    "name": "TUMBA NAULI",
    "zip_code": "22565"
  }
]