[
  {
    "id": 57565,
    "name": "AMPANA",
    "zip_code": "94683"
  },
  {
    "id": 57566,
    "name": "BAILO",
    "zip_code": "94683"
  },
  {
    "id": 57567,
    "name": "BAILO BARU",
    "zip_code": "94683"
  },
  {
    "id": 57568,
    "name": "BONE RATO",
    "zip_code": "94683"
  },
  {
    "id": 57569,
    "name": "BUNTONGI",
    "zip_code": "94683"
  },
  {
    "id": 57570,
    "name": "DONDO BARAT",
    "zip_code": "94683"
  },
  {
    "id": 57571,
    "name": "LABIABAE",
    "zip_code": "94683"
  },
  {
    "id": 57572,
    "name": "MALOTONG",
    "zip_code": "94683"
  },
  {
    "id": 57573,
    "name": "MUARA TOBA",
    "zip_code": "94683"
  },
  {
    "id": 57574,
    "name": "PADANG TUMBUO",
    "zip_code": "94683"
  },
  {
    "id": 57575,
    "name": "PATINGKO",
    "zip_code": "94683"
  },
  {
    "id": 57576,
    "name": "SALUABA",
    "zip_code": "94683"
  },
  {
    "id": 57577,
    "name": "SANSARINO",
    "zip_code": "94683"
  },
  {
    "id": 57578,
    "name": "UAMALINGKU",
    "zip_code": "94683"
  },
  {
    "id": 82993,
    "name": "UENTANAGA BAWAH",
    "zip_code": "94683"
  }
]