[
  {
    "id": 27831,
    "name": "AFIA",
    "zip_code": "22853"
  },
  {
    "id": 27832,
    "name": "BALEFADORO TUHO",
    "zip_code": "22853"
  },
  {
    "id": 27833,
    "name": "FADORO HILIHAMBAWA",
    "zip_code": "22853"
  },
  {
    "id": 27834,
    "name": "FADORO HILIMBOWO",
    "zip_code": "22853"
  },
  {
    "id": 27835,
    "name": "FADORO SITOLU HILI",
    "zip_code": "22853"
  },
  {
    "id": 27836,
    "name": "HILI GAWOLO",
    "zip_code": "22853"
  },
  {
    "id": 27837,
    "name": "HILI GODUHOYA",
    "zip_code": "22853"
  },
  {
    "id": 27838,
    "name": "HILI HATI",
    "zip_code": "22853"
  },
  {
    "id": 27839,
    "name": "HILINA A",
    "zip_code": "22853"
  },
  {
    "id": 27840,
    "name": "HILIZUKHU",
    "zip_code": "22853"
  },
  {
    "id": 27841,
    "name": "HOLI",
    "zip_code": "22853"
  },
  {
    "id": 27842,
    "name": "IRAONO LASE",
    "zip_code": "22853"
  },
  {
    "id": 27843,
    "name": "LAHEWA (PASAR LAHEWA)",
    "zip_code": "22853"
  },
  {
    "id": 27844,
    "name": "LASARA",
    "zip_code": "22853"
  },
  {
    "id": 27845,
    "name": "MARAFALA",
    "zip_code": "22853"
  },
  {
    "id": 27846,
    "name": "MOAWO",
    "zip_code": "22853"
  },
  {
    "id": 27847,
    "name": "OMBOLATA",
    "zip_code": "22853"
  },
  {
    "id": 27848,
    "name": "ONOZALUKHU",
    "zip_code": "22853"
  },
  {
    "id": 27849,
    "name": "SIFAOROASI",
    "zip_code": "22853"
  },
  {
    "id": 27850,
    "name": "SIHENEASI",
    "zip_code": "22853"
  },
  {
    "id": 27851,
    "name": "SITOLU BANUA",
    "zip_code": "22853"
  }
]