[
  {
    "id": 40185,
    "name": "BANJAREJO",
    "zip_code": "63352"
  },
  {
    "id": 40186,
    "name": "BEDAGUNG",
    "zip_code": "63352"
  },
  {
    "id": 40187,
    "name": "CEPOKO",
    "zip_code": "63352"
  },
  {
    "id": 40188,
    "name": "JABUNG",
    "zip_code": "63352"
  },
  {
    "id": 40189,
    "name": "MANJUNG",
    "zip_code": "63352"
  },
  {
    "id": 40190,
    "name": "MILANGASRI",
    "zip_code": "63352"
  },
  {
    "id": 40191,
    "name": "NGILIRAN",
    "zip_code": "63352"
  },
  {
    "id": 40192,
    "name": "PANEKAN",
    "zip_code": "63352"
  },
  {
    "id": 40193,
    "name": "REJOMULYO",
    "zip_code": "63352"
  },
  {
    "id": 40194,
    "name": "SIDOWAYAH",
    "zip_code": "63352"
  },
  {
    "id": 40195,
    "name": "SUKOWIDI",
    "zip_code": "63352"
  },
  {
    "id": 40196,
    "name": "SUMBERDODOL",
    "zip_code": "63352"
  },
  {
    "id": 40197,
    "name": "TANJUNGSARI",
    "zip_code": "63352"
  },
  {
    "id": 40198,
    "name": "TAPAK",
    "zip_code": "63352"
  },
  {
    "id": 40199,
    "name": "TERUNG",
    "zip_code": "63352"
  },
  {
    "id": 40200,
    "name": "TURI",
    "zip_code": "63352"
  },
  {
    "id": 40201,
    "name": "WATES",
    "zip_code": "63352"
  }
]