[
  {
    "id": 71687,
    "name": "CENDORO",
    "zip_code": "62391"
  },
  {
    "id": 71688,
    "name": "CEPOKOREJO",
    "zip_code": "62391"
  },
  {
    "id": 71689,
    "name": "DAWUNG",
    "zip_code": "62391"
  },
  {
    "id": 71690,
    "name": "GESIKHARJO",
    "zip_code": "62391"
  },
  {
    "id": 71691,
    "name": "GLODOG",
    "zip_code": "62391"
  },
  {
    "id": 71692,
    "name": "KARANGAGUNG",
    "zip_code": "62391"
  },
  {
    "id": 71693,
    "name": "KETAMBUL",
    "zip_code": "62391"
  },
  {
    "id": 71694,
    "name": "KRADENAN",
    "zip_code": "62391"
  },
  {
    "id": 71695,
    "name": "LERAN KULON",
    "zip_code": "62391"
  },
  {
    "id": 71696,
    "name": "LERAN WETAN",
    "zip_code": "62391"
  },
  {
    "id": 71697,
    "name": "NGIMBANG",
    "zip_code": "62391"
  },
  {
    "id": 71698,
    "name": "PALANG",
    "zip_code": "62391"
  },
  {
    "id": 71699,
    "name": "PANYURAN",
    "zip_code": "62391"
  },
  {
    "id": 71700,
    "name": "PLIWETAN",
    "zip_code": "62391"
  },
  {
    "id": 71701,
    "name": "PUCANGAN",
    "zip_code": "62391"
  },
  {
    "id": 71702,
    "name": "SUMURGUNG",
    "zip_code": "62391"
  },
  {
    "id": 71703,
    "name": "TASIKMADU",
    "zip_code": "62391"
  },
  {
    "id": 71704,
    "name": "TEGALBANG",
    "zip_code": "62391"
  },
  {
    "id": 71705,
    "name": "WANGUN",
    "zip_code": "62391"
  }
]