[
  {
    "id": 57131,
    "name": "GIRIMULYA",
    "zip_code": "94972"
  },
  {
    "id": 57132,
    "name": "KOLO ATAS",
    "zip_code": "94972"
  },
  {
    "id": 57133,
    "name": "KOLO BAWAH",
    "zip_code": "94972"
  },
  {
    "id": 57134,
    "name": "LIJO",
    "zip_code": "94972"
  },
  {
    "id": 57135,
    "name": "MANYOE",
    "zip_code": "94972"
  },
  {
    "id": 57136,
    "name": "MOMO",
    "zip_code": "94972"
  },
  {
    "id": 57137,
    "name": "PANDAUKE",
    "zip_code": "94972"
  },
  {
    "id": 57138,
    "name": "PARANGISI",
    "zip_code": "94972"
  },
  {
    "id": 57139,
    "name": "SEA",
    "zip_code": "94972"
  },
  {
    "id": 57140,
    "name": "TAMBALE",
    "zip_code": "94972"
  },
  {
    "id": 57141,
    "name": "TANANGAYA",
    "zip_code": "94972"
  },
  {
    "id": 57142,
    "name": "TANASUMPU",
    "zip_code": "94972"
  },
  {
    "id": 57143,
    "name": "UEPAKU",
    "zip_code": "94972"
  },
  {
    "id": 57144,
    "name": "WINANGABINO",
    "zip_code": "94972"
  }
]