[
  {
    "id": 66467,
    "name": "BANJARSARI",
    "zip_code": "59581"
  },
  {
    "id": 66468,
    "name": "BOYOLALI",
    "zip_code": "59581"
  },
  {
    "id": 66469,
    "name": "GAJAH",
    "zip_code": "59581"
  },
  {
    "id": 66470,
    "name": "GEDANGALAS",
    "zip_code": "59581"
  },
  {
    "id": 66471,
    "name": "JATISONO",
    "zip_code": "59581"
  },
  {
    "id": 66472,
    "name": "KEDONDONG",
    "zip_code": "59581"
  },
  {
    "id": 66473,
    "name": "MEDINI",
    "zip_code": "59581"
  },
  {
    "id": 66474,
    "name": "MLATIHARJO",
    "zip_code": "59581"
  },
  {
    "id": 66475,
    "name": "MLEKANG",
    "zip_code": "59581"
  },
  {
    "id": 66476,
    "name": "MOJOSIMO",
    "zip_code": "59581"
  },
  {
    "id": 66477,
    "name": "SAMBIROTO",
    "zip_code": "59581"
  },
  {
    "id": 66478,
    "name": "SAMBUNG",
    "zip_code": "59581"
  },
  {
    "id": 66479,
    "name": "SARIREJO",
    "zip_code": "59581"
  },
  {
    "id": 66480,
    "name": "SURODADI",
    "zip_code": "59581"
  },
  {
    "id": 66481,
    "name": "TAMBIREJO",
    "zip_code": "59581"
  },
  {
    "id": 66482,
    "name": "TANJUNGANYAR",
    "zip_code": "59581"
  },
  {
    "id": 66483,
    "name": "TLOGOPANDOGAN",
    "zip_code": "59581"
  },
  {
    "id": 66484,
    "name": "WILALUNG",
    "zip_code": "59581"
  }
]