[
  {
    "id": 69090,
    "name": "BEDAGUNG",
    "zip_code": "51164"
  },
  {
    "id": 69091,
    "name": "BOTOSARI",
    "zip_code": "51164"
  },
  {
    "id": 69092,
    "name": "DOMIYANG",
    "zip_code": "51164"
  },
  {
    "id": 69093,
    "name": "KALIBOJA",
    "zip_code": "51164"
  },
  {
    "id": 69094,
    "name": "KALIOMBO",
    "zip_code": "51164"
  },
  {
    "id": 69095,
    "name": "KRANDEGAN",
    "zip_code": "51164"
  },
  {
    "id": 69096,
    "name": "LAMBANGGELUN",
    "zip_code": "51164"
  },
  {
    "id": 69097,
    "name": "LOMENENG",
    "zip_code": "51164"
  },
  {
    "id": 69098,
    "name": "NOTOGIWANG",
    "zip_code": "51164"
  },
  {
    "id": 69099,
    "name": "PANINGGARAN",
    "zip_code": "51164"
  },
  {
    "id": 69100,
    "name": "SAWANGAN",
    "zip_code": "51164"
  },
  {
    "id": 69101,
    "name": "TANGGERAN",
    "zip_code": "51164"
  },
  {
    "id": 69102,
    "name": "TENOGO",
    "zip_code": "51164"
  },
  {
    "id": 69103,
    "name": "WERDI",
    "zip_code": "51164"
  },
  {
    "id": 69104,
    "name": "WINDUAJI",
    "zip_code": "51164"
  }
]