[
  {
    "id": 56107,
    "name": "CEMERLANG",
    "zip_code": "94772"
  },
  {
    "id": 56108,
    "name": "DUATA KARYA",
    "zip_code": "94772"
  },
  {
    "id": 56109,
    "name": "ETENG",
    "zip_code": "94772"
  },
  {
    "id": 56110,
    "name": "KEMBANG MENTHA (MERTA/MENTA)",
    "zip_code": "94772"
  },
  {
    "id": 56111,
    "name": "KOSPA BUATA KARYA (DWATA KARYA)",
    "zip_code": "94772"
  },
  {
    "id": 56112,
    "name": "MINANGANDALA",
    "zip_code": "94772"
  },
  {
    "id": 56113,
    "name": "PADANGAN",
    "zip_code": "94772"
  },
  {
    "id": 56114,
    "name": "PURWO AGUNG",
    "zip_code": "94772"
  },
  {
    "id": 56115,
    "name": "RANGGA-RANGGA",
    "zip_code": "94772"
  },
  {
    "id": 56116,
    "name": "SERESA",
    "zip_code": "94772"
  },
  {
    "id": 56117,
    "name": "SIMPANGAN",
    "zip_code": "94772"
  },
  {
    "id": 56118,
    "name": "TANGABEAN (TANGEBAN)",
    "zip_code": "94772"
  },
  {
    "id": 56119,
    "name": "TAUGI",
    "zip_code": "94772"
  },
  {
    "id": 56120,
    "name": "TOMPOTIKA MAKMUR",
    "zip_code": "94772"
  }
]