[
  {
    "id": 50842,
    "name": "BANDAR ALAI",
    "zip_code": "29511"
  },
  {
    "id": 50843,
    "name": "BERINGIN TALUK",
    "zip_code": "29511"
  },
  {
    "id": 50844,
    "name": "JAKE",
    "zip_code": "29511"
  },
  {
    "id": 50845,
    "name": "JAYA",
    "zip_code": "29511"
  },
  {
    "id": 50846,
    "name": "KOPAH",
    "zip_code": "29511"
  },
  {
    "id": 50847,
    "name": "KOTO KARI",
    "zip_code": "29511"
  },
  {
    "id": 50848,
    "name": "KOTO TALUK",
    "zip_code": "29515"
  },
  {
    "id": 50849,
    "name": "KOTO TUO",
    "zip_code": "29511"
  },
  {
    "id": 50850,
    "name": "MUNSALO",
    "zip_code": "29511"
  },
  {
    "id": 50851,
    "name": "PASAR TELUK",
    "zip_code": "29511"
  },
  {
    "id": 50852,
    "name": "PINTU GOBANG",
    "zip_code": "29511"
  },
  {
    "id": 50853,
    "name": "PULAUARO",
    "zip_code": "29511"
  },
  {
    "id": 50854,
    "name": "PULAUBANJAR KARI",
    "zip_code": "29511"
  },
  {
    "id": 50855,
    "name": "PULAUBARU",
    "zip_code": "29511"
  },
  {
    "id": 50856,
    "name": "PULAUGODANG KARI",
    "zip_code": "29511"
  },
  {
    "id": 50857,
    "name": "PULAUKEDUNDUNG",
    "zip_code": "29514"
  },
  {
    "id": 50858,
    "name": "SAWAH",
    "zip_code": "29511"
  },
  {
    "id": 50859,
    "name": "SEBERANG TALUK",
    "zip_code": "29511"
  },
  {
    "id": 50860,
    "name": "SEBERANG TALUK HILIR",
    "zip_code": "29511"
  },
  {
    "id": 50861,
    "name": "SIMPANG TIGA",
    "zip_code": "29511"
  },
  {
    "id": 50862,
    "name": "SITORAJO",
    "zip_code": "29511"
  },
  {
    "id": 50863,
    "name": "SUNGAIJERING",
    "zip_code": "29513"
  },
  {
    "id": 50864,
    "name": "TITIAN MODANG KOPAH",
    "zip_code": "29512"
  }
]