[
  {
    "id": 432,
    "name": "EMBUNG KANDONG",
    "zip_code": "83663"
  },
  {
    "id": 433,
    "name": "EMBUNG RAJA",
    "zip_code": "83663"
  },
  {
    "id": 434,
    "name": "JENGGIK",
    "zip_code": "83663"
  },
  {
    "id": 435,
    "name": "KALIANYAR",
    "zip_code": "83663"
  },
  {
    "id": 436,
    "name": "LANDO",
    "zip_code": "83663"
  },
  {
    "id": 437,
    "name": "LEMING",
    "zip_code": "83663"
  },
  {
    "id": 438,
    "name": "PANDAN DURI",
    "zip_code": "83663"
  },
  {
    "id": 439,
    "name": "RARANG",
    "zip_code": "83663"
  },
  {
    "id": 440,
    "name": "RARANG BATAS",
    "zip_code": "83663"
  },
  {
    "id": 441,
    "name": "RARANG SELATAN",
    "zip_code": "83663"
  },
  {
    "id": 442,
    "name": "RARANG TENGAH",
    "zip_code": "83663"
  },
  {
    "id": 443,
    "name": "SANTONG",
    "zip_code": "83663"
  },
  {
    "id": 444,
    "name": "SELAGIK",
    "zip_code": "83663"
  },
  {
    "id": 445,
    "name": "SUKADANA",
    "zip_code": "83663"
  },
  {
    "id": 446,
    "name": "SURADADI",
    "zip_code": "83663"
  },
  {
    "id": 447,
    "name": "TERARA",
    "zip_code": "83663"
  }
]