[
  {
    "id": 69154,
    "name": "CURUG",
    "zip_code": "51151"
  },
  {
    "id": 69155,
    "name": "DADIREJO",
    "zip_code": "51151"
  },
  {
    "id": 69156,
    "name": "JERUKSARI",
    "zip_code": "51151"
  },
  {
    "id": 69157,
    "name": "KARANGANYAR",
    "zip_code": "51182"
  },
  {
    "id": 69158,
    "name": "KARANGJOMPO",
    "zip_code": "51151"
  },
  {
    "id": 69159,
    "name": "MULYOREJO",
    "zip_code": "51151"
  },
  {
    "id": 69160,
    "name": "NGALIAN",
    "zip_code": "51151"
  },
  {
    "id": 69161,
    "name": "PACAR",
    "zip_code": "51151"
  },
  {
    "id": 69162,
    "name": "PANDAN ARUM",
    "zip_code": "51151"
  },
  {
    "id": 69163,
    "name": "PUCUNG",
    "zip_code": "51151"
  },
  {
    "id": 69164,
    "name": "SAMBOREJO",
    "zip_code": "51151"
  },
  {
    "id": 69165,
    "name": "SIDOREJO",
    "zip_code": "51151"
  },
  {
    "id": 69166,
    "name": "SILIREJO",
    "zip_code": "51151"
  },
  {
    "id": 69167,
    "name": "TANJUNG",
    "zip_code": "51151"
  },
  {
    "id": 69168,
    "name": "TEGALDOWO",
    "zip_code": "51151"
  },
  {
    "id": 69169,
    "name": "WULED",
    "zip_code": "51151"
  }
]