[
  {
    "id": 34640,
    "name": "ALALA",
    "zip_code": "85764"
  },
  {
    "id": 34641,
    "name": "BIUDUKFOHO",
    "zip_code": "85764"
  },
  {
    "id": 34642,
    "name": "BOEN",
    "zip_code": "85764"
  },
  {
    "id": 34643,
    "name": "LOTAS",
    "zip_code": "85764"
  },
  {
    "id": 34644,
    "name": "MUKE",
    "zip_code": "85764"
  },
  {
    "id": 34645,
    "name": "NABUTAEK",
    "zip_code": "85764"
  },
  {
    "id": 34646,
    "name": "NAET",
    "zip_code": "85764"
  },
  {
    "id": 34647,
    "name": "NAIUSU",
    "zip_code": "85764"
  },
  {
    "id": 34648,
    "name": "NANEBOT",
    "zip_code": "85764"
  },
  {
    "id": 34649,
    "name": "NANIN",
    "zip_code": "85764"
  },
  {
    "id": 34650,
    "name": "NITI",
    "zip_code": "85764"
  },
  {
    "id": 34651,
    "name": "OEKMURAK",
    "zip_code": "85764"
  },
  {
    "id": 34652,
    "name": "RAISAMANE",
    "zip_code": "85764"
  },
  {
    "id": 34653,
    "name": "SAENAMA",
    "zip_code": "85764"
  },
  {
    "id": 34654,
    "name": "TAFULI",
    "zip_code": "85764"
  },
  {
    "id": 34655,
    "name": "TAFULI I",
    "zip_code": "85764"
  },
  {
    "id": 34656,
    "name": "WEAIN",
    "zip_code": "85764"
  },
  {
    "id": 34657,
    "name": "WEBETUN",
    "zip_code": "85764"
  },
  {
    "id": 34658,
    "name": "WEKEKE",
    "zip_code": "85764"
  },
  {
    "id": 34659,
    "name": "WEKMIDAR",
    "zip_code": "85764"
  }
]