[
  {
    "id": 33326,
    "name": "ADAYU INDAH",
    "zip_code": "93819"
  },
  {
    "id": 33327,
    "name": "ALANGGA",
    "zip_code": "93811"
  },
  {
    "id": 33328,
    "name": "ALENGGE AGUNG",
    "zip_code": "93811"
  },
  {
    "id": 33329,
    "name": "ANDOLO",
    "zip_code": "93884"
  },
  {
    "id": 33330,
    "name": "ANESE",
    "zip_code": "93813"
  },
  {
    "id": 33331,
    "name": "ATAKU",
    "zip_code": "93819"
  },
  {
    "id": 33332,
    "name": "BEKENGGASU INDAH",
    "zip_code": "93819"
  },
  {
    "id": 33333,
    "name": "BIMA MAROA",
    "zip_code": "93819"
  },
  {
    "id": 33334,
    "name": "BUMI RAYA",
    "zip_code": "93819"
  },
  {
    "id": 33335,
    "name": "LALOBAO",
    "zip_code": "93819"
  },
  {
    "id": 33336,
    "name": "LALONGGOMBU",
    "zip_code": "93813"
  },
  {
    "id": 33337,
    "name": "LAPOA INDAH",
    "zip_code": "93818"
  },
  {
    "id": 33338,
    "name": "MATAIWOI",
    "zip_code": "93819"
  },
  {
    "id": 33339,
    "name": "MATE UPE",
    "zip_code": "93818"
  },
  {
    "id": 33340,
    "name": "PAPAWU",
    "zip_code": "93813"
  },
  {
    "id": 33341,
    "name": "POTORO",
    "zip_code": "93811"
  },
  {
    "id": 33342,
    "name": "PUNGGAPU",
    "zip_code": "93819"
  },
  {
    "id": 33343,
    "name": "PUUNDOHO",
    "zip_code": "93819"
  },
  {
    "id": 33344,
    "name": "WATU MOKALA",
    "zip_code": "93819"
  },
  {
    "id": 33345,
    "name": "WAWOBENDE",
    "zip_code": "93818"
  },
  {
    "id": 33346,
    "name": "WUNDUWATU",
    "zip_code": "93819"
  }
]