[
  {
    "id": 28233,
    "name": "GOTI",
    "zip_code": "22733"
  },
  {
    "id": 28234,
    "name": "HUTA KOJE PIJOR KOLING",
    "zip_code": "22733"
  },
  {
    "id": 28235,
    "name": "HUTA LIMBONG",
    "zip_code": "22733"
  },
  {
    "id": 28236,
    "name": "HUTA LOMBANG",
    "zip_code": "22733"
  },
  {
    "id": 28237,
    "name": "HUTA PADANG",
    "zip_code": "22733"
  },
  {
    "id": 28238,
    "name": "LABUHAN LABO",
    "zip_code": "22733"
  },
  {
    "id": 28239,
    "name": "LABUHAN RASOKI",
    "zip_code": "22733"
  },
  {
    "id": 28240,
    "name": "MANEGEN",
    "zip_code": "22733"
  },
  {
    "id": 28241,
    "name": "MANUNGGANG JAE",
    "zip_code": "22733"
  },
  {
    "id": 28242,
    "name": "MANUNGGANG JULU",
    "zip_code": "22733"
  },
  {
    "id": 28243,
    "name": "PALOPAT (PAL IV) PIJOR KOLING",
    "zip_code": "22733"
  },
  {
    "id": 28244,
    "name": "PERKEBUNAN PIJOR KOLING",
    "zip_code": "22733"
  },
  {
    "id": 28245,
    "name": "PURBATUA PIJOR KOLING",
    "zip_code": "22733"
  },
  {
    "id": 28246,
    "name": "SALAMBUE",
    "zip_code": "22733"
  },
  {
    "id": 28247,
    "name": "SIGULANG",
    "zip_code": "22733"
  },
  {
    "id": 28248,
    "name": "SIHITANG",
    "zip_code": "22733"
  },
  {
    "id": 28249,
    "name": "TARUTUNG BARU",
    "zip_code": "22733"
  },
  {
    "id": 43187,
    "name": "PIJOR KOLING",
    "zip_code": "22733"
  }
]