[
  {
    "id": 43222,
    "name": "ANTARA",
    "zip_code": "21255"
  },
  {
    "id": 43223,
    "name": "BARUNG-BARUNG",
    "zip_code": "21255"
  },
  {
    "id": 43224,
    "name": "BULAN-BULAN",
    "zip_code": "21255"
  },
  {
    "id": 43225,
    "name": "GUNTUNG",
    "zip_code": "21255"
  },
  {
    "id": 43226,
    "name": "GUNUNG BANDUNG",
    "zip_code": "21255"
  },
  {
    "id": 43227,
    "name": "LIMA PULUH KOTA",
    "zip_code": "21255"
  },
  {
    "id": 43228,
    "name": "MANGKAI BARU",
    "zip_code": "21255"
  },
  {
    "id": 43229,
    "name": "MANGKAI LAMA",
    "zip_code": "21255"
  },
  {
    "id": 43230,
    "name": "PASIR PERMIT",
    "zip_code": "21255"
  },
  {
    "id": 43231,
    "name": "PEMATANG PANJANG",
    "zip_code": "21255"
  },
  {
    "id": 43232,
    "name": "PEMATANG TENGAH",
    "zip_code": "21255"
  },
  {
    "id": 43233,
    "name": "PERKEBUNAN DOLOK",
    "zip_code": "21255"
  },
  {
    "id": 43234,
    "name": "PERKEBUNAN KWALA GUNUNG",
    "zip_code": "21255"
  },
  {
    "id": 43235,
    "name": "PERKEBUNAN LIMA PULUH",
    "zip_code": "21255"
  },
  {
    "id": 43236,
    "name": "PERKEBUNAN LIMAU MANIS",
    "zip_code": "21255"
  },
  {
    "id": 43237,
    "name": "PERKEBUNAN TANAH GAMBUS",
    "zip_code": "21255"
  },
  {
    "id": 43238,
    "name": "PERKEBUNAN TANAH ITAM HILIR",
    "zip_code": "21255"
  },
  {
    "id": 43239,
    "name": "SIMPANG GAMBUS",
    "zip_code": "21255"
  },
  {
    "id": 43240,
    "name": "SUMBER MAKMUR",
    "zip_code": "21255"
  },
  {
    "id": 43241,
    "name": "SUMBER PADI",
    "zip_code": "21255"
  },
  {
    "id": 43242,
    "name": "TITI MERAH",
    "zip_code": "21255"
  },
  {
    "id": 43243,
    "name": "TITI PUTIH",
    "zip_code": "21255"
  },
  {
    "id": 43266,
    "name": "AIR HITAM",
    "zip_code": "21255"
  },
  {
    "id": 43267,
    "name": "CAHAYA PARDOMUAN",
    "zip_code": "21255"
  },
  {
    "id": 43268,
    "name": "EMPAT NEGERI",
    "zip_code": "21255"
  },
  {
    "id": 43269,
    "name": "KWALA/KUALA GUNUNG",
    "zip_code": "21255"
  },
  {
    "id": 43270,
    "name": "LUBUK BESAR",
    "zip_code": "21255"
  },
  {
    "id": 43271,
    "name": "LUBUK HULU",
    "zip_code": "21255"
  },
  {
    "id": 43272,
    "name": "PERKEBUNAN TANAH ITAM HULU",
    "zip_code": "21255"
  },
  {
    "id": 43273,
    "name": "PULAU SEJUK",
    "zip_code": "21255"
  },
  {
    "id": 43274,
    "name": "SIMPANG DOLOK",
    "zip_code": "21255"
  },
  {
    "id": 43275,
    "name": "SUMBER REJO",
    "zip_code": "21255"
  }
]