[
  {
    "id": 63617,
    "name": "EGERWARA",
    "zip_code": "98653"
  },
  {
    "id": 63618,
    "name": "INARI",
    "zip_code": "98653"
  },
  {
    "id": 63619,
    "name": "JAWERA",
    "zip_code": "98653"
  },
  {
    "id": 63620,
    "name": "KUFURIYAI",
    "zip_code": "98653"
  },
  {
    "id": 63621,
    "name": "MANGGERA",
    "zip_code": "98653"
  },
  {
    "id": 63622,
    "name": "NAGURA",
    "zip_code": "98653"
  },
  {
    "id": 63623,
    "name": "RUWARA",
    "zip_code": "98653"
  },
  {
    "id": 63624,
    "name": "SERARAN",
    "zip_code": "98653"
  },
  {
    "id": 63625,
    "name": "SUMUN",
    "zip_code": "98653"
  },
  {
    "id": 63626,
    "name": "TANUSAN",
    "zip_code": "98653"
  },
  {
    "id": 63627,
    "name": "UKIARA",
    "zip_code": "98653"
  },
  {
    "id": 63628,
    "name": "URISA",
    "zip_code": "98653"
  },
  {
    "id": 63629,
    "name": "WANOMA",
    "zip_code": "98653"
  },
  {
    "id": 63630,
    "name": "WAROMI",
    "zip_code": "98653"
  },
  {
    "id": 63631,
    "name": "WERMENU",
    "zip_code": "98653"
  }
]