[
  {
    "id": 43295,
    "name": "BENTENG",
    "zip_code": "21254"
  },
  {
    "id": 43296,
    "name": "DAHARI INDAH",
    "zip_code": "21254"
  },
  {
    "id": 43297,
    "name": "DAHARI SELEBAR",
    "zip_code": "21254"
  },
  {
    "id": 43298,
    "name": "GUNUNG RANTE",
    "zip_code": "21254"
  },
  {
    "id": 43299,
    "name": "INDRA YAMAN",
    "zip_code": "21254"
  },
  {
    "id": 43300,
    "name": "LABUHAN RUKU",
    "zip_code": "21254"
  },
  {
    "id": 43301,
    "name": "MESJID LAMA",
    "zip_code": "21254"
  },
  {
    "id": 43302,
    "name": "PADANG GENTING",
    "zip_code": "21254"
  },
  {
    "id": 43303,
    "name": "PAHANG",
    "zip_code": "21254"
  },
  {
    "id": 43304,
    "name": "PANJANG",
    "zip_code": "21254"
  },
  {
    "id": 43305,
    "name": "PERKEBUNAN TANAH DATAR",
    "zip_code": "21254"
  },
  {
    "id": 43370,
    "name": "BANGUN SARI",
    "zip_code": "21254"
  },
  {
    "id": 43371,
    "name": "BINJAI BARU",
    "zip_code": "21254"
  },
  {
    "id": 43372,
    "name": "GLUGUR MAKMUR",
    "zip_code": "21254"
  },
  {
    "id": 43373,
    "name": "KARANG BARU",
    "zip_code": "21254"
  },
  {
    "id": 43374,
    "name": "MEKAR BARU",
    "zip_code": "21254"
  },
  {
    "id": 43375,
    "name": "PERKEBUNAN PETATAL",
    "zip_code": "21254"
  },
  {
    "id": 43376,
    "name": "PETATAL",
    "zip_code": "21254"
  },
  {
    "id": 43377,
    "name": "SEI MUKA",
    "zip_code": "21254"
  },
  {
    "id": 43378,
    "name": "SUMBER TANI",
    "zip_code": "21254"
  }
]