[
  {
    "id": 72448,
    "name": "BATUMIRAH",
    "zip_code": "52466"
  },
  {
    "id": 72449,
    "name": "BEGAWAT",
    "zip_code": "52466"
  },
  {
    "id": 72450,
    "name": "BUMIJAWA",
    "zip_code": "52466"
  },
  {
    "id": 72451,
    "name": "CARUL",
    "zip_code": "52466"
  },
  {
    "id": 72452,
    "name": "CAWITALI",
    "zip_code": "52466"
  },
  {
    "id": 72453,
    "name": "CEMPAKA",
    "zip_code": "52466"
  },
  {
    "id": 72454,
    "name": "CINTAMANIK",
    "zip_code": "52466"
  },
  {
    "id": 72455,
    "name": "DUKUH BENDA",
    "zip_code": "52466"
  },
  {
    "id": 72456,
    "name": "GUCI",
    "zip_code": "52466"
  },
  {
    "id": 72457,
    "name": "GUNUNG AGUNG",
    "zip_code": "52466"
  },
  {
    "id": 72458,
    "name": "JEJEG",
    "zip_code": "52466"
  },
  {
    "id": 72459,
    "name": "MUNCANGLARANG",
    "zip_code": "52466"
  },
  {
    "id": 72460,
    "name": "PAGERKASIH",
    "zip_code": "52466"
  },
  {
    "id": 72461,
    "name": "SIGEDONG",
    "zip_code": "52466"
  },
  {
    "id": 72462,
    "name": "SOKASARI",
    "zip_code": "52466"
  },
  {
    "id": 72463,
    "name": "SOKATENGAH",
    "zip_code": "52466"
  },
  {
    "id": 72464,
    "name": "SUMBAGA",
    "zip_code": "52466"
  },
  {
    "id": 72465,
    "name": "TRAJU",
    "zip_code": "52466"
  }
]