[
  {
    "id": 46562,
    "name": "BALETURI",
    "zip_code": "64484"
  },
  {
    "id": 46563,
    "name": "BANDUNG",
    "zip_code": "64484"
  },
  {
    "id": 46564,
    "name": "GONDANGLEGI",
    "zip_code": "64484"
  },
  {
    "id": 46565,
    "name": "KURUNGREJO",
    "zip_code": "64484"
  },
  {
    "id": 46566,
    "name": "MOJO AGUNG",
    "zip_code": "64484"
  },
  {
    "id": 46567,
    "name": "NGLAWAK",
    "zip_code": "64484"
  },
  {
    "id": 46568,
    "name": "ROWOHARJO",
    "zip_code": "64484"
  },
  {
    "id": 46569,
    "name": "SANGGRAHAN",
    "zip_code": "64484"
  },
  {
    "id": 46570,
    "name": "SINGKAL ANYAR",
    "zip_code": "64484"
  },
  {
    "id": 46571,
    "name": "SONO AGENG",
    "zip_code": "64484"
  },
  {
    "id": 46572,
    "name": "SUGIHWARAS",
    "zip_code": "64484"
  },
  {
    "id": 46573,
    "name": "TANJUNG TANI",
    "zip_code": "64484"
  },
  {
    "id": 46574,
    "name": "TEGARON",
    "zip_code": "64484"
  },
  {
    "id": 46575,
    "name": "WATU DANDANG",
    "zip_code": "64484"
  }
]