[
  {
    "id": 71236,
    "name": "ANGKATAN",
    "zip_code": "69491"
  },
  {
    "id": 71237,
    "name": "ANGON ANGON",
    "zip_code": "69491"
  },
  {
    "id": 71238,
    "name": "ARJASA",
    "zip_code": "69491"
  },
  {
    "id": 71239,
    "name": "BILIS BILIS",
    "zip_code": "69491"
  },
  {
    "id": 71240,
    "name": "BUDDI",
    "zip_code": "69491"
  },
  {
    "id": 71241,
    "name": "DUKO",
    "zip_code": "69491"
  },
  {
    "id": 71242,
    "name": "GELAMAN",
    "zip_code": "69491"
  },
  {
    "id": 71243,
    "name": "KALIANYAR",
    "zip_code": "69491"
  },
  {
    "id": 71244,
    "name": "KALIKATAK",
    "zip_code": "69491"
  },
  {
    "id": 71245,
    "name": "KALISANGKA",
    "zip_code": "69491"
  },
  {
    "id": 71246,
    "name": "KOLO KOLO",
    "zip_code": "69491"
  },
  {
    "id": 71247,
    "name": "LAOK JANGJANG",
    "zip_code": "69491"
  },
  {
    "id": 71248,
    "name": "PABIAN",
    "zip_code": "69491"
  },
  {
    "id": 71249,
    "name": "PAJENANGGER",
    "zip_code": "69491"
  },
  {
    "id": 71250,
    "name": "PANDEMAN",
    "zip_code": "69491"
  },
  {
    "id": 71251,
    "name": "PASERAMAN",
    "zip_code": "69491"
  },
  {
    "id": 71252,
    "name": "SAMBAKATI",
    "zip_code": "69491"
  },
  {
    "id": 71253,
    "name": "SAWAHSUMUR",
    "zip_code": "69491"
  },
  {
    "id": 71254,
    "name": "SUMBERNANGKA",
    "zip_code": "69491"
  }
]