[
  {
    "id": 57344,
    "name": "AEDAN RAYA",
    "zip_code": "94479"
  },
  {
    "id": 57345,
    "name": "BOLAUNG OLONGGATA",
    "zip_code": "94479"
  },
  {
    "id": 57346,
    "name": "GIO",
    "zip_code": "94479"
  },
  {
    "id": 57347,
    "name": "GIO BARAT",
    "zip_code": "94479"
  },
  {
    "id": 57348,
    "name": "GIO TIMUR",
    "zip_code": "94479"
  },
  {
    "id": 57349,
    "name": "LABUAN",
    "zip_code": "94479"
  },
  {
    "id": 57350,
    "name": "LOBU",
    "zip_code": "94479"
  },
  {
    "id": 57351,
    "name": "MBELANG MBELANG",
    "zip_code": "94479"
  },
  {
    "id": 57352,
    "name": "MOUTONG BARAT",
    "zip_code": "94479"
  },
  {
    "id": 57353,
    "name": "MOUTONG TENGAH",
    "zip_code": "94479"
  },
  {
    "id": 57354,
    "name": "MOUTONG TIMUR",
    "zip_code": "94479"
  },
  {
    "id": 57355,
    "name": "MOUTONG UTARA",
    "zip_code": "94479"
  },
  {
    "id": 57356,
    "name": "OLONGGATA",
    "zip_code": "94479"
  },
  {
    "id": 57357,
    "name": "PANDE",
    "zip_code": "94479"
  },
  {
    "id": 57358,
    "name": "PENDELALAP",
    "zip_code": "94479"
  },
  {
    "id": 57359,
    "name": "SALEPAE",
    "zip_code": "94479"
  },
  {
    "id": 57360,
    "name": "SALUMPENGUT",
    "zip_code": "94479"
  },
  {
    "id": 57361,
    "name": "SEJOLI",
    "zip_code": "94479"
  },
  {
    "id": 57362,
    "name": "SIALOPA",
    "zip_code": "94479"
  },
  {
    "id": 57363,
    "name": "TULADENGGI PANTAI",
    "zip_code": "94479"
  }
]