[
  {
    "id": 15790,
    "name": "DIHIT",
    "zip_code": "23894"
  },
  {
    "id": 15791,
    "name": "KAMPUNG AIE",
    "zip_code": "23894"
  },
  {
    "id": 15792,
    "name": "KUTA BATU",
    "zip_code": "23894"
  },
  {
    "id": 15793,
    "name": "LAKUBANG",
    "zip_code": "23894"
  },
  {
    "id": 15794,
    "name": "LAMAYANG",
    "zip_code": "23894"
  },
  {
    "id": 15795,
    "name": "LAMBAYA",
    "zip_code": "23894"
  },
  {
    "id": 15796,
    "name": "LATITIK",
    "zip_code": "23894"
  },
  {
    "id": 15797,
    "name": "LAUKE",
    "zip_code": "23894"
  },
  {
    "id": 15798,
    "name": "LAURE-E",
    "zip_code": "23894"
  },
  {
    "id": 15799,
    "name": "LUAN SORIP",
    "zip_code": "23894"
  },
  {
    "id": 15800,
    "name": "PUTRA JAYA",
    "zip_code": "23894"
  },
  {
    "id": 15801,
    "name": "SEBBE",
    "zip_code": "23894"
  },
  {
    "id": 15802,
    "name": "SITUFA JAYA",
    "zip_code": "23894"
  },
  {
    "id": 15803,
    "name": "SUAK BARU",
    "zip_code": "23894"
  },
  {
    "id": 15804,
    "name": "WEL WEL",
    "zip_code": "23894"
  },
  {
    "id": 15805,
    "name": "WELLANG KUM (WEL LANGKOM)",
    "zip_code": "23894"
  }
]