[
  {
    "id": 53871,
    "name": "BANGUN SARI",
    "zip_code": "31352"
  },
  {
    "id": 53872,
    "name": "FAJAR INDAH",
    "zip_code": "31352"
  },
  {
    "id": 53873,
    "name": "GUNUNG MEGANG DALAM",
    "zip_code": "31352"
  },
  {
    "id": 53874,
    "name": "GUNUNG MEGANG LUAR",
    "zip_code": "31352"
  },
  {
    "id": 53875,
    "name": "KAYU ARA SAKTI",
    "zip_code": "31352"
  },
  {
    "id": 53876,
    "name": "LUBUK MUMPO",
    "zip_code": "31352"
  },
  {
    "id": 53877,
    "name": "PANANG JAYA",
    "zip_code": "31352"
  },
  {
    "id": 53878,
    "name": "PENANGGIRAN",
    "zip_code": "31352"
  },
  {
    "id": 53879,
    "name": "PERJITO",
    "zip_code": "31352"
  },
  {
    "id": 53880,
    "name": "SIDOMULYO",
    "zip_code": "31352"
  },
  {
    "id": 53881,
    "name": "SUMAJA MAKMUR",
    "zip_code": "31352"
  },
  {
    "id": 53882,
    "name": "TALANG PADANG",
    "zip_code": "31352"
  },
  {
    "id": 53883,
    "name": "TANJUNG MUNING",
    "zip_code": "31352"
  },
  {
    "id": 53884,
    "name": "TANJUNG TERANG",
    "zip_code": "31352"
  }
]