[
  {
    "id": 6682,
    "name": "AIR MENGANYAU",
    "zip_code": "38656"
  },
  {
    "id": 6683,
    "name": "AIRLAKOK",
    "zip_code": "38656"
  },
  {
    "id": 6684,
    "name": "BATIK NAU",
    "zip_code": "38656"
  },
  {
    "id": 6685,
    "name": "BINTUNAN",
    "zip_code": "38656"
  },
  {
    "id": 6686,
    "name": "DURIAN AMPARAN",
    "zip_code": "38656"
  },
  {
    "id": 6687,
    "name": "PAGAR RUYUNG",
    "zip_code": "38656"
  },
  {
    "id": 6688,
    "name": "PENINJAU (MANINJAU)",
    "zip_code": "38656"
  },
  {
    "id": 6689,
    "name": "SAMBAN JAYA",
    "zip_code": "38656"
  },
  {
    "id": 6690,
    "name": "SEBERANG TUNGGAL",
    "zip_code": "38656"
  },
  {
    "id": 6691,
    "name": "SEKIAU",
    "zip_code": "38656"
  },
  {
    "id": 6692,
    "name": "SELOLONG",
    "zip_code": "38656"
  },
  {
    "id": 6693,
    "name": "SERANGAI",
    "zip_code": "38656"
  },
  {
    "id": 6694,
    "name": "SUKAMARGA",
    "zip_code": "38656"
  },
  {
    "id": 6695,
    "name": "TABA KELINTANG",
    "zip_code": "38656"
  },
  {
    "id": 6696,
    "name": "ULAK TANDING",
    "zip_code": "38656"
  }
]