[
  {
    "id": 71742,
    "name": "BANJARAGUNG",
    "zip_code": "62371"
  },
  {
    "id": 71743,
    "name": "BANJARARUM",
    "zip_code": "62371"
  },
  {
    "id": 71744,
    "name": "BULUREJO",
    "zip_code": "62371"
  },
  {
    "id": 71745,
    "name": "CAMPUREJO",
    "zip_code": "62371"
  },
  {
    "id": 71746,
    "name": "KANOREJO",
    "zip_code": "62371"
  },
  {
    "id": 71747,
    "name": "KARANGTINOTO",
    "zip_code": "62371"
  },
  {
    "id": 71748,
    "name": "KEBONAGUNG",
    "zip_code": "62371"
  },
  {
    "id": 71749,
    "name": "MAIBIT",
    "zip_code": "62371"
  },
  {
    "id": 71750,
    "name": "NGADIREJO",
    "zip_code": "62371"
  },
  {
    "id": 71751,
    "name": "PEKUWON",
    "zip_code": "62371"
  },
  {
    "id": 71752,
    "name": "PRAMBON WETAN",
    "zip_code": "62371"
  },
  {
    "id": 71753,
    "name": "PUNGGULREJO",
    "zip_code": "62371"
  },
  {
    "id": 71754,
    "name": "RENGEL",
    "zip_code": "62371"
  },
  {
    "id": 71755,
    "name": "SAWAHAN",
    "zip_code": "62371"
  },
  {
    "id": 71756,
    "name": "SUMBEREJO",
    "zip_code": "62371"
  },
  {
    "id": 71757,
    "name": "TAMBAKREJO",
    "zip_code": "62371"
  }
]