[
  {
    "id": 64374,
    "name": "ADUER",
    "zip_code": "98358"
  },
  {
    "id": 64375,
    "name": "ANDANG",
    "zip_code": "98358"
  },
  {
    "id": 64376,
    "name": "ANGGRA",
    "zip_code": "98358"
  },
  {
    "id": 64377,
    "name": "APUL",
    "zip_code": "98358"
  },
  {
    "id": 64378,
    "name": "AWAIBEHEL",
    "zip_code": "98358"
  },
  {
    "id": 64379,
    "name": "AYAU",
    "zip_code": "98358"
  },
  {
    "id": 64380,
    "name": "BINGWOYUT",
    "zip_code": "98358"
  },
  {
    "id": 64381,
    "name": "COISI",
    "zip_code": "98358"
  },
  {
    "id": 64382,
    "name": "DEMAISI",
    "zip_code": "98358"
  },
  {
    "id": 64383,
    "name": "DRIYE",
    "zip_code": "98358"
  },
  {
    "id": 64384,
    "name": "HANDUK",
    "zip_code": "98358"
  },
  {
    "id": 64385,
    "name": "IMBENTI",
    "zip_code": "98358"
  },
  {
    "id": 64386,
    "name": "IMBONGGUN",
    "zip_code": "98358"
  },
  {
    "id": 64387,
    "name": "IMBREKTI",
    "zip_code": "98358"
  },
  {
    "id": 64388,
    "name": "INDABRI",
    "zip_code": "98358"
  },
  {
    "id": 64389,
    "name": "INGGRAMHIM",
    "zip_code": "98358"
  },
  {
    "id": 64390,
    "name": "INJUAR",
    "zip_code": "98358"
  },
  {
    "id": 64391,
    "name": "IPINGOSI",
    "zip_code": "98358"
  },
  {
    "id": 64392,
    "name": "MAINDA",
    "zip_code": "98358"
  },
  {
    "id": 64393,
    "name": "MBINGMA",
    "zip_code": "98358"
  },
  {
    "id": 64394,
    "name": "MEMANGKER",
    "zip_code": "98358"
  },
  {
    "id": 64395,
    "name": "MICADIWOR",
    "zip_code": "98358"
  },
  {
    "id": 64396,
    "name": "MICONTI",
    "zip_code": "98358"
  },
  {
    "id": 64397,
    "name": "MINYAMBOUW",
    "zip_code": "98358"
  },
  {
    "id": 64398,
    "name": "MISANGOISI",
    "zip_code": "98358"
  },
  {
    "id": 64399,
    "name": "MITIEDE",
    "zip_code": "98358"
  },
  {
    "id": 64400,
    "name": "NIMBIAU",
    "zip_code": "98358"
  },
  {
    "id": 64401,
    "name": "NINSIMOI",
    "zip_code": "98358"
  },
  {
    "id": 64402,
    "name": "PINYAUSI",
    "zip_code": "98358"
  },
  {
    "id": 64403,
    "name": "SIGIM",
    "zip_code": "98358"
  },
  {
    "id": 64404,
    "name": "SIMERBEI",
    "zip_code": "98358"
  },
  {
    "id": 64405,
    "name": "SINALTOUSI",
    "zip_code": "98358"
  },
  {
    "id": 64406,
    "name": "SMANGGEI",
    "zip_code": "98358"
  },
  {
    "id": 64407,
    "name": "UGJEHEG",
    "zip_code": "98358"
  },
  {
    "id": 64408,
    "name": "UMPUG",
    "zip_code": "98358"
  },
  {
    "id": 64409,
    "name": "UNGGA",
    "zip_code": "98358"
  },
  {
    "id": 64410,
    "name": "WAMMINDA",
    "zip_code": "98358"
  }
]