[
  {
    "id": 67688,
    "name": "CEKEL",
    "zip_code": "58163"
  },
  {
    "id": 67689,
    "name": "DEMPEL",
    "zip_code": "58163"
  },
  {
    "id": 67690,
    "name": "GUNUNG TUMPENG",
    "zip_code": "58163"
  },
  {
    "id": 67691,
    "name": "JETIS",
    "zip_code": "58163"
  },
  {
    "id": 67692,
    "name": "KARANGANYAR",
    "zip_code": "58163"
  },
  {
    "id": 67693,
    "name": "KARANGSONO",
    "zip_code": "58163"
  },
  {
    "id": 67694,
    "name": "KETRO",
    "zip_code": "58163"
  },
  {
    "id": 67695,
    "name": "MANGIN",
    "zip_code": "58163"
  },
  {
    "id": 67696,
    "name": "MOJOAGUNG",
    "zip_code": "58163"
  },
  {
    "id": 67697,
    "name": "NAMPU",
    "zip_code": "58163"
  },
  {
    "id": 67698,
    "name": "PANGKALAN",
    "zip_code": "58163"
  },
  {
    "id": 67699,
    "name": "PARAKAN",
    "zip_code": "58163"
  },
  {
    "id": 67700,
    "name": "PUTATNGANTEN",
    "zip_code": "58163"
  },
  {
    "id": 67701,
    "name": "RAWOH",
    "zip_code": "58163"
  },
  {
    "id": 67702,
    "name": "SENDANGHARJO",
    "zip_code": "58163"
  },
  {
    "id": 67703,
    "name": "SUMBEREJOSARI",
    "zip_code": "58163"
  },
  {
    "id": 67704,
    "name": "TELAWAH",
    "zip_code": "58163"
  },
  {
    "id": 67705,
    "name": "TEMUREJO",
    "zip_code": "58163"
  },
  {
    "id": 67706,
    "name": "TERMAS",
    "zip_code": "58163"
  }
]