[
  {
    "id": 45925,
    "name": "BERATKULON",
    "zip_code": "61353"
  },
  {
    "id": 45926,
    "name": "BETRO",
    "zip_code": "61353"
  },
  {
    "id": 45927,
    "name": "JAPANAN",
    "zip_code": "61353"
  },
  {
    "id": 45928,
    "name": "KEDUNGSARI",
    "zip_code": "61353"
  },
  {
    "id": 45929,
    "name": "KEMLAGI",
    "zip_code": "61353"
  },
  {
    "id": 45930,
    "name": "MOJODADI",
    "zip_code": "61353"
  },
  {
    "id": 45931,
    "name": "MOJODOWO",
    "zip_code": "61353"
  },
  {
    "id": 45932,
    "name": "MOJOGEBANG",
    "zip_code": "61353"
  },
  {
    "id": 45933,
    "name": "MOJOJAJAR",
    "zip_code": "61353"
  },
  {
    "id": 45934,
    "name": "MOJOKUMPUL",
    "zip_code": "61353"
  },
  {
    "id": 45935,
    "name": "MOJOKUSUMO",
    "zip_code": "61353"
  },
  {
    "id": 45936,
    "name": "MOJOPILANG",
    "zip_code": "61353"
  },
  {
    "id": 45937,
    "name": "MOJOREJO",
    "zip_code": "61353"
  },
  {
    "id": 45938,
    "name": "MOJOSARIREJO",
    "zip_code": "61353"
  },
  {
    "id": 45939,
    "name": "MOJOWATESREJO",
    "zip_code": "61353"
  },
  {
    "id": 45940,
    "name": "MOJOWIRYO",
    "zip_code": "61353"
  },
  {
    "id": 45941,
    "name": "MOJOWONO",
    "zip_code": "61353"
  },
  {
    "id": 45942,
    "name": "PANDANKRAJAN",
    "zip_code": "61353"
  },
  {
    "id": 45943,
    "name": "TANJUNGAN",
    "zip_code": "61353"
  },
  {
    "id": 45944,
    "name": "WATESPROJO",
    "zip_code": "61353"
  }
]