[
  {
    "id": 80184,
    "name": "BUANA SAKTI",
    "zip_code": "91562"
  },
  {
    "id": 80185,
    "name": "CAMPALOGA",
    "zip_code": "91562"
  },
  {
    "id": 80186,
    "name": "KAKULASANG (KAKULLASAN)",
    "zip_code": "91562"
  },
  {
    "id": 80187,
    "name": "KALEPU",
    "zip_code": "91562"
  },
  {
    "id": 80188,
    "name": "LELING",
    "zip_code": "91562"
  },
  {
    "id": 80189,
    "name": "LELING BARAT",
    "zip_code": "91562"
  },
  {
    "id": 80190,
    "name": "LELING UTARA",
    "zip_code": "91562"
  },
  {
    "id": 80191,
    "name": "MALINO",
    "zip_code": "91562"
  },
  {
    "id": 80192,
    "name": "RANTE MARIO",
    "zip_code": "91562"
  },
  {
    "id": 80193,
    "name": "SALUDENGEN",
    "zip_code": "91562"
  },
  {
    "id": 80194,
    "name": "SANDANA",
    "zip_code": "91562"
  },
  {
    "id": 80195,
    "name": "TAMEJARRA (TAMMEJARRA)",
    "zip_code": "91562"
  },
  {
    "id": 80196,
    "name": "TAMEMONGGA",
    "zip_code": "91562"
  },
  {
    "id": 80197,
    "name": "TOMMO",
    "zip_code": "91562"
  }
]