[
  {
    "id": 9118,
    "name": "BENUA BARU ILIR",
    "zip_code": "75684"
  },
  {
    "id": 9119,
    "name": "BENUA BARU ULU",
    "zip_code": "75684"
  },
  {
    "id": 9120,
    "name": "KERAYAAN",
    "zip_code": "75684"
  },
  {
    "id": 9121,
    "name": "KOLEK",
    "zip_code": "75684"
  },
  {
    "id": 9122,
    "name": "MALOY",
    "zip_code": "75684"
  },
  {
    "id": 9123,
    "name": "MANDAU PANTAI SEJAHTERA",
    "zip_code": "75684"
  },
  {
    "id": 9124,
    "name": "MANDU DALAM",
    "zip_code": "75684"
  },
  {
    "id": 9125,
    "name": "PELAWAN",
    "zip_code": "75684"
  },
  {
    "id": 9126,
    "name": "PERIDAN",
    "zip_code": "75684"
  },
  {
    "id": 9127,
    "name": "PERUPUK",
    "zip_code": "75684"
  },
  {
    "id": 9128,
    "name": "PULAU MIANG",
    "zip_code": "75684"
  },
  {
    "id": 9129,
    "name": "SAKA",
    "zip_code": "75684"
  },
  {
    "id": 9130,
    "name": "SEMPUYAU (SEMPAYAU)",
    "zip_code": "75684"
  },
  {
    "id": 9131,
    "name": "TANJUNG MANIS",
    "zip_code": "75684"
  },
  {
    "id": 9132,
    "name": "TEPIAN TERAP",
    "zip_code": "75684"
  }
]