[
  {
    "id": 55175,
    "name": "BUKIT SARI",
    "zip_code": "32315"
  },
  {
    "id": 55176,
    "name": "DUSUN MARTAPURA",
    "zip_code": "32313"
  },
  {
    "id": 55177,
    "name": "KEROMONGAN",
    "zip_code": "32381"
  },
  {
    "id": 55178,
    "name": "KOTA BARU",
    "zip_code": "32311"
  },
  {
    "id": 55179,
    "name": "KOTA BARU BARAT",
    "zip_code": "32315"
  },
  {
    "id": 55180,
    "name": "KOTA BARU SELATAN",
    "zip_code": "32315"
  },
  {
    "id": 55181,
    "name": "KURUNGAN NYAWA I",
    "zip_code": "32381"
  },
  {
    "id": 55182,
    "name": "PAKU SENGKUNYIT",
    "zip_code": "32314"
  },
  {
    "id": 55183,
    "name": "PASAR MARTAPURA",
    "zip_code": "32312"
  },
  {
    "id": 55184,
    "name": "PERJAYA",
    "zip_code": "32381"
  },
  {
    "id": 55185,
    "name": "SUKOMULYO",
    "zip_code": "32381"
  },
  {
    "id": 55186,
    "name": "SUNGAI TUHA JAYA",
    "zip_code": "32315"
  },
  {
    "id": 55187,
    "name": "TANJUNG KEMALA",
    "zip_code": "32315"
  },
  {
    "id": 55188,
    "name": "TANJUNG KEMALA BARAT",
    "zip_code": "32315"
  },
  {
    "id": 55189,
    "name": "TERUKIS RAHAYU",
    "zip_code": "32315"
  },
  {
    "id": 55190,
    "name": "VETERAN JAYA",
    "zip_code": "32315"
  }
]