[
  {
    "id": 27072,
    "name": "DIMA",
    "zip_code": "22854"
  },
  {
    "id": 27073,
    "name": "FADORO LAURU",
    "zip_code": "22854"
  },
  {
    "id": 27074,
    "name": "HILIDUHO",
    "zip_code": "22854"
  },
  {
    "id": 27075,
    "name": "HILIGODU TANOSEO",
    "zip_code": "22851"
  },
  {
    "id": 27076,
    "name": "LASARA TANOSE'O",
    "zip_code": "22854"
  },
  {
    "id": 27077,
    "name": "OMBOLALASALO'O",
    "zip_code": "22854"
  },
  {
    "id": 27078,
    "name": "OMBOLATA SISARAHILI",
    "zip_code": "22854"
  },
  {
    "id": 27079,
    "name": "ONONAMOLO I BOT",
    "zip_code": "22854"
  },
  {
    "id": 27080,
    "name": "ONOWAEMBO HILIGARA",
    "zip_code": "22854"
  },
  {
    "id": 27081,
    "name": "ONOZITOLIDULU",
    "zip_code": "22854"
  },
  {
    "id": 27082,
    "name": "SILIMABANUA",
    "zip_code": "22854"
  },
  {
    "id": 27083,
    "name": "SINARIKHI",
    "zip_code": "22854"
  },
  {
    "id": 27084,
    "name": "SISOBAHILI I TANOSEO",
    "zip_code": "22854"
  },
  {
    "id": 27085,
    "name": "SISOBALAURU",
    "zip_code": "22854"
  },
  {
    "id": 27086,
    "name": "TANOSEO",
    "zip_code": "22854"
  },
  {
    "id": 27087,
    "name": "TUHEGAFOA II",
    "zip_code": "22854"
  }
]