[
  {
    "id": 36533,
    "name": "ANA WOLU",
    "zip_code": "87272"
  },
  {
    "id": 36534,
    "name": "BALI LOKU",
    "zip_code": "87272"
  },
  {
    "id": 36535,
    "name": "HOBA WAWI",
    "zip_code": "87272"
  },
  {
    "id": 36536,
    "name": "HUPU MADA",
    "zip_code": "87272"
  },
  {
    "id": 36537,
    "name": "KATIKU LOKU",
    "zip_code": "87272"
  },
  {
    "id": 36538,
    "name": "MAMODU",
    "zip_code": "87272"
  },
  {
    "id": 36539,
    "name": "PAHOLA",
    "zip_code": "87272"
  },
  {
    "id": 36540,
    "name": "PARI RARA",
    "zip_code": "87272"
  },
  {
    "id": 36541,
    "name": "PRAI BAKUL",
    "zip_code": "87272"
  },
  {
    "id": 36542,
    "name": "REWA RARA",
    "zip_code": "87272"
  },
  {
    "id": 36543,
    "name": "RUA",
    "zip_code": "87272"
  },
  {
    "id": 36544,
    "name": "TARA MANU",
    "zip_code": "87272"
  },
  {
    "id": 36545,
    "name": "WAI HURA",
    "zip_code": "87272"
  },
  {
    "id": 36546,
    "name": "WEI MANGOMA",
    "zip_code": "87272"
  }
]