[
  {
    "id": 1062,
    "name": "BAJO PULO",
    "zip_code": "84182"
  },
  {
    "id": 1063,
    "name": "BOKE",
    "zip_code": "84182"
  },
  {
    "id": 1064,
    "name": "BUGIS",
    "zip_code": "84182"
  },
  {
    "id": 1065,
    "name": "BUNCU",
    "zip_code": "84182"
  },
  {
    "id": 1066,
    "name": "JIA",
    "zip_code": "84182"
  },
  {
    "id": 1067,
    "name": "KOWO",
    "zip_code": "84182"
  },
  {
    "id": 1068,
    "name": "LAMERA",
    "zip_code": "84182"
  },
  {
    "id": 1069,
    "name": "NA'E",
    "zip_code": "84182"
  },
  {
    "id": 1070,
    "name": "NARU",
    "zip_code": "84182"
  },
  {
    "id": 1071,
    "name": "NARU BARAT",
    "zip_code": "84182"
  },
  {
    "id": 1072,
    "name": "OI MACI",
    "zip_code": "84182"
  },
  {
    "id": 1073,
    "name": "PARANGINA",
    "zip_code": "84182"
  },
  {
    "id": 1074,
    "name": "POJA",
    "zip_code": "84182"
  },
  {
    "id": 1075,
    "name": "RAI O'I",
    "zip_code": "84182"
  },
  {
    "id": 1076,
    "name": "RASABOU",
    "zip_code": "84182"
  },
  {
    "id": 1077,
    "name": "SANGIA",
    "zip_code": "84182"
  },
  {
    "id": 1078,
    "name": "SARI",
    "zip_code": "84182"
  },
  {
    "id": 1079,
    "name": "TANAH PUTIH",
    "zip_code": "84182"
  }
]