[
  {
    "id": 17083,
    "name": "BABAKAN",
    "zip_code": "45191"
  },
  {
    "id": 17084,
    "name": "BABAKANGEBANG",
    "zip_code": "45191"
  },
  {
    "id": 17085,
    "name": "BOJONGGEBANG",
    "zip_code": "45191"
  },
  {
    "id": 17086,
    "name": "CANGKUANG",
    "zip_code": "45191"
  },
  {
    "id": 17087,
    "name": "GEMBONGAN",
    "zip_code": "45191"
  },
  {
    "id": 17088,
    "name": "GEMBONGANMEKAR",
    "zip_code": "45191"
  },
  {
    "id": 17089,
    "name": "KARANGWANGUN",
    "zip_code": "45191"
  },
  {
    "id": 17090,
    "name": "KUDUKERAS",
    "zip_code": "45191"
  },
  {
    "id": 17091,
    "name": "KUDUMULYA",
    "zip_code": "45191"
  },
  {
    "id": 17092,
    "name": "PAKUSAMBEN",
    "zip_code": "45191"
  },
  {
    "id": 17093,
    "name": "SERANG KULON",
    "zip_code": "45191"
  },
  {
    "id": 17094,
    "name": "SERANG WETAN",
    "zip_code": "45191"
  },
  {
    "id": 17095,
    "name": "SUMBER KIDUL",
    "zip_code": "45191"
  },
  {
    "id": 17096,
    "name": "SUMBER LOR",
    "zip_code": "45191"
  }
]