[
  {
    "id": 43244,
    "name": "AEK NAULI",
    "zip_code": "21258"
  },
  {
    "id": 43245,
    "name": "CENGKERING PEKAN",
    "zip_code": "21258"
  },
  {
    "id": 43246,
    "name": "DURIAN",
    "zip_code": "21258"
  },
  {
    "id": 43247,
    "name": "LALANG",
    "zip_code": "21258"
  },
  {
    "id": 43248,
    "name": "MANDARSAH",
    "zip_code": "21258"
  },
  {
    "id": 43249,
    "name": "MEDANG",
    "zip_code": "21258"
  },
  {
    "id": 43250,
    "name": "MEDANG BARU",
    "zip_code": "21258"
  },
  {
    "id": 43251,
    "name": "NENAS SIAM",
    "zip_code": "21258"
  },
  {
    "id": 43252,
    "name": "PAKAM",
    "zip_code": "21258"
  },
  {
    "id": 43253,
    "name": "PAKAM RAYA",
    "zip_code": "21258"
  },
  {
    "id": 43254,
    "name": "PAKAM RAYA SELATAN",
    "zip_code": "21258"
  },
  {
    "id": 43255,
    "name": "PANGKALAN DODEK",
    "zip_code": "21258"
  },
  {
    "id": 43256,
    "name": "PANGKALAN DODEK BARU",
    "zip_code": "21258"
  },
  {
    "id": 43257,
    "name": "PEMATANG CENGKERING",
    "zip_code": "21258"
  },
  {
    "id": 43258,
    "name": "PEMATANG NIBUNG",
    "zip_code": "21258"
  },
  {
    "id": 43259,
    "name": "SEI BUAH KERAS",
    "zip_code": "21258"
  },
  {
    "id": 43260,
    "name": "SEI RAJA",
    "zip_code": "21258"
  },
  {
    "id": 43261,
    "name": "SEI RAKYAT",
    "zip_code": "21258"
  },
  {
    "id": 43262,
    "name": "SIDOMULYO",
    "zip_code": "21258"
  },
  {
    "id": 43263,
    "name": "TANJUNG SIGONI",
    "zip_code": "21258"
  }
]