[
  {
    "id": 76916,
    "name": "BULAN BULAN",
    "zip_code": "77457"
  },
  {
    "id": 76917,
    "name": "DABULON (DUBULON)",
    "zip_code": "77457"
  },
  {
    "id": 76918,
    "name": "DERALON",
    "zip_code": "77457"
  },
  {
    "id": 76919,
    "name": "KALAMPISING",
    "zip_code": "77457"
  },
  {
    "id": 76920,
    "name": "LIANG",
    "zip_code": "77457"
  },
  {
    "id": 76921,
    "name": "LIBANG",
    "zip_code": "77457"
  },
  {
    "id": 76922,
    "name": "LIKOS",
    "zip_code": "77457"
  },
  {
    "id": 76923,
    "name": "LINTONG",
    "zip_code": "77457"
  },
  {
    "id": 76924,
    "name": "MANSALONG",
    "zip_code": "77457"
  },
  {
    "id": 76925,
    "name": "NAINSID",
    "zip_code": "77457"
  },
  {
    "id": 76926,
    "name": "PA LEMUMUT",
    "zip_code": "77457"
  },
  {
    "id": 76927,
    "name": "PA LOO",
    "zip_code": "77457"
  },
  {
    "id": 76928,
    "name": "PATAL I (SATU)",
    "zip_code": "77457"
  },
  {
    "id": 76929,
    "name": "PATAL II (DUA)",
    "zip_code": "77457"
  },
  {
    "id": 76930,
    "name": "PODONG",
    "zip_code": "77457"
  },
  {
    "id": 76931,
    "name": "PULU BULAWAN",
    "zip_code": "77457"
  },
  {
    "id": 76932,
    "name": "SALUDAN",
    "zip_code": "77457"
  },
  {
    "id": 76933,
    "name": "SANGKUP",
    "zip_code": "77457"
  },
  {
    "id": 76934,
    "name": "SAPUYAN",
    "zip_code": "77457"
  },
  {
    "id": 76935,
    "name": "SASIBU",
    "zip_code": "77457"
  },
  {
    "id": 76936,
    "name": "SEDONGON",
    "zip_code": "77457"
  },
  {
    "id": 76937,
    "name": "SEMALAT",
    "zip_code": "77457"
  },
  {
    "id": 76938,
    "name": "SIAWANG",
    "zip_code": "77457"
  },
  {
    "id": 76939,
    "name": "SUMALUMUNG",
    "zip_code": "77457"
  },
  {
    "id": 76940,
    "name": "TALUAN",
    "zip_code": "77457"
  },
  {
    "id": 76941,
    "name": "TANJUNG HILIR",
    "zip_code": "77457"
  },
  {
    "id": 76942,
    "name": "TANJUNG HULU",
    "zip_code": "77457"
  },
  {
    "id": 76943,
    "name": "TUBUS",
    "zip_code": "77457"
  }
]