[
  {
    "id": 42065,
    "name": "BAH BIRONG ULU",
    "zip_code": "21172"
  },
  {
    "id": 42066,
    "name": "BAH SAMPURAN",
    "zip_code": "21172"
  },
  {
    "id": 42067,
    "name": "DIPAR HATARAN",
    "zip_code": "21172"
  },
  {
    "id": 42068,
    "name": "DOLOK MARLAWAN",
    "zip_code": "21172"
  },
  {
    "id": 42069,
    "name": "DOLOK PARRIASAN",
    "zip_code": "21172"
  },
  {
    "id": 42070,
    "name": "JORLANG HATARAN",
    "zip_code": "21172"
  },
  {
    "id": 42071,
    "name": "KASINDIR",
    "zip_code": "21172"
  },
  {
    "id": 42072,
    "name": "PAGAR PINANG",
    "zip_code": "21172"
  },
  {
    "id": 42073,
    "name": "PANOMBEAN HUTA URUNG",
    "zip_code": "21172"
  },
  {
    "id": 42074,
    "name": "PARMONANGAN",
    "zip_code": "21172"
  },
  {
    "id": 42075,
    "name": "PINANG RATUS",
    "zip_code": "21172"
  },
  {
    "id": 42076,
    "name": "SIBUNGA BUNGA",
    "zip_code": "21172"
  },
  {
    "id": 42077,
    "name": "TIGA BALATA",
    "zip_code": "21172"
  }
]