[
  {
    "id": 68336,
    "name": "BARUKAN",
    "zip_code": "50775"
  },
  {
    "id": 68337,
    "name": "BENER",
    "zip_code": "50775"
  },
  {
    "id": 68338,
    "name": "BUTUH",
    "zip_code": "50775"
  },
  {
    "id": 68339,
    "name": "CUKIL",
    "zip_code": "50775"
  },
  {
    "id": 68340,
    "name": "DUREN",
    "zip_code": "50775"
  },
  {
    "id": 68341,
    "name": "KARANGDUREN",
    "zip_code": "50775"
  },
  {
    "id": 68342,
    "name": "KLERO",
    "zip_code": "50775"
  },
  {
    "id": 68343,
    "name": "NYAMAT",
    "zip_code": "50775"
  },
  {
    "id": 68344,
    "name": "PATEMON",
    "zip_code": "50775"
  },
  {
    "id": 68345,
    "name": "REGUNUNG",
    "zip_code": "50775"
  },
  {
    "id": 68346,
    "name": "SRUWEN",
    "zip_code": "50775"
  },
  {
    "id": 68347,
    "name": "SUGIHAN",
    "zip_code": "50775"
  },
  {
    "id": 68348,
    "name": "TEGALREJO",
    "zip_code": "50225"
  },
  {
    "id": 68349,
    "name": "TEGALWATON",
    "zip_code": "50775"
  },
  {
    "id": 68350,
    "name": "TENGARAN",
    "zip_code": "50775"
  }
]