[
  {
    "id": 29456,
    "name": "AEK MUAL",
    "zip_code": "22976"
  },
  {
    "id": 29457,
    "name": "BONAN DOLOK",
    "zip_code": "22976"
  },
  {
    "id": 29458,
    "name": "HURABA I",
    "zip_code": "22976"
  },
  {
    "id": 29459,
    "name": "HURABA II",
    "zip_code": "22976"
  },
  {
    "id": 29460,
    "name": "HUTA BARINGIN",
    "zip_code": "22976"
  },
  {
    "id": 29461,
    "name": "HUTA GODANG MUDA",
    "zip_code": "22976"
  },
  {
    "id": 29462,
    "name": "HUTA PULI",
    "zip_code": "22976"
  },
  {
    "id": 29463,
    "name": "LUMBAN DOLOK",
    "zip_code": "22976"
  },
  {
    "id": 29464,
    "name": "LUMBAN PINASA",
    "zip_code": "22976"
  },
  {
    "id": 29465,
    "name": "MUARA BATANG ANGKOLA",
    "zip_code": "22976"
  },
  {
    "id": 29466,
    "name": "PINTU PADANG JAE",
    "zip_code": "22976"
  },
  {
    "id": 29467,
    "name": "PINTU PADANG JULU",
    "zip_code": "22976"
  },
  {
    "id": 29468,
    "name": "SIABU",
    "zip_code": "22976"
  },
  {
    "id": 29469,
    "name": "SIBARUANG",
    "zip_code": "22976"
  },
  {
    "id": 29470,
    "name": "SIHEPENG",
    "zip_code": "22976"
  },
  {
    "id": 29471,
    "name": "SIHEPENG DUA",
    "zip_code": "22976"
  },
  {
    "id": 29472,
    "name": "SIHEPENG LIMA",
    "zip_code": "22976"
  },
  {
    "id": 29473,
    "name": "SIHEPENG OPAT",
    "zip_code": "22976"
  },
  {
    "id": 29474,
    "name": "SIHEPENG SADA",
    "zip_code": "22976"
  },
  {
    "id": 29475,
    "name": "SIHEPENG TOLU",
    "zip_code": "22976"
  },
  {
    "id": 29476,
    "name": "SIMANGAMBAT",
    "zip_code": "22976"
  },
  {
    "id": 29477,
    "name": "SINONOAN",
    "zip_code": "22976"
  },
  {
    "id": 29478,
    "name": "TANGGA BOSI I",
    "zip_code": "22976"
  },
  {
    "id": 29479,
    "name": "TANGGA BOSI II",
    "zip_code": "22976"
  },
  {
    "id": 29480,
    "name": "TANGGA BOSI III",
    "zip_code": "22976"
  },
  {
    "id": 29481,
    "name": "TANJUNG SIALANG",
    "zip_code": "22976"
  },
  {
    "id": 43200,
    "name": "SIMANINGGIR",
    "zip_code": "22976"
  },
  {
    "id": 43220,
    "name": "HUTA RAJA",
    "zip_code": "22976"
  }
]