[
  {
    "id": 29949,
    "name": "AEK NAULI",
    "zip_code": "22738"
  },
  {
    "id": 29950,
    "name": "AEK PINING",
    "zip_code": "22738"
  },
  {
    "id": 29951,
    "name": "BATU HORING",
    "zip_code": "22738"
  },
  {
    "id": 29952,
    "name": "BATU HULA",
    "zip_code": "22738"
  },
  {
    "id": 29953,
    "name": "GAROGA",
    "zip_code": "22738"
  },
  {
    "id": 29954,
    "name": "HAPESONG BARU",
    "zip_code": "22738"
  },
  {
    "id": 29955,
    "name": "HAPESONG LAMA",
    "zip_code": "22738"
  },
  {
    "id": 29956,
    "name": "HUTABARU",
    "zip_code": "22738"
  },
  {
    "id": 29957,
    "name": "HUTAGODANG",
    "zip_code": "22738"
  },
  {
    "id": 29958,
    "name": "NAPA",
    "zip_code": "22738"
  },
  {
    "id": 29959,
    "name": "PADANG LANCAT",
    "zip_code": "22738"
  },
  {
    "id": 29960,
    "name": "PERKEBUNAN BATANG TORU",
    "zip_code": "22738"
  },
  {
    "id": 29961,
    "name": "PERKEBUNAN HAPESONG",
    "zip_code": "22738"
  },
  {
    "id": 29962,
    "name": "PERKEBUNAN SIGALA-GALA",
    "zip_code": "22738"
  },
  {
    "id": 29963,
    "name": "SIANGGUNAN",
    "zip_code": "22738"
  },
  {
    "id": 29964,
    "name": "SIPENGGENG",
    "zip_code": "22738"
  },
  {
    "id": 29965,
    "name": "SISIPA",
    "zip_code": "22738"
  },
  {
    "id": 29966,
    "name": "SUMURAN",
    "zip_code": "22738"
  },
  {
    "id": 29967,
    "name": "TELO",
    "zip_code": "22738"
  },
  {
    "id": 29968,
    "name": "WEK I BATANG TORU",
    "zip_code": "22738"
  },
  {
    "id": 29969,
    "name": "WEK II BATANG TORU",
    "zip_code": "22738"
  },
  {
    "id": 29970,
    "name": "WEK III BATANG TORU",
    "zip_code": "22738"
  },
  {
    "id": 29971,
    "name": "WEK IV BATANG TORU",
    "zip_code": "22738"
  }
]