[
  {
    "id": 53933,
    "name": "AIR CEKDAM",
    "zip_code": "31172"
  },
  {
    "id": 53934,
    "name": "AIR ENAU",
    "zip_code": "31172"
  },
  {
    "id": 53935,
    "name": "AIR LIMAU",
    "zip_code": "31172"
  },
  {
    "id": 53936,
    "name": "AIR TALAS",
    "zip_code": "31172"
  },
  {
    "id": 53937,
    "name": "AUR DURI",
    "zip_code": "31172"
  },
  {
    "id": 53938,
    "name": "BANUAYU",
    "zip_code": "31172"
  },
  {
    "id": 53939,
    "name": "BATU RAJA",
    "zip_code": "31172"
  },
  {
    "id": 53940,
    "name": "DANGKU",
    "zip_code": "31172"
  },
  {
    "id": 53941,
    "name": "GEMAWANG",
    "zip_code": "31172"
  },
  {
    "id": 53942,
    "name": "GERINAM",
    "zip_code": "31172"
  },
  {
    "id": 53943,
    "name": "GUNUNG RAJA",
    "zip_code": "31172"
  },
  {
    "id": 53944,
    "name": "JEMENANG",
    "zip_code": "31172"
  },
  {
    "id": 53945,
    "name": "KAHURIPAN BARU",
    "zip_code": "31172"
  },
  {
    "id": 53946,
    "name": "KAHURIPAN SELATAN",
    "zip_code": "31172"
  },
  {
    "id": 53947,
    "name": "KASIH DEWA",
    "zip_code": "31172"
  },
  {
    "id": 53948,
    "name": "KURIPAN",
    "zip_code": "31172"
  },
  {
    "id": 53949,
    "name": "LUBUK RAMAN",
    "zip_code": "31172"
  },
  {
    "id": 53950,
    "name": "MANUNGGAL JAYA",
    "zip_code": "31172"
  },
  {
    "id": 53951,
    "name": "MANUNGGAL MAKMUR",
    "zip_code": "31172"
  },
  {
    "id": 53952,
    "name": "MUARA EMBURUNG",
    "zip_code": "31172"
  },
  {
    "id": 53953,
    "name": "MUARA NIRU",
    "zip_code": "31172"
  },
  {
    "id": 53954,
    "name": "PANGKALAN BABAT",
    "zip_code": "31172"
  },
  {
    "id": 53955,
    "name": "SIKU",
    "zip_code": "31172"
  },
  {
    "id": 53956,
    "name": "SUBAN JERIJI",
    "zip_code": "31172"
  },
  {
    "id": 53957,
    "name": "TANJUNG MENANG",
    "zip_code": "31172"
  },
  {
    "id": 53958,
    "name": "TEBAT AGUNG",
    "zip_code": "31172"
  }
]