[
  {
    "id": 73825,
    "name": "AIK KETEKOK",
    "zip_code": "33411"
  },
  {
    "id": 73826,
    "name": "AIK PALEMPANG JAYA",
    "zip_code": "33414"
  },
  {
    "id": 73827,
    "name": "AIK RAYAK",
    "zip_code": "33413"
  },
  {
    "id": 73828,
    "name": "AIR MERBAU",
    "zip_code": "33411"
  },
  {
    "id": 73829,
    "name": "AIR SAGA",
    "zip_code": "33415"
  },
  {
    "id": 73830,
    "name": "BULUH TUMBANG",
    "zip_code": "33411"
  },
  {
    "id": 73831,
    "name": "DUKONG",
    "zip_code": "33411"
  },
  {
    "id": 73832,
    "name": "JURU SEBERANG",
    "zip_code": "33417"
  },
  {
    "id": 73833,
    "name": "KAMPONG DAMAI",
    "zip_code": "33411"
  },
  {
    "id": 73834,
    "name": "KOTA",
    "zip_code": "33411"
  },
  {
    "id": 73835,
    "name": "LESUNG BATANG",
    "zip_code": "33411"
  },
  {
    "id": 73836,
    "name": "PAAL SATU",
    "zip_code": "33414"
  },
  {
    "id": 73837,
    "name": "PANGKALLALANG",
    "zip_code": "33412"
  },
  {
    "id": 73838,
    "name": "PARIT",
    "zip_code": "33411"
  },
  {
    "id": 73839,
    "name": "PERAWAS",
    "zip_code": "33413"
  },
  {
    "id": 73840,
    "name": "TANJUNGPENDAM",
    "zip_code": "33411"
  }
]