[
  {
    "id": 78172,
    "name": "AMASING KALI",
    "zip_code": "97791"
  },
  {
    "id": 78173,
    "name": "AMASING KOTA",
    "zip_code": "97791"
  },
  {
    "id": 78174,
    "name": "AMASING KOTA BARAT",
    "zip_code": "97791"
  },
  {
    "id": 78175,
    "name": "AMASING KOTA UTARA",
    "zip_code": "97791"
  },
  {
    "id": 78176,
    "name": "AWANGGOA",
    "zip_code": "97791"
  },
  {
    "id": 78177,
    "name": "BELANG BELANG",
    "zip_code": "97791"
  },
  {
    "id": 78178,
    "name": "HIDAYAT",
    "zip_code": "97791"
  },
  {
    "id": 78179,
    "name": "INDOMUT",
    "zip_code": "97791"
  },
  {
    "id": 78180,
    "name": "KAPUTUSAN (KAPUTUSANG)",
    "zip_code": "97791"
  },
  {
    "id": 78181,
    "name": "LABUHA",
    "zip_code": "97791"
  },
  {
    "id": 78182,
    "name": "MARABOSE",
    "zip_code": "97791"
  },
  {
    "id": 78183,
    "name": "SUMA TINGGI",
    "zip_code": "97791"
  },
  {
    "id": 78184,
    "name": "SUMAE",
    "zip_code": "97791"
  },
  {
    "id": 78185,
    "name": "TOMORI",
    "zip_code": "97791"
  }
]