[
  {
    "id": 22993,
    "name": "AIKAI",
    "zip_code": "98711"
  },
  {
    "id": 22994,
    "name": "AWABUTU",
    "zip_code": "98713"
  },
  {
    "id": 22995,
    "name": "BADAWO",
    "zip_code": "98711"
  },
  {
    "id": 22996,
    "name": "DAGOUTO",
    "zip_code": "98711"
  },
  {
    "id": 22997,
    "name": "DEI",
    "zip_code": "98716"
  },
  {
    "id": 22998,
    "name": "ENAROTALI",
    "zip_code": "98719"
  },
  {
    "id": 22999,
    "name": "GEIBU",
    "zip_code": "98711"
  },
  {
    "id": 23000,
    "name": "GEKO",
    "zip_code": "98711"
  },
  {
    "id": 23001,
    "name": "IPAKIYE",
    "zip_code": "98711"
  },
  {
    "id": 23002,
    "name": "KAGUPAGO",
    "zip_code": "98711"
  },
  {
    "id": 23003,
    "name": "KOGEKOTU",
    "zip_code": "98711"
  },
  {
    "id": 23004,
    "name": "KOPAIDAGI",
    "zip_code": "98711"
  },
  {
    "id": 23005,
    "name": "KOPO",
    "zip_code": "98712"
  },
  {
    "id": 23006,
    "name": "MADI",
    "zip_code": "98714"
  },
  {
    "id": 23007,
    "name": "MUGIMEKETAGO",
    "zip_code": "98724"
  },
  {
    "id": 23008,
    "name": "OBAYAWETA",
    "zip_code": "98722"
  },
  {
    "id": 23009,
    "name": "OYAIGO",
    "zip_code": "98716"
  },
  {
    "id": 23010,
    "name": "PAPATO",
    "zip_code": "98711"
  },
  {
    "id": 23011,
    "name": "PUGO",
    "zip_code": "98711"
  },
  {
    "id": 23012,
    "name": "TIMIDA",
    "zip_code": "98713"
  },
  {
    "id": 23013,
    "name": "TOKO",
    "zip_code": "98711"
  },
  {
    "id": 23014,
    "name": "TUAMAKIDA",
    "zip_code": "98713"
  },
  {
    "id": 23015,
    "name": "UWAMANI",
    "zip_code": "98715"
  },
  {
    "id": 23016,
    "name": "UWIBUTU",
    "zip_code": "98711"
  },
  {
    "id": 23017,
    "name": "WAGE",
    "zip_code": "98711"
  },
  {
    "id": 23018,
    "name": "WAIDEDE",
    "zip_code": "98711"
  }
]