[
  {
    "id": 27465,
    "name": "ANGORUDUA BALAEKHA",
    "zip_code": "22874"
  },
  {
    "id": 27466,
    "name": "BAWOLATO",
    "zip_code": "22874"
  },
  {
    "id": 27467,
    "name": "BAWOOTALUA",
    "zip_code": "22874"
  },
  {
    "id": 27468,
    "name": "BAWOZIHONO",
    "zip_code": "22874"
  },
  {
    "id": 27469,
    "name": "GOLAMBANUA I",
    "zip_code": "22874"
  },
  {
    "id": 27470,
    "name": "HARENORO",
    "zip_code": "22874"
  },
  {
    "id": 27471,
    "name": "HILIABOLATA",
    "zip_code": "22874"
  },
  {
    "id": 27472,
    "name": "HILIGAMBUKHA",
    "zip_code": "22874"
  },
  {
    "id": 27473,
    "name": "HILINAWALO BALAEKHA",
    "zip_code": "22874"
  },
  {
    "id": 27474,
    "name": "HILIORUDUA",
    "zip_code": "22874"
  },
  {
    "id": 27475,
    "name": "HILISIMAETANO",
    "zip_code": "22874"
  },
  {
    "id": 27476,
    "name": "HILIWATEMA",
    "zip_code": "22874"
  },
  {
    "id": 27477,
    "name": "HILIZOMBOI",
    "zip_code": "22874"
  },
  {
    "id": 27478,
    "name": "LAHUSA",
    "zip_code": "22874"
  },
  {
    "id": 27479,
    "name": "LAHUSA SATU",
    "zip_code": "22874"
  },
  {
    "id": 27480,
    "name": "MOGAE",
    "zip_code": "22874"
  },
  {
    "id": 27481,
    "name": "OIKHODA BALAEKHA",
    "zip_code": "22874"
  },
  {
    "id": 27482,
    "name": "ORAHILI BALAEKHA",
    "zip_code": "22874"
  },
  {
    "id": 27483,
    "name": "SARAHILILAZA",
    "zip_code": "22874"
  },
  {
    "id": 27484,
    "name": "SINAR BAHO",
    "zip_code": "22874"
  },
  {
    "id": 27485,
    "name": "SINAR BARU",
    "zip_code": "22874"
  },
  {
    "id": 27486,
    "name": "SOBAWAGOLI",
    "zip_code": "22874"
  },
  {
    "id": 27487,
    "name": "TETEZOU (FETEZOU)",
    "zip_code": "22874"
  }
]