[
  {
    "id": 79046,
    "name": "AKEDOTILOU",
    "zip_code": "97852"
  },
  {
    "id": 79047,
    "name": "AKEGURACI",
    "zip_code": "97852"
  },
  {
    "id": 79048,
    "name": "AKELAMO",
    "zip_code": "97852"
  },
  {
    "id": 79049,
    "name": "AKESAI",
    "zip_code": "97852"
  },
  {
    "id": 79050,
    "name": "AKETOBATU",
    "zip_code": "97852"
  },
  {
    "id": 79051,
    "name": "AKETOBOLOLO",
    "zip_code": "97852"
  },
  {
    "id": 79052,
    "name": "BARINGIN JAYA",
    "zip_code": "97852"
  },
  {
    "id": 79053,
    "name": "FANAHA",
    "zip_code": "97852"
  },
  {
    "id": 79054,
    "name": "LOLA",
    "zip_code": "97852"
  },
  {
    "id": 79055,
    "name": "SIOKONA",
    "zip_code": "97852"
  },
  {
    "id": 79056,
    "name": "TADUPI",
    "zip_code": "97852"
  },
  {
    "id": 79057,
    "name": "TAUNO",
    "zip_code": "97852"
  },
  {
    "id": 79058,
    "name": "TOGEME",
    "zip_code": "97852"
  },
  {
    "id": 79059,
    "name": "YEHU",
    "zip_code": "97852"
  }
]