[
  {
    "id": 58422,
    "name": "AIR NYURUK",
    "zip_code": "78652"
  },
  {
    "id": 58423,
    "name": "BATU AMPAR",
    "zip_code": "78652"
  },
  {
    "id": 58424,
    "name": "BAUNG SENGATAP",
    "zip_code": "78652"
  },
  {
    "id": 58425,
    "name": "BELUH MULYO",
    "zip_code": "78652"
  },
  {
    "id": 58426,
    "name": "BETUNG PERMAI",
    "zip_code": "78652"
  },
  {
    "id": 58427,
    "name": "BUKIT SIDIN PERMAI",
    "zip_code": "78652"
  },
  {
    "id": 58428,
    "name": "KENUAK",
    "zip_code": "78652"
  },
  {
    "id": 58429,
    "name": "NANGA KETUNGAU",
    "zip_code": "78652"
  },
  {
    "id": 58430,
    "name": "NANGA MERKAK",
    "zip_code": "78652"
  },
  {
    "id": 58431,
    "name": "NANGA SEJIRAK",
    "zip_code": "78652"
  },
  {
    "id": 58432,
    "name": "SEI/SUNGAI DERAS",
    "zip_code": "78652"
  },
  {
    "id": 58433,
    "name": "SEI/SUNGAI MALI",
    "zip_code": "78652"
  },
  {
    "id": 58434,
    "name": "SEMAJAU MEKAR",
    "zip_code": "78652"
  },
  {
    "id": 58435,
    "name": "SEMUNTAI",
    "zip_code": "78652"
  },
  {
    "id": 58436,
    "name": "SENIBUNG",
    "zip_code": "78652"
  },
  {
    "id": 58437,
    "name": "SETUNGKUP",
    "zip_code": "78652"
  },
  {
    "id": 58438,
    "name": "TANJUNG BAUNG",
    "zip_code": "78652"
  }
]