[
  {
    "id": 27169,
    "name": "FAHANDRONA",
    "zip_code": "22861"
  },
  {
    "id": 27170,
    "name": "FATODANO",
    "zip_code": "22861"
  },
  {
    "id": 27171,
    "name": "HILIBADALU",
    "zip_code": "22861"
  },
  {
    "id": 27172,
    "name": "HILIGAFOA",
    "zip_code": "22861"
  },
  {
    "id": 27173,
    "name": "HILIMBOWO",
    "zip_code": "22861"
  },
  {
    "id": 27174,
    "name": "HILIWETO GELA (SOMOLOMOLO)",
    "zip_code": "22861"
  },
  {
    "id": 27175,
    "name": "HOLI",
    "zip_code": "22861"
  },
  {
    "id": 27176,
    "name": "LAWA-LAWALUO",
    "zip_code": "22861"
  },
  {
    "id": 27177,
    "name": "MOHILI",
    "zip_code": "22861"
  },
  {
    "id": 27178,
    "name": "ONODALINGA",
    "zip_code": "22861"
  },
  {
    "id": 27179,
    "name": "ORAHILI SOMOLOMOLO",
    "zip_code": "22861"
  },
  {
    "id": 27180,
    "name": "SIFAOROASI ULUGAWO",
    "zip_code": "22861"
  },
  {
    "id": 27181,
    "name": "SISARAHILI SOROMA'ASI",
    "zip_code": "22861"
  },
  {
    "id": 27182,
    "name": "SISOBAHILI ULUGAWO",
    "zip_code": "22861"
  }
]