[
  {
    "id": 25008,
    "name": "ANGGRESO",
    "zip_code": "99376"
  },
  {
    "id": 25009,
    "name": "BABIJA",
    "zip_code": "99376"
  },
  {
    "id": 25010,
    "name": "BURMESO",
    "zip_code": "99376"
  },
  {
    "id": 25011,
    "name": "DANAU BIRA",
    "zip_code": "99376"
  },
  {
    "id": 25012,
    "name": "KASONAWEJA",
    "zip_code": "99376"
  },
  {
    "id": 25013,
    "name": "KUASTRA",
    "zip_code": "99376"
  },
  {
    "id": 25014,
    "name": "KWERBA",
    "zip_code": "99376"
  },
  {
    "id": 25015,
    "name": "MARINA VALEN (MARINE VALEN)",
    "zip_code": "99376"
  },
  {
    "id": 25016,
    "name": "METAWEJA",
    "zip_code": "99376"
  },
  {
    "id": 25017,
    "name": "MURUMARE (MUARAMAREI)",
    "zip_code": "99376"
  },
  {
    "id": 25018,
    "name": "NAMUNAWEJA",
    "zip_code": "99376"
  },
  {
    "id": 25019,
    "name": "SASWA KWESAR (SAUSAUA KWESAR/SASAWAKWESAR)",
    "zip_code": "99376"
  },
  {
    "id": 25020,
    "name": "TOWAO",
    "zip_code": "99376"
  }
]