[
  {
    "id": 65954,
    "name": "BEKUTUK",
    "zip_code": "58382"
  },
  {
    "id": 65955,
    "name": "BODEH",
    "zip_code": "58382"
  },
  {
    "id": 65956,
    "name": "GEMBYUNGAN",
    "zip_code": "58382"
  },
  {
    "id": 65957,
    "name": "JERUK",
    "zip_code": "58382"
  },
  {
    "id": 65958,
    "name": "KADENGAN",
    "zip_code": "58382"
  },
  {
    "id": 65959,
    "name": "KALISARI",
    "zip_code": "58382"
  },
  {
    "id": 65960,
    "name": "KEDIREN",
    "zip_code": "58382"
  },
  {
    "id": 65961,
    "name": "KUTUKAN",
    "zip_code": "58382"
  },
  {
    "id": 65962,
    "name": "NGLIRON",
    "zip_code": "58382"
  },
  {
    "id": 65963,
    "name": "PILANG",
    "zip_code": "58382"
  },
  {
    "id": 65964,
    "name": "PLOSOREJO",
    "zip_code": "58382"
  },
  {
    "id": 65965,
    "name": "RANDUBLATUNG",
    "zip_code": "58382"
  },
  {
    "id": 65966,
    "name": "SAMBONGWANGAN",
    "zip_code": "58382"
  },
  {
    "id": 65967,
    "name": "SUMBERJO",
    "zip_code": "58382"
  },
  {
    "id": 65968,
    "name": "TANGGEL",
    "zip_code": "58382"
  },
  {
    "id": 65969,
    "name": "TEMULUS",
    "zip_code": "58382"
  },
  {
    "id": 65970,
    "name": "TLOGOTUWUNG",
    "zip_code": "58382"
  },
  {
    "id": 65971,
    "name": "WULUNG",
    "zip_code": "58382"
  }
]