[
  {
    "id": 47280,
    "name": "ARDIMULYO",
    "zip_code": "65153"
  },
  {
    "id": 47281,
    "name": "BANJARARUM",
    "zip_code": "65153"
  },
  {
    "id": 47282,
    "name": "BATURETNO",
    "zip_code": "65153"
  },
  {
    "id": 47283,
    "name": "CANDIRENGGO",
    "zip_code": "65153"
  },
  {
    "id": 47284,
    "name": "DENGKOL",
    "zip_code": "65153"
  },
  {
    "id": 47285,
    "name": "GUNUNGREJO",
    "zip_code": "65153"
  },
  {
    "id": 47286,
    "name": "KLAMPOK",
    "zip_code": "65153"
  },
  {
    "id": 47287,
    "name": "LANGLANG",
    "zip_code": "65153"
  },
  {
    "id": 47288,
    "name": "LOSARI",
    "zip_code": "65153"
  },
  {
    "id": 47289,
    "name": "PAGENTAN",
    "zip_code": "65153"
  },
  {
    "id": 47290,
    "name": "PURWOASRI",
    "zip_code": "65153"
  },
  {
    "id": 47291,
    "name": "RANDUAGUNG",
    "zip_code": "65153"
  },
  {
    "id": 47292,
    "name": "TAMANHARJO",
    "zip_code": "65153"
  },
  {
    "id": 47293,
    "name": "TOYOMARTO",
    "zip_code": "65153"
  },
  {
    "id": 47294,
    "name": "TUNJUNGTIRTO",
    "zip_code": "65153"
  },
  {
    "id": 47295,
    "name": "WATUGEDE",
    "zip_code": "65153"
  },
  {
    "id": 47296,
    "name": "WONOREJO",
    "zip_code": "65153"
  }
]