[
  {
    "id": 32679,
    "name": "AMANDETE",
    "zip_code": "93463"
  },
  {
    "id": 32680,
    "name": "AMONGGEDO",
    "zip_code": "93463"
  },
  {
    "id": 32681,
    "name": "AMONGGEDO BARU",
    "zip_code": "93463"
  },
  {
    "id": 32682,
    "name": "ANAHINUNU",
    "zip_code": "93463"
  },
  {
    "id": 32683,
    "name": "BENUA",
    "zip_code": "93463"
  },
  {
    "id": 32684,
    "name": "DUNGGUA",
    "zip_code": "93463"
  },
  {
    "id": 32685,
    "name": "LALONONA",
    "zip_code": "93463"
  },
  {
    "id": 32686,
    "name": "MATA BURA",
    "zip_code": "93463"
  },
  {
    "id": 32687,
    "name": "MATA IWOI",
    "zip_code": "93463"
  },
  {
    "id": 32688,
    "name": "MENDIKONU",
    "zip_code": "93463"
  },
  {
    "id": 32689,
    "name": "PUASANA",
    "zip_code": "93463"
  },
  {
    "id": 32690,
    "name": "ULU BENUA",
    "zip_code": "93463"
  },
  {
    "id": 32691,
    "name": "WATULAWU",
    "zip_code": "93463"
  },
  {
    "id": 32692,
    "name": "WAWOHINE",
    "zip_code": "93463"
  }
]