[
  {
    "id": 66052,
    "name": "DANDER",
    "zip_code": "62171"
  },
  {
    "id": 66053,
    "name": "GROWOK",
    "zip_code": "62171"
  },
  {
    "id": 66054,
    "name": "JATIBLIMBING",
    "zip_code": "62171"
  },
  {
    "id": 66055,
    "name": "KARANGSONO",
    "zip_code": "62171"
  },
  {
    "id": 66056,
    "name": "KUNCI",
    "zip_code": "62171"
  },
  {
    "id": 66057,
    "name": "MOJORANU",
    "zip_code": "62171"
  },
  {
    "id": 66058,
    "name": "NGABLAK",
    "zip_code": "62171"
  },
  {
    "id": 66059,
    "name": "NGRASEH",
    "zip_code": "62171"
  },
  {
    "id": 66060,
    "name": "NGULANAN",
    "zip_code": "62171"
  },
  {
    "id": 66061,
    "name": "NGUMPAK DALEM",
    "zip_code": "62171"
  },
  {
    "id": 66062,
    "name": "NGUNUT",
    "zip_code": "62171"
  },
  {
    "id": 66063,
    "name": "SENDANGREJO",
    "zip_code": "62171"
  },
  {
    "id": 66064,
    "name": "SUMBER AGUNG",
    "zip_code": "62171"
  },
  {
    "id": 66065,
    "name": "SUMBER ARUM",
    "zip_code": "62171"
  },
  {
    "id": 66066,
    "name": "SUMBER TLASEH",
    "zip_code": "62171"
  },
  {
    "id": 66067,
    "name": "SUMODIKARAN",
    "zip_code": "62171"
  }
]