[
  {
    "id": 33522,
    "name": "AKUNI",
    "zip_code": "93885"
  },
  {
    "id": 33523,
    "name": "ASINGI",
    "zip_code": "93885"
  },
  {
    "id": 33524,
    "name": "BOMBA-BOMBA",
    "zip_code": "93885"
  },
  {
    "id": 33525,
    "name": "BUNGIN PERMAI",
    "zip_code": "93885"
  },
  {
    "id": 33526,
    "name": "LALO WATU",
    "zip_code": "93885"
  },
  {
    "id": 33527,
    "name": "LALONGGASU",
    "zip_code": "93885"
  },
  {
    "id": 33528,
    "name": "LANOWULU",
    "zip_code": "93885"
  },
  {
    "id": 33529,
    "name": "LAPOA",
    "zip_code": "93885"
  },
  {
    "id": 33530,
    "name": "LAPULU",
    "zip_code": "93885"
  },
  {
    "id": 33531,
    "name": "LASUAI",
    "zip_code": "93885"
  },
  {
    "id": 33532,
    "name": "MATAMBAWI",
    "zip_code": "93885"
  },
  {
    "id": 33533,
    "name": "MATANDAHI",
    "zip_code": "93885"
  },
  {
    "id": 33534,
    "name": "MOOLO INDAH",
    "zip_code": "93885"
  },
  {
    "id": 33535,
    "name": "NGAPAAH (NGAPAAHA)",
    "zip_code": "93885"
  },
  {
    "id": 33536,
    "name": "PALO TAWO",
    "zip_code": "93885"
  },
  {
    "id": 33537,
    "name": "PANGGOOSI",
    "zip_code": "93885"
  },
  {
    "id": 33538,
    "name": "RORAYA",
    "zip_code": "93885"
  },
  {
    "id": 33539,
    "name": "TATANGGE",
    "zip_code": "93885"
  },
  {
    "id": 33540,
    "name": "TELUTU JAYA",
    "zip_code": "93885"
  },
  {
    "id": 33541,
    "name": "TINANGGEA",
    "zip_code": "93885"
  },
  {
    "id": 33542,
    "name": "TOROKEKU",
    "zip_code": "93885"
  },
  {
    "id": 33543,
    "name": "WADANGGO",
    "zip_code": "93885"
  },
  {
    "id": 33544,
    "name": "WATUMELEWE",
    "zip_code": "93885"
  },
  {
    "id": 33545,
    "name": "WUNDUMBOLO",
    "zip_code": "93885"
  }
]