[
  {
    "id": 68013,
    "name": "BANYUURIP",
    "zip_code": "59262"
  },
  {
    "id": 68014,
    "name": "CRIWIK",
    "zip_code": "59262"
  },
  {
    "id": 68015,
    "name": "DOROPAYUNG",
    "zip_code": "59262"
  },
  {
    "id": 68016,
    "name": "GEMBLENGMULYO",
    "zip_code": "59262"
  },
  {
    "id": 68017,
    "name": "JAPELEDOK",
    "zip_code": "59262"
  },
  {
    "id": 68018,
    "name": "JERUK",
    "zip_code": "59262"
  },
  {
    "id": 68019,
    "name": "JOHOGUNUNG",
    "zip_code": "59262"
  },
  {
    "id": 68020,
    "name": "KALITENGAH",
    "zip_code": "59262"
  },
  {
    "id": 68021,
    "name": "KARASKEPOH",
    "zip_code": "59262"
  },
  {
    "id": 68022,
    "name": "KEDUNG",
    "zip_code": "59262"
  },
  {
    "id": 68023,
    "name": "LANGKIR",
    "zip_code": "59262"
  },
  {
    "id": 68024,
    "name": "NGROTO",
    "zip_code": "59262"
  },
  {
    "id": 68025,
    "name": "NGULANGAN",
    "zip_code": "59262"
  },
  {
    "id": 68026,
    "name": "PANCUR",
    "zip_code": "59262"
  },
  {
    "id": 68027,
    "name": "PANDAN",
    "zip_code": "59262"
  },
  {
    "id": 68028,
    "name": "POHLANDAK",
    "zip_code": "59262"
  },
  {
    "id": 68029,
    "name": "PUNGGURHARJO",
    "zip_code": "59262"
  },
  {
    "id": 68030,
    "name": "SIDOWAYAH",
    "zip_code": "59262"
  },
  {
    "id": 68031,
    "name": "SUMBERAGUNG",
    "zip_code": "59262"
  },
  {
    "id": 68032,
    "name": "TRENGGULUNAN",
    "zip_code": "59262"
  },
  {
    "id": 68033,
    "name": "TUYUHAN",
    "zip_code": "59262"
  },
  {
    "id": 68034,
    "name": "WARUGUNUNG",
    "zip_code": "59262"
  },
  {
    "id": 68035,
    "name": "WUWUR",
    "zip_code": "59262"
  }
]