[
  {
    "id": 36734,
    "name": "COMPANG LIANG NDARA",
    "zip_code": "86757"
  },
  {
    "id": 36735,
    "name": "CUNCA LOLOS",
    "zip_code": "86757"
  },
  {
    "id": 36736,
    "name": "CUNCA WULANG",
    "zip_code": "86757"
  },
  {
    "id": 36737,
    "name": "GOLO DAMU",
    "zip_code": "86757"
  },
  {
    "id": 36738,
    "name": "GOLO DESAT",
    "zip_code": "86757"
  },
  {
    "id": 36739,
    "name": "GOLO NDOAL",
    "zip_code": "86757"
  },
  {
    "id": 36740,
    "name": "GOLO SEMBEA",
    "zip_code": "86757"
  },
  {
    "id": 36741,
    "name": "GOLO TANTONG",
    "zip_code": "86757"
  },
  {
    "id": 36742,
    "name": "KEMPO",
    "zip_code": "86757"
  },
  {
    "id": 36743,
    "name": "LIANG NDARA",
    "zip_code": "86757"
  },
  {
    "id": 36744,
    "name": "TANDONG BELANG",
    "zip_code": "86757"
  },
  {
    "id": 36745,
    "name": "TIWI RIWUNG",
    "zip_code": "86757"
  },
  {
    "id": 36746,
    "name": "WAE JARE",
    "zip_code": "86757"
  },
  {
    "id": 36747,
    "name": "WATU GALANG",
    "zip_code": "86757"
  },
  {
    "id": 36748,
    "name": "WATU WANGKA",
    "zip_code": "86757"
  }
]