[
  {
    "id": 74388,
    "name": "GUNUNG KATON",
    "zip_code": "34557"
  },
  {
    "id": 74389,
    "name": "KARANG WARINGIN",
    "zip_code": "34557"
  },
  {
    "id": 74390,
    "name": "KEMALA RAJA",
    "zip_code": "34557"
  },
  {
    "id": 74391,
    "name": "MEKAR JAYA",
    "zip_code": "34557"
  },
  {
    "id": 74392,
    "name": "MERAMBUNG",
    "zip_code": "34557"
  },
  {
    "id": 74393,
    "name": "PRIANGAN RATU",
    "zip_code": "34557"
  },
  {
    "id": 74394,
    "name": "SIDO MULYO",
    "zip_code": "34557"
  },
  {
    "id": 74395,
    "name": "SINAR JAYA",
    "zip_code": "34557"
  },
  {
    "id": 74396,
    "name": "SINARMULYA",
    "zip_code": "34557"
  },
  {
    "id": 74397,
    "name": "SINDANG AGUNG",
    "zip_code": "34557"
  },
  {
    "id": 74398,
    "name": "SINDANG MARGA",
    "zip_code": "34557"
  },
  {
    "id": 74399,
    "name": "SRI MENANTI",
    "zip_code": "34557"
  },
  {
    "id": 74400,
    "name": "SUKA MULYA",
    "zip_code": "34557"
  },
  {
    "id": 74401,
    "name": "SUKASARI",
    "zip_code": "34557"
  },
  {
    "id": 74402,
    "name": "TANJUNG BERINGIN",
    "zip_code": "34557"
  },
  {
    "id": 74403,
    "name": "TANJUNG RAJA",
    "zip_code": "34557"
  },
  {
    "id": 74404,
    "name": "TANJUNG RIANG",
    "zip_code": "34557"
  },
  {
    "id": 74405,
    "name": "TULUNG BALAK",
    "zip_code": "34557"
  },
  {
    "id": 74406,
    "name": "ULAK ATA",
    "zip_code": "34557"
  }
]