[
  {
    "id": 58818,
    "name": "ARIUNG MENDALAM",
    "zip_code": "78716"
  },
  {
    "id": 58819,
    "name": "BANUA TANGA",
    "zip_code": "78716"
  },
  {
    "id": 58820,
    "name": "DATAH DIAN",
    "zip_code": "78716"
  },
  {
    "id": 58821,
    "name": "HILIR KANTOR",
    "zip_code": "78716"
  },
  {
    "id": 58822,
    "name": "JANGKANG",
    "zip_code": "78716"
  },
  {
    "id": 58823,
    "name": "LAUK",
    "zip_code": "78716"
  },
  {
    "id": 58824,
    "name": "NANGA AWIN",
    "zip_code": "78716"
  },
  {
    "id": 58825,
    "name": "NANGA NYABAU",
    "zip_code": "78716"
  },
  {
    "id": 58826,
    "name": "NANGA SAMBUS",
    "zip_code": "78716"
  },
  {
    "id": 58827,
    "name": "PADUA MENDALAM",
    "zip_code": "78716"
  },
  {
    "id": 58828,
    "name": "PALA PULAU",
    "zip_code": "78716"
  },
  {
    "id": 58829,
    "name": "PUTUSSIBAU KOTA",
    "zip_code": "78716"
  },
  {
    "id": 58830,
    "name": "SELUAN",
    "zip_code": "78716"
  },
  {
    "id": 58831,
    "name": "SIBAU HILIR",
    "zip_code": "78716"
  },
  {
    "id": 58832,
    "name": "SIBAU HULU",
    "zip_code": "78716"
  },
  {
    "id": 58833,
    "name": "SUNGAI ULUK PALIN",
    "zip_code": "78716"
  },
  {
    "id": 58834,
    "name": "TANJUNG BERUANG",
    "zip_code": "78716"
  },
  {
    "id": 58835,
    "name": "TANJUNG KARANG",
    "zip_code": "78716"
  },
  {
    "id": 58836,
    "name": "TANJUNG LASA",
    "zip_code": "78716"
  }
]