[
  {
    "id": 50773,
    "name": "BANJAR BENAI",
    "zip_code": "29566"
  },
  {
    "id": 50774,
    "name": "BANJAR LOPAK",
    "zip_code": "29566"
  },
  {
    "id": 50775,
    "name": "BENAI",
    "zip_code": "29566"
  },
  {
    "id": 50776,
    "name": "BENAI KECIL",
    "zip_code": "29566"
  },
  {
    "id": 50777,
    "name": "GUNUNGKESIANGAN",
    "zip_code": "29566"
  },
  {
    "id": 50778,
    "name": "KOTO BENAI",
    "zip_code": "29566"
  },
  {
    "id": 50779,
    "name": "PULAUINGU",
    "zip_code": "29566"
  },
  {
    "id": 50780,
    "name": "PULAUKALIMANTING",
    "zip_code": "29566"
  },
  {
    "id": 50781,
    "name": "PULAULANCANG",
    "zip_code": "29566"
  },
  {
    "id": 50782,
    "name": "PULAUTONGAH",
    "zip_code": "29566"
  },
  {
    "id": 50783,
    "name": "SIBERAKUN",
    "zip_code": "29566"
  },
  {
    "id": 50784,
    "name": "SIMANDOLAK",
    "zip_code": "29566"
  },
  {
    "id": 50785,
    "name": "TALONTOM",
    "zip_code": "29566"
  },
  {
    "id": 50786,
    "name": "TANJUNGSIMANDOLAK",
    "zip_code": "29566"
  },
  {
    "id": 50787,
    "name": "TEBING TINGGI",
    "zip_code": "29566"
  },
  {
    "id": 50788,
    "name": "UJUNG TANJUNG",
    "zip_code": "29566"
  }
]