[
  {
    "id": 4731,
    "name": "AL KAUSAR",
    "zip_code": "72275"
  },
  {
    "id": 4732,
    "name": "BUKIT BARU",
    "zip_code": "72275"
  },
  {
    "id": 4733,
    "name": "JOMBANG",
    "zip_code": "72275"
  },
  {
    "id": 4734,
    "name": "MULYA MAKMUR",
    "zip_code": "72275"
  },
  {
    "id": 4735,
    "name": "PANDAMARAN JAYA",
    "zip_code": "72275"
  },
  {
    "id": 4736,
    "name": "SATUI BARAT",
    "zip_code": "72275"
  },
  {
    "id": 4737,
    "name": "SATUI TIMUR",
    "zip_code": "72275"
  },
  {
    "id": 4738,
    "name": "SEI/SUNGAI CUKA",
    "zip_code": "72275"
  },
  {
    "id": 4739,
    "name": "SEI/SUNGAI DANAU",
    "zip_code": "72275"
  },
  {
    "id": 4740,
    "name": "SEKAPUK",
    "zip_code": "72275"
  },
  {
    "id": 4741,
    "name": "SETARAP",
    "zip_code": "72275"
  },
  {
    "id": 4742,
    "name": "SINAR BULAN",
    "zip_code": "72275"
  },
  {
    "id": 4743,
    "name": "SUMBER ARUM",
    "zip_code": "72275"
  },
  {
    "id": 4744,
    "name": "SUMBER MAKMUR",
    "zip_code": "72275"
  },
  {
    "id": 4745,
    "name": "TEGAL SARI",
    "zip_code": "72275"
  },
  {
    "id": 4746,
    "name": "WONOREJO",
    "zip_code": "72275"
  },
  {
    "id": 82969,
    "name": "SEJAHTERA MULIA",
    "zip_code": "72275"
  }
]