[
  {
    "id": 58545,
    "name": "BANING PANJANG",
    "zip_code": "78656"
  },
  {
    "id": 58546,
    "name": "BENGKUANG",
    "zip_code": "78656"
  },
  {
    "id": 58547,
    "name": "ENSAID PANJANG",
    "zip_code": "78656"
  },
  {
    "id": 58548,
    "name": "GEMBA RAYA",
    "zip_code": "78656"
  },
  {
    "id": 58549,
    "name": "KARYA JAYA BHAKTI",
    "zip_code": "78656"
  },
  {
    "id": 58550,
    "name": "KEBONG",
    "zip_code": "78656"
  },
  {
    "id": 58551,
    "name": "LANDAU KODAM",
    "zip_code": "78656"
  },
  {
    "id": 58552,
    "name": "MANDIRI JAYA",
    "zip_code": "78656"
  },
  {
    "id": 58553,
    "name": "MERPAK",
    "zip_code": "78656"
  },
  {
    "id": 58554,
    "name": "NANGA LEBANG",
    "zip_code": "78656"
  },
  {
    "id": 58555,
    "name": "PELIMPING",
    "zip_code": "78656"
  },
  {
    "id": 58556,
    "name": "SEI/SUNGAI MARAM",
    "zip_code": "78656"
  },
  {
    "id": 58557,
    "name": "SEI/SUNGAI PUKAT",
    "zip_code": "78656"
  },
  {
    "id": 58558,
    "name": "SEPAN LEBANG",
    "zip_code": "78656"
  },
  {
    "id": 58559,
    "name": "SUNGAI LABI",
    "zip_code": "78656"
  },
  {
    "id": 58560,
    "name": "SUNGAI LAIS",
    "zip_code": "78656"
  }
]