[
  {
    "id": 53841,
    "name": "AIR DINGIN BARU",
    "zip_code": "31462"
  },
  {
    "id": 53842,
    "name": "AIR DINGIN LAMA",
    "zip_code": "31462"
  },
  {
    "id": 53843,
    "name": "MUARA DANAU",
    "zip_code": "31453"
  },
  {
    "id": 53844,
    "name": "PADANG PERIGI",
    "zip_code": "31462"
  },
  {
    "id": 53845,
    "name": "PANDAN ARANG ILIR",
    "zip_code": "31462"
  },
  {
    "id": 53846,
    "name": "TALANG JAWA",
    "zip_code": "31453"
  },
  {
    "id": 53847,
    "name": "TANJUNG BARU",
    "zip_code": "31462"
  },
  {
    "id": 53848,
    "name": "TANJUNG BAY/BAI",
    "zip_code": "31462"
  },
  {
    "id": 53849,
    "name": "TANJUNG KURUNG ILIR",
    "zip_code": "31462"
  },
  {
    "id": 53850,
    "name": "TANJUNG KURUNG ULU",
    "zip_code": "31462"
  },
  {
    "id": 53851,
    "name": "TANJUNG MENANG",
    "zip_code": "31453"
  },
  {
    "id": 53852,
    "name": "TANJUNG NIBUNG",
    "zip_code": "31462"
  },
  {
    "id": 53853,
    "name": "TANJUNG RAYA",
    "zip_code": "31453"
  },
  {
    "id": 53854,
    "name": "TANJUNG TEBAT",
    "zip_code": "31462"
  }
]