[
  {
    "id": 6994,
    "name": "AIR BANAI",
    "zip_code": "38374"
  },
  {
    "id": 6995,
    "name": "AIR BAUS I",
    "zip_code": "38374"
  },
  {
    "id": 6996,
    "name": "AIR BAUS II",
    "zip_code": "38374"
  },
  {
    "id": 6997,
    "name": "BATU LAYANG",
    "zip_code": "38374"
  },
  {
    "id": 6998,
    "name": "BATU RAJA KOL",
    "zip_code": "38374"
  },
  {
    "id": 6999,
    "name": "BATU RAJA REJANG",
    "zip_code": "38374"
  },
  {
    "id": 7000,
    "name": "BATU ROTO",
    "zip_code": "38374"
  },
  {
    "id": 7001,
    "name": "KOTA LEKAT ILIR",
    "zip_code": "38374"
  },
  {
    "id": 7002,
    "name": "KOTA LEKAT MUDIK",
    "zip_code": "38374"
  },
  {
    "id": 7003,
    "name": "PADANG BENDAR",
    "zip_code": "38374"
  },
  {
    "id": 7004,
    "name": "PEMATANG DALAM",
    "zip_code": "38374"
  },
  {
    "id": 7005,
    "name": "SUMBEREJO",
    "zip_code": "38374"
  },
  {
    "id": 7006,
    "name": "TABA PADANG KOL",
    "zip_code": "38374"
  },
  {
    "id": 7007,
    "name": "TABA PADANG REJANG",
    "zip_code": "38374"
  },
  {
    "id": 7008,
    "name": "TALANG RENDAH",
    "zip_code": "38374"
  }
]