[
  {
    "id": 64568,
    "name": "CIGERA",
    "zip_code": "98359"
  },
  {
    "id": 64569,
    "name": "CIRNOHU",
    "zip_code": "98359"
  },
  {
    "id": 64570,
    "name": "DANMOU",
    "zip_code": "98359"
  },
  {
    "id": 64571,
    "name": "DEMDAMEI",
    "zip_code": "98359"
  },
  {
    "id": 64572,
    "name": "DIBETIK",
    "zip_code": "98359"
  },
  {
    "id": 64573,
    "name": "DISRA",
    "zip_code": "98359"
  },
  {
    "id": 64574,
    "name": "DUGRIMOG",
    "zip_code": "98359"
  },
  {
    "id": 64575,
    "name": "GEDEIRA",
    "zip_code": "98359"
  },
  {
    "id": 64576,
    "name": "IRANMEBA",
    "zip_code": "98359"
  },
  {
    "id": 64577,
    "name": "KUSMENAU",
    "zip_code": "98359"
  },
  {
    "id": 64578,
    "name": "MISEDA",
    "zip_code": "98359"
  },
  {
    "id": 64579,
    "name": "SIRGEMEH",
    "zip_code": "98359"
  },
  {
    "id": 64580,
    "name": "SNEREMER",
    "zip_code": "98359"
  },
  {
    "id": 64581,
    "name": "TOMSTIR",
    "zip_code": "98359"
  }
]