[
  {
    "id": 38243,
    "name": "BADARO",
    "zip_code": "95781"
  },
  {
    "id": 38244,
    "name": "BONGKUDAI BARU",
    "zip_code": "95781"
  },
  {
    "id": 38245,
    "name": "BONGKUDAI SELATAN",
    "zip_code": "95781"
  },
  {
    "id": 38246,
    "name": "BONGKUDAI TIMUR",
    "zip_code": "95781"
  },
  {
    "id": 38247,
    "name": "BONGKUDAI UTARA",
    "zip_code": "95781"
  },
  {
    "id": 38248,
    "name": "BUYANDI",
    "zip_code": "95781"
  },
  {
    "id": 38249,
    "name": "CANDI REJO",
    "zip_code": "95781"
  },
  {
    "id": 38250,
    "name": "GUAAN",
    "zip_code": "95781"
  },
  {
    "id": 38251,
    "name": "KOKAPOI",
    "zip_code": "95781"
  },
  {
    "id": 38252,
    "name": "KOKAPOI TIMUR",
    "zip_code": "95781"
  },
  {
    "id": 38253,
    "name": "LANUT",
    "zip_code": "95781"
  },
  {
    "id": 38254,
    "name": "LIBERIA",
    "zip_code": "95781"
  },
  {
    "id": 38255,
    "name": "LIBERIA TIMUR",
    "zip_code": "95781"
  },
  {
    "id": 38256,
    "name": "MOAT (MOOAT)",
    "zip_code": "95781"
  },
  {
    "id": 38257,
    "name": "MODAYAG",
    "zip_code": "95781"
  },
  {
    "id": 38258,
    "name": "MODAYAG II",
    "zip_code": "95781"
  },
  {
    "id": 38259,
    "name": "MODAYAG III",
    "zip_code": "95781"
  },
  {
    "id": 38260,
    "name": "MOKITOMPIA",
    "zip_code": "95781"
  },
  {
    "id": 38261,
    "name": "MOTOTOMPIAN",
    "zip_code": "95781"
  },
  {
    "id": 38262,
    "name": "PURWOREJO",
    "zip_code": "95781"
  },
  {
    "id": 38263,
    "name": "PURWOREJO TENGAH",
    "zip_code": "95781"
  },
  {
    "id": 38264,
    "name": "PURWOREJO TIMUR",
    "zip_code": "95781"
  },
  {
    "id": 38265,
    "name": "SUMBER REJO",
    "zip_code": "95781"
  },
  {
    "id": 38266,
    "name": "TOBONGON",
    "zip_code": "95781"
  }
]