[
  {
    "id": 49991,
    "name": "API API",
    "zip_code": "28761"
  },
  {
    "id": 49992,
    "name": "BATANG DUKU",
    "zip_code": "28761"
  },
  {
    "id": 49993,
    "name": "BUKIT BATU",
    "zip_code": "28761"
  },
  {
    "id": 49994,
    "name": "BUKIT KERIKIL",
    "zip_code": "28761"
  },
  {
    "id": 49995,
    "name": "BURUK BAKUL",
    "zip_code": "28761"
  },
  {
    "id": 49996,
    "name": "DOMPAS",
    "zip_code": "28761"
  },
  {
    "id": 49997,
    "name": "PAKNING ASAL",
    "zip_code": "28761"
  },
  {
    "id": 49998,
    "name": "PANGKALAN JAMBI",
    "zip_code": "28761"
  },
  {
    "id": 49999,
    "name": "PARIT I API API",
    "zip_code": "28761"
  },
  {
    "id": 50000,
    "name": "SEJANGAT",
    "zip_code": "28761"
  },
  {
    "id": 50001,
    "name": "SEPAHAT",
    "zip_code": "28761"
  },
  {
    "id": 50002,
    "name": "SUKAJADI",
    "zip_code": "28761"
  },
  {
    "id": 50003,
    "name": "SUNGAI PAKNING",
    "zip_code": "28761"
  },
  {
    "id": 50004,
    "name": "SUNGAI SELARI",
    "zip_code": "28761"
  },
  {
    "id": 50005,
    "name": "TANJUNG LEBAN",
    "zip_code": "28761"
  },
  {
    "id": 50006,
    "name": "TEMIANG",
    "zip_code": "28761"
  },
  {
    "id": 50007,
    "name": "TENGGAYUN",
    "zip_code": "28761"
  }
]