[
  {
    "id": 60855,
    "name": "BELORO",
    "zip_code": "75552"
  },
  {
    "id": 60856,
    "name": "BUDAYA LEKAQ KIDAU",
    "zip_code": "75552"
  },
  {
    "id": 60857,
    "name": "GIRI AGUNG",
    "zip_code": "75552"
  },
  {
    "id": 60858,
    "name": "MANUNGGAL DAYA",
    "zip_code": "75552"
  },
  {
    "id": 60859,
    "name": "MEKAR JAYA",
    "zip_code": "75552"
  },
  {
    "id": 60860,
    "name": "SANGGULAN",
    "zip_code": "75552"
  },
  {
    "id": 60861,
    "name": "SEBULU ILIR",
    "zip_code": "75552"
  },
  {
    "id": 60862,
    "name": "SEBULU MODERN",
    "zip_code": "75552"
  },
  {
    "id": 60863,
    "name": "SEBULU ULU",
    "zip_code": "75552"
  },
  {
    "id": 60864,
    "name": "SEGIHAN",
    "zip_code": "75552"
  },
  {
    "id": 60865,
    "name": "SELERONG",
    "zip_code": "75552"
  },
  {
    "id": 60866,
    "name": "SENONI",
    "zip_code": "75552"
  },
  {
    "id": 60867,
    "name": "SUMBER SARI",
    "zip_code": "75552"
  },
  {
    "id": 60868,
    "name": "TANJUNG HARAPAN",
    "zip_code": "75552"
  }
]