[
  {
    "id": 50923,
    "name": "DANAU",
    "zip_code": "29561"
  },
  {
    "id": 50924,
    "name": "KASANG LIMAU SUNDAI",
    "zip_code": "29561"
  },
  {
    "id": 50925,
    "name": "KOTO RAJO",
    "zip_code": "29561"
  },
  {
    "id": 50926,
    "name": "LUMBOK",
    "zip_code": "29561"
  },
  {
    "id": 50927,
    "name": "PELUKAHAN",
    "zip_code": "29561"
  },
  {
    "id": 50928,
    "name": "PENGALIHAN",
    "zip_code": "29561"
  },
  {
    "id": 50929,
    "name": "PULAUBARU",
    "zip_code": "29561"
  },
  {
    "id": 50930,
    "name": "PULAUBERALO",
    "zip_code": "29561"
  },
  {
    "id": 50931,
    "name": "PULAUKULUR",
    "zip_code": "29561"
  },
  {
    "id": 50932,
    "name": "RAWANG OGUANG",
    "zip_code": "29561"
  },
  {
    "id": 50933,
    "name": "SUNGAISORIK",
    "zip_code": "29561"
  },
  {
    "id": 50934,
    "name": "TANJUNG",
    "zip_code": "29561"
  },
  {
    "id": 50935,
    "name": "TANJUNGPISANG",
    "zip_code": "29561"
  },
  {
    "id": 50936,
    "name": "TERATAK JERING",
    "zip_code": "29561"
  }
]