[
  {
    "id": 12716,
    "name": "BARAT DAYA",
    "zip_code": "23772"
  },
  {
    "id": 12717,
    "name": "GELUMBUK",
    "zip_code": "23772"
  },
  {
    "id": 12718,
    "name": "INDRA DAMAI",
    "zip_code": "23772"
  },
  {
    "id": 12719,
    "name": "JUA",
    "zip_code": "23772"
  },
  {
    "id": 12720,
    "name": "KAPEH",
    "zip_code": "23772"
  },
  {
    "id": 12721,
    "name": "KEDAI KANDANG",
    "zip_code": "23772"
  },
  {
    "id": 12722,
    "name": "KEDAI RUNDING",
    "zip_code": "23772"
  },
  {
    "id": 12723,
    "name": "LUAR",
    "zip_code": "23772"
  },
  {
    "id": 12724,
    "name": "PASI LEMBANG",
    "zip_code": "23772"
  },
  {
    "id": 12725,
    "name": "PASI MERAPAT",
    "zip_code": "23772"
  },
  {
    "id": 12726,
    "name": "PULO IE",
    "zip_code": "23772"
  },
  {
    "id": 12727,
    "name": "RANTAU BINUANG",
    "zip_code": "23772"
  },
  {
    "id": 12728,
    "name": "SIALANG",
    "zip_code": "23772"
  },
  {
    "id": 12729,
    "name": "SUAQ BAKONG",
    "zip_code": "23772"
  },
  {
    "id": 12730,
    "name": "UJUNG",
    "zip_code": "23772"
  },
  {
    "id": 12731,
    "name": "UJUNG PADANG",
    "zip_code": "23772"
  },
  {
    "id": 12732,
    "name": "UJUNG PASIR",
    "zip_code": "23772"
  }
]