[
  {
    "id": 7800,
    "name": "AUR CINA",
    "zip_code": "38768"
  },
  {
    "id": 7801,
    "name": "KARANG JAYA",
    "zip_code": "38768"
  },
  {
    "id": 7802,
    "name": "LUBUK BANGKO",
    "zip_code": "38768"
  },
  {
    "id": 7803,
    "name": "MARGA MUKTI",
    "zip_code": "38768"
  },
  {
    "id": 7804,
    "name": "MEKAR JAYA",
    "zip_code": "38768"
  },
  {
    "id": 7805,
    "name": "MEKAR MULYA",
    "zip_code": "38768"
  },
  {
    "id": 7806,
    "name": "PONDOK KOPI",
    "zip_code": "38768"
  },
  {
    "id": 7807,
    "name": "SETIA BUDI",
    "zip_code": "38768"
  },
  {
    "id": 7808,
    "name": "SIDO MULYO",
    "zip_code": "38768"
  },
  {
    "id": 7809,
    "name": "SUNGAI IPUH DUA",
    "zip_code": "38768"
  },
  {
    "id": 7810,
    "name": "SUNGAI IPUH SATU",
    "zip_code": "38768"
  },
  {
    "id": 7811,
    "name": "TALANG BUAI",
    "zip_code": "38768"
  },
  {
    "id": 7812,
    "name": "TALANG KUNING",
    "zip_code": "38768"
  },
  {
    "id": 7813,
    "name": "TALANG MEDAN",
    "zip_code": "38768"
  },
  {
    "id": 7814,
    "name": "TERAS TERUNJAM",
    "zip_code": "38768"
  },
  {
    "id": 7815,
    "name": "TERUNTUNG",
    "zip_code": "38768"
  },
  {
    "id": 7816,
    "name": "TUNGGAL JAYA",
    "zip_code": "38768"
  },
  {
    "id": 7817,
    "name": "WONOSOBO",
    "zip_code": "38768"
  }
]