[
  {
    "id": 15573,
    "name": "ALUE KEUMIKI",
    "zip_code": "24187"
  },
  {
    "id": 15574,
    "name": "BALE ULIM",
    "zip_code": "24187"
  },
  {
    "id": 15575,
    "name": "BIDOK",
    "zip_code": "24187"
  },
  {
    "id": 15576,
    "name": "BLANG CARI",
    "zip_code": "24187"
  },
  {
    "id": 15577,
    "name": "BLANG RHEUE",
    "zip_code": "24187"
  },
  {
    "id": 15578,
    "name": "COT SEUTUY",
    "zip_code": "24187"
  },
  {
    "id": 15579,
    "name": "DAYAH BAROH",
    "zip_code": "24187"
  },
  {
    "id": 15580,
    "name": "DAYAH LEUBUE",
    "zip_code": "24187"
  },
  {
    "id": 15581,
    "name": "GEULANGGANG",
    "zip_code": "24187"
  },
  {
    "id": 15582,
    "name": "GRONG GRONG CAPA",
    "zip_code": "24187"
  },
  {
    "id": 15583,
    "name": "KEUDE ULIM",
    "zip_code": "24187"
  },
  {
    "id": 15584,
    "name": "KRUENG",
    "zip_code": "24187"
  },
  {
    "id": 15585,
    "name": "LHOK GAJAH",
    "zip_code": "24187"
  },
  {
    "id": 15586,
    "name": "MESJID ULIM BAROH",
    "zip_code": "24187"
  },
  {
    "id": 15587,
    "name": "MESJID ULIM TUNONG",
    "zip_code": "24187"
  },
  {
    "id": 15588,
    "name": "MEUNASAH BUENG",
    "zip_code": "24187"
  },
  {
    "id": 15589,
    "name": "MEUNASAH KUMBANG",
    "zip_code": "24187"
  },
  {
    "id": 15590,
    "name": "MEUNASAH MESJID",
    "zip_code": "24187"
  },
  {
    "id": 15591,
    "name": "MEUNASAH PUPU",
    "zip_code": "24187"
  },
  {
    "id": 15592,
    "name": "NANGGROE TIMUR",
    "zip_code": "24187"
  },
  {
    "id": 15593,
    "name": "NANGRHOU BARAT",
    "zip_code": "24187"
  },
  {
    "id": 15594,
    "name": "PANTANG COT BALOI",
    "zip_code": "24187"
  },
  {
    "id": 15595,
    "name": "PULO LHOK",
    "zip_code": "24187"
  },
  {
    "id": 15596,
    "name": "PULO ULIM",
    "zip_code": "24187"
  },
  {
    "id": 15597,
    "name": "REULEUT",
    "zip_code": "24187"
  },
  {
    "id": 15598,
    "name": "SAMBONGAN BARO",
    "zip_code": "24187"
  },
  {
    "id": 15599,
    "name": "SIBLAH COH",
    "zip_code": "24187"
  },
  {
    "id": 15600,
    "name": "TANJONG ULIM",
    "zip_code": "24187"
  },
  {
    "id": 15601,
    "name": "TIJIN DABOH",
    "zip_code": "24187"
  },
  {
    "id": 15602,
    "name": "TIJIN HUSEN",
    "zip_code": "24187"
  }
]