[
  {
    "id": 74137,
    "name": "BUDI LESTARI",
    "zip_code": "35361"
  },
  {
    "id": 74138,
    "name": "GALIH LUNIK",
    "zip_code": "35361"
  },
  {
    "id": 74139,
    "name": "JATI INDAH",
    "zip_code": "35361"
  },
  {
    "id": 74140,
    "name": "JATIBARU",
    "zip_code": "35361"
  },
  {
    "id": 74141,
    "name": "KALI ASIN",
    "zip_code": "35361"
  },
  {
    "id": 74142,
    "name": "LEMATANG",
    "zip_code": "35361"
  },
  {
    "id": 74143,
    "name": "PURWODADI SIMPANG",
    "zip_code": "35361"
  },
  {
    "id": 74144,
    "name": "REJOMULYO",
    "zip_code": "35361"
  },
  {
    "id": 74145,
    "name": "SABAH BALAU",
    "zip_code": "35361"
  },
  {
    "id": 74146,
    "name": "SERDANG",
    "zip_code": "35361"
  },
  {
    "id": 74147,
    "name": "SINAR OGAN",
    "zip_code": "35361"
  },
  {
    "id": 74148,
    "name": "SINDANG SARI",
    "zip_code": "35361"
  },
  {
    "id": 74149,
    "name": "SRI KATON",
    "zip_code": "35361"
  },
  {
    "id": 74150,
    "name": "SUKANEGARA",
    "zip_code": "35361"
  },
  {
    "id": 74151,
    "name": "TRIMULYO",
    "zip_code": "35361"
  },
  {
    "id": 74152,
    "name": "WAY GALIH",
    "zip_code": "35361"
  }
]