[
  {
    "id": 53388,
    "name": "BUMI PRATAMA MANDIRA",
    "zip_code": "30681"
  },
  {
    "id": 53389,
    "name": "GADING JAYA",
    "zip_code": "30681"
  },
  {
    "id": 53390,
    "name": "GAJAH MAKMUR",
    "zip_code": "30681"
  },
  {
    "id": 53391,
    "name": "GAJAH MATI",
    "zip_code": "30681"
  },
  {
    "id": 53392,
    "name": "HARAPAN JAYA",
    "zip_code": "30681"
  },
  {
    "id": 53393,
    "name": "KARANGSIA",
    "zip_code": "30681"
  },
  {
    "id": 53394,
    "name": "PINANG INDAH",
    "zip_code": "30681"
  },
  {
    "id": 53395,
    "name": "SIDOMULYO",
    "zip_code": "30681"
  },
  {
    "id": 53396,
    "name": "SUNGAI CEPER",
    "zip_code": "30681"
  },
  {
    "id": 53397,
    "name": "SUNGAI MENANG",
    "zip_code": "30681"
  },
  {
    "id": 53398,
    "name": "SUNGAI SIBUR",
    "zip_code": "30681"
  },
  {
    "id": 53399,
    "name": "SUNGAI TEPUK",
    "zip_code": "30681"
  },
  {
    "id": 53400,
    "name": "TALANG JAYA",
    "zip_code": "30681"
  },
  {
    "id": 53401,
    "name": "TALANG MAKMUR",
    "zip_code": "30681"
  }
]