[
  {
    "id": 48626,
    "name": "BALAI KURAI TAJI",
    "zip_code": "25531"
  },
  {
    "id": 48627,
    "name": "BATANG TAJONGKEK",
    "zip_code": "25531"
  },
  {
    "id": 48628,
    "name": "KAMPUNG/KAMPUANG APAR",
    "zip_code": "25539"
  },
  {
    "id": 48629,
    "name": "MARABAU",
    "zip_code": "25537"
  },
  {
    "id": 48630,
    "name": "MARUNGGIH",
    "zip_code": "25538"
  },
  {
    "id": 48631,
    "name": "PADANG CAKUA",
    "zip_code": "25537"
  },
  {
    "id": 48632,
    "name": "PALAK ANEH",
    "zip_code": "25539"
  },
  {
    "id": 48633,
    "name": "PASIR SUNUR / PASA SUNUA (PASIA SUNUA)",
    "zip_code": "25538"
  },
  {
    "id": 48634,
    "name": "PAUH KURAI TAJI (PAUAH)",
    "zip_code": "25532"
  },
  {
    "id": 48635,
    "name": "PUNGGUANG LADIANG",
    "zip_code": "25533"
  },
  {
    "id": 48636,
    "name": "RAMBAI",
    "zip_code": "25533"
  },
  {
    "id": 48637,
    "name": "SIKABU",
    "zip_code": "25539"
  },
  {
    "id": 48638,
    "name": "SIMPANG (KURAI TAJI)",
    "zip_code": "25532"
  },
  {
    "id": 48639,
    "name": "SUNGAI KASAI",
    "zip_code": "25537"
  },
  {
    "id": 48640,
    "name": "TALUAK",
    "zip_code": "25538"
  },
  {
    "id": 48641,
    "name": "TOBOH PALABAH",
    "zip_code": "25536"
  }
]