[
  {
    "id": 55333,
    "name": "CAHAYA/CAHYA NEGERI",
    "zip_code": "32386"
  },
  {
    "id": 55334,
    "name": "GUNUNG SUGIH",
    "zip_code": "32386"
  },
  {
    "id": 55335,
    "name": "JAYA MULIA/MULYA",
    "zip_code": "32386"
  },
  {
    "id": 55336,
    "name": "KARANG ENDAH",
    "zip_code": "32386"
  },
  {
    "id": 55337,
    "name": "KARANG MARGA",
    "zip_code": "32386"
  },
  {
    "id": 55338,
    "name": "KRUJON",
    "zip_code": "32386"
  },
  {
    "id": 55339,
    "name": "MARGODADI",
    "zip_code": "32386"
  },
  {
    "id": 55340,
    "name": "MARGOREJO",
    "zip_code": "32386"
  },
  {
    "id": 55341,
    "name": "MUJO RAHAYU",
    "zip_code": "32386"
  },
  {
    "id": 55342,
    "name": "SRIWANGI",
    "zip_code": "32386"
  },
  {
    "id": 55343,
    "name": "SRIWANGI ULU",
    "zip_code": "32386"
  },
  {
    "id": 55344,
    "name": "SUKA MULYA",
    "zip_code": "32386"
  },
  {
    "id": 55345,
    "name": "TAMAN AGUNG",
    "zip_code": "32386"
  },
  {
    "id": 55346,
    "name": "TAMAN ASRI",
    "zip_code": "32386"
  },
  {
    "id": 55347,
    "name": "TAMAN HARJO",
    "zip_code": "32386"
  },
  {
    "id": 55348,
    "name": "TAMAN MULYO",
    "zip_code": "32386"
  },
  {
    "id": 55349,
    "name": "TARAMAN",
    "zip_code": "32386"
  },
  {
    "id": 55350,
    "name": "TRIMO REJO",
    "zip_code": "32386"
  },
  {
    "id": 55351,
    "name": "TRIMOHARJO",
    "zip_code": "32386"
  }
]