[
  {
    "id": 59238,
    "name": "BARAS NABUN",
    "zip_code": "78683"
  },
  {
    "id": 59239,
    "name": "BEDAHA",
    "zip_code": "78683"
  },
  {
    "id": 59240,
    "name": "BEGORI",
    "zip_code": "78683"
  },
  {
    "id": 59241,
    "name": "BUNTUT PONTE",
    "zip_code": "78683"
  },
  {
    "id": 59242,
    "name": "GURUNG SENGHIANG",
    "zip_code": "78683"
  },
  {
    "id": 59243,
    "name": "KARYA JAYA",
    "zip_code": "78683"
  },
  {
    "id": 59244,
    "name": "MENTAJOI",
    "zip_code": "78683"
  },
  {
    "id": 59245,
    "name": "MERAKO JAYA",
    "zip_code": "78683"
  },
  {
    "id": 59246,
    "name": "NANGA BIHE",
    "zip_code": "78683"
  },
  {
    "id": 59247,
    "name": "NANGA JELUNDUNG",
    "zip_code": "78683"
  },
  {
    "id": 59248,
    "name": "NANGA MENTATAI",
    "zip_code": "78683"
  },
  {
    "id": 59249,
    "name": "NANGA RIYOI",
    "zip_code": "78683"
  },
  {
    "id": 59250,
    "name": "NANGA SEGULANG",
    "zip_code": "78683"
  },
  {
    "id": 59251,
    "name": "NANGA SERAWAI",
    "zip_code": "78683"
  },
  {
    "id": 59252,
    "name": "NANGA TEKUNGAI",
    "zip_code": "78683"
  },
  {
    "id": 59253,
    "name": "PAGAR LEBATA",
    "zip_code": "78683"
  },
  {
    "id": 59254,
    "name": "RANTAU MALAM",
    "zip_code": "78683"
  },
  {
    "id": 59255,
    "name": "SAWANG SENGHIANG",
    "zip_code": "78683"
  },
  {
    "id": 59256,
    "name": "TAHAI PERMAI",
    "zip_code": "78683"
  },
  {
    "id": 59257,
    "name": "TANJUNG HARAPAN",
    "zip_code": "78683"
  },
  {
    "id": 59258,
    "name": "TANJUNG RAYA",
    "zip_code": "78683"
  },
  {
    "id": 59259,
    "name": "TELUK HARAPAN",
    "zip_code": "78683"
  },
  {
    "id": 59260,
    "name": "TONTANG",
    "zip_code": "78683"
  },
  {
    "id": 59261,
    "name": "TUNAS HARAPAN",
    "zip_code": "78683"
  }
]