[
  {
    "id": 10674,
    "name": "ABEUK TINGKEUM",
    "zip_code": "24251"
  },
  {
    "id": 10675,
    "name": "ABEUK USONG",
    "zip_code": "24251"
  },
  {
    "id": 10676,
    "name": "ALUE LIMENG",
    "zip_code": "24251"
  },
  {
    "id": 10677,
    "name": "BATEE TIMOH",
    "zip_code": "24251"
  },
  {
    "id": 10678,
    "name": "BEURAWANG",
    "zip_code": "24251"
  },
  {
    "id": 10679,
    "name": "BLANG BLADEH",
    "zip_code": "24251"
  },
  {
    "id": 10680,
    "name": "BLANG COT BAROH",
    "zip_code": "24251"
  },
  {
    "id": 10681,
    "name": "BLANG COT TUNONG",
    "zip_code": "24251"
  },
  {
    "id": 10682,
    "name": "BLANG DALAM",
    "zip_code": "24251"
  },
  {
    "id": 10683,
    "name": "BLANG GANDAI",
    "zip_code": "24251"
  },
  {
    "id": 10684,
    "name": "BLANG ME",
    "zip_code": "24251"
  },
  {
    "id": 10685,
    "name": "BLANG RHEUM",
    "zip_code": "24251"
  },
  {
    "id": 10686,
    "name": "BLANG SEUNONG",
    "zip_code": "24251"
  },
  {
    "id": 10687,
    "name": "BLANG SEUPENG",
    "zip_code": "24251"
  },
  {
    "id": 10688,
    "name": "COT BADA",
    "zip_code": "24251"
  },
  {
    "id": 10689,
    "name": "COT GADONG",
    "zip_code": "24251"
  },
  {
    "id": 10690,
    "name": "COT GEURUNDONG",
    "zip_code": "24251"
  },
  {
    "id": 10691,
    "name": "COT IBOEH TIMU",
    "zip_code": "24251"
  },
  {
    "id": 10692,
    "name": "COT IBOH",
    "zip_code": "24251"
  },
  {
    "id": 10693,
    "name": "COT KEUTAPANG",
    "zip_code": "24251"
  },
  {
    "id": 10694,
    "name": "COT LEUSONG",
    "zip_code": "24251"
  },
  {
    "id": 10695,
    "name": "COT MEUGOE",
    "zip_code": "24251"
  },
  {
    "id": 10696,
    "name": "COT TAROM BAROH",
    "zip_code": "24251"
  },
  {
    "id": 10697,
    "name": "COT TAROM TUNONG",
    "zip_code": "24251"
  },
  {
    "id": 10698,
    "name": "COT ULIM",
    "zip_code": "24251"
  },
  {
    "id": 10699,
    "name": "GEUDONG TAMPU",
    "zip_code": "24251"
  },
  {
    "id": 10700,
    "name": "GEULUMPANG PAYONG",
    "zip_code": "24251"
  },
  {
    "id": 10701,
    "name": "KUALA JEUMPA",
    "zip_code": "24251"
  },
  {
    "id": 10702,
    "name": "KUTA MEULIGOE",
    "zip_code": "24251"
  },
  {
    "id": 10703,
    "name": "LHAKSAMANA",
    "zip_code": "24251"
  },
  {
    "id": 10704,
    "name": "LIPAH CUT",
    "zip_code": "24251"
  },
  {
    "id": 10705,
    "name": "LIPAH RAYEUK",
    "zip_code": "24251"
  },
  {
    "id": 10706,
    "name": "MON JAMBEE",
    "zip_code": "24251"
  },
  {
    "id": 10707,
    "name": "MON MANE",
    "zip_code": "24251"
  },
  {
    "id": 10708,
    "name": "PALOH PANYANG",
    "zip_code": "24251"
  },
  {
    "id": 10709,
    "name": "PALOH SEULIMENG",
    "zip_code": "24251"
  },
  {
    "id": 10710,
    "name": "PULO LAWANG",
    "zip_code": "24251"
  },
  {
    "id": 10711,
    "name": "SALAH SIRONG JAYA",
    "zip_code": "24251"
  },
  {
    "id": 10712,
    "name": "SEULEUMBAH",
    "zip_code": "24251"
  },
  {
    "id": 10713,
    "name": "SEUNEUBOK LHONG",
    "zip_code": "24251"
  },
  {
    "id": 10714,
    "name": "TEUPOK BAROH",
    "zip_code": "24251"
  },
  {
    "id": 10715,
    "name": "TEUPOK TUNONG",
    "zip_code": "24251"
  }
]