[
  {
    "id": 15169,
    "name": "AMOR",
    "zip_code": "24582"
  },
  {
    "id": 15170,
    "name": "BUNTUL GAYO",
    "zip_code": "24582"
  },
  {
    "id": 15171,
    "name": "CEMPARAN JAYA",
    "zip_code": "24582"
  },
  {
    "id": 15172,
    "name": "CEMPARAN LAMA",
    "zip_code": "24582"
  },
  {
    "id": 15173,
    "name": "CEMPARAN PAKAT JEROH",
    "zip_code": "24582"
  },
  {
    "id": 15174,
    "name": "GUNUNG SAYANG",
    "zip_code": "24582"
  },
  {
    "id": 15175,
    "name": "HAKIM PETERI PINTU",
    "zip_code": "24582"
  },
  {
    "id": 15176,
    "name": "JAMUR ATU",
    "zip_code": "24582"
  },
  {
    "id": 15177,
    "name": "PANTAN KULI",
    "zip_code": "24582"
  },
  {
    "id": 15178,
    "name": "PERUMPAKEN BENJADI",
    "zip_code": "24582"
  },
  {
    "id": 15179,
    "name": "SIMPANG RENGGALI",
    "zip_code": "24582"
  },
  {
    "id": 15180,
    "name": "SIMPUR",
    "zip_code": "24582"
  },
  {
    "id": 15181,
    "name": "SOSIAL",
    "zip_code": "24582"
  },
  {
    "id": 15182,
    "name": "WER TINGKEM",
    "zip_code": "24582"
  },
  {
    "id": 15183,
    "name": "WIH RESAP (PINTU WIH RESAP)",
    "zip_code": "24582"
  }
]