[
  {
    "id": 32770,
    "name": "ABELI SAWA (ABELISAWAH)",
    "zip_code": "93354"
  },
  {
    "id": 32771,
    "name": "ANDADOWI",
    "zip_code": "93354"
  },
  {
    "id": 32772,
    "name": "ANDAROA",
    "zip_code": "93354"
  },
  {
    "id": 32773,
    "name": "ANDEPALI",
    "zip_code": "93354"
  },
  {
    "id": 32774,
    "name": "ANGGALOMOARE",
    "zip_code": "93354"
  },
  {
    "id": 32775,
    "name": "BAINI",
    "zip_code": "93354"
  },
  {
    "id": 32776,
    "name": "BAO-BAO",
    "zip_code": "93354"
  },
  {
    "id": 32777,
    "name": "BONDOALA",
    "zip_code": "93354"
  },
  {
    "id": 32778,
    "name": "GALU",
    "zip_code": "93354"
  },
  {
    "id": 32779,
    "name": "KONGGAMEA",
    "zip_code": "93354"
  },
  {
    "id": 32780,
    "name": "LAKOMEA",
    "zip_code": "93354"
  },
  {
    "id": 32781,
    "name": "LASOSO",
    "zip_code": "93354"
  },
  {
    "id": 32782,
    "name": "POHARA",
    "zip_code": "93354"
  },
  {
    "id": 32783,
    "name": "POLUA",
    "zip_code": "93354"
  },
  {
    "id": 32784,
    "name": "PUSANGI (PUUSANGI)",
    "zip_code": "93354"
  },
  {
    "id": 32785,
    "name": "PUULORO",
    "zip_code": "93354"
  },
  {
    "id": 32786,
    "name": "RAWUA",
    "zip_code": "93354"
  },
  {
    "id": 32787,
    "name": "SAMPARA",
    "zip_code": "93354"
  },
  {
    "id": 32788,
    "name": "TABANGGELE",
    "zip_code": "93354"
  },
  {
    "id": 32789,
    "name": "TOTAMBE JAYA",
    "zip_code": "93354"
  },
  {
    "id": 32790,
    "name": "WAWOLIMBUE",
    "zip_code": "93354"
  },
  {
    "id": 82821,
    "name": "TOTOMBE JAYA",
    "zip_code": "93458"
  }
]