[
  {
    "id": 1771,
    "name": "DOKA BARAT",
    "zip_code": "97667"
  },
  {
    "id": 1772,
    "name": "DOKA TIMUR",
    "zip_code": "97667"
  },
  {
    "id": 1773,
    "name": "FATURAL",
    "zip_code": "97667"
  },
  {
    "id": 1774,
    "name": "FERUNI",
    "zip_code": "97667"
  },
  {
    "id": 1775,
    "name": "GAIMAR",
    "zip_code": "97667"
  },
  {
    "id": 1776,
    "name": "JELIA",
    "zip_code": "97667"
  },
  {
    "id": 1777,
    "name": "JEROL",
    "zip_code": "97667"
  },
  {
    "id": 1778,
    "name": "KABALUKIN",
    "zip_code": "97667"
  },
  {
    "id": 1779,
    "name": "KALAR-KALAR",
    "zip_code": "97667"
  },
  {
    "id": 1780,
    "name": "LAININIR",
    "zip_code": "97667"
  },
  {
    "id": 1781,
    "name": "LOR-LOR",
    "zip_code": "97667"
  },
  {
    "id": 1782,
    "name": "MARFENFEN (MARAFENFEN)",
    "zip_code": "97667"
  },
  {
    "id": 1783,
    "name": "NGAIBOR",
    "zip_code": "97667"
  },
  {
    "id": 1784,
    "name": "NGAIGULI",
    "zip_code": "97667"
  },
  {
    "id": 1785,
    "name": "POPJETUR",
    "zip_code": "97667"
  }
]