[
  {
    "id": 56201,
    "name": "BATEGENCU",
    "zip_code": "94661"
  },
  {
    "id": 56202,
    "name": "LABUADAGO",
    "zip_code": "94661"
  },
  {
    "id": 56203,
    "name": "LABUAN",
    "zip_code": "94661"
  },
  {
    "id": 56204,
    "name": "MALEI",
    "zip_code": "94661"
  },
  {
    "id": 56205,
    "name": "MALIWUKO",
    "zip_code": "94661"
  },
  {
    "id": 56206,
    "name": "PANDIRI",
    "zip_code": "94661"
  },
  {
    "id": 56207,
    "name": "RATO'OMBU",
    "zip_code": "94661"
  },
  {
    "id": 56208,
    "name": "SEPE",
    "zip_code": "94661"
  },
  {
    "id": 56209,
    "name": "SILANCA",
    "zip_code": "94661"
  },
  {
    "id": 56210,
    "name": "SINTUWULEMBA",
    "zip_code": "94661"
  },
  {
    "id": 56211,
    "name": "TAGOLU",
    "zip_code": "94661"
  },
  {
    "id": 56212,
    "name": "TAMBARO",
    "zip_code": "94661"
  },
  {
    "id": 56213,
    "name": "TAMPEMADORO",
    "zip_code": "94661"
  },
  {
    "id": 56214,
    "name": "TONGKO",
    "zip_code": "94661"
  },
  {
    "id": 56215,
    "name": "TOYADO",
    "zip_code": "94661"
  },
  {
    "id": 56216,
    "name": "WATUAWU",
    "zip_code": "94661"
  }
]