[
  {
    "id": 16718,
    "name": "ARGALINGGA",
    "zip_code": "45462"
  },
  {
    "id": 16719,
    "name": "ARGAMUKTI",
    "zip_code": "45462"
  },
  {
    "id": 16720,
    "name": "CIBUNUT",
    "zip_code": "45462"
  },
  {
    "id": 16721,
    "name": "CIKARACAK",
    "zip_code": "45462"
  },
  {
    "id": 16722,
    "name": "GUNUNGWANGI",
    "zip_code": "45462"
  },
  {
    "id": 16723,
    "name": "HAURSEAH",
    "zip_code": "45462"
  },
  {
    "id": 16724,
    "name": "HEUBEULISUK",
    "zip_code": "45462"
  },
  {
    "id": 16725,
    "name": "MEKARWANGI",
    "zip_code": "45462"
  },
  {
    "id": 16726,
    "name": "SADASARI",
    "zip_code": "45462"
  },
  {
    "id": 16727,
    "name": "SAGARA",
    "zip_code": "45462"
  },
  {
    "id": 16728,
    "name": "SUKADANA",
    "zip_code": "45462"
  },
  {
    "id": 16729,
    "name": "SUKASARI KALER",
    "zip_code": "45462"
  },
  {
    "id": 16730,
    "name": "SUKASARI KIDUL",
    "zip_code": "45462"
  },
  {
    "id": 16731,
    "name": "TEJAMULYA",
    "zip_code": "45462"
  }
]