[
  {
    "id": 12772,
    "name": "AIR SIALANG HILIR",
    "zip_code": "23752"
  },
  {
    "id": 12773,
    "name": "AIR SIALANG HULU",
    "zip_code": "23752"
  },
  {
    "id": 12774,
    "name": "AIR SIALANG TENGAH",
    "zip_code": "23752"
  },
  {
    "id": 12775,
    "name": "ALUR PINANG",
    "zip_code": "23752"
  },
  {
    "id": 12776,
    "name": "ALUR SIMERAH",
    "zip_code": "23752"
  },
  {
    "id": 12777,
    "name": "ARAFAH",
    "zip_code": "23752"
  },
  {
    "id": 12778,
    "name": "BALAI",
    "zip_code": "23752"
  },
  {
    "id": 12779,
    "name": "BARU",
    "zip_code": "23752"
  },
  {
    "id": 12780,
    "name": "BATEE TUNGGAI",
    "zip_code": "23752"
  },
  {
    "id": 12781,
    "name": "DALAM",
    "zip_code": "23752"
  },
  {
    "id": 12782,
    "name": "GADANG",
    "zip_code": "23752"
  },
  {
    "id": 12783,
    "name": "GUNUNG CUT",
    "zip_code": "23752"
  },
  {
    "id": 12784,
    "name": "GUNUNG KETEK",
    "zip_code": "23752"
  },
  {
    "id": 12785,
    "name": "JILATANG",
    "zip_code": "23752"
  },
  {
    "id": 12786,
    "name": "KOTA BARU",
    "zip_code": "23752"
  },
  {
    "id": 12787,
    "name": "KUTA BLANG",
    "zip_code": "23752"
  },
  {
    "id": 12788,
    "name": "LADANG KASIK PUTIH",
    "zip_code": "23752"
  },
  {
    "id": 12789,
    "name": "LADANG PANTON LUAS",
    "zip_code": "23752"
  },
  {
    "id": 12790,
    "name": "LUAR",
    "zip_code": "23752"
  },
  {
    "id": 12791,
    "name": "LUBUK LAYU",
    "zip_code": "23752"
  },
  {
    "id": 12792,
    "name": "MADAT",
    "zip_code": "23752"
  },
  {
    "id": 12793,
    "name": "PAYONAN GADANG",
    "zip_code": "23752"
  },
  {
    "id": 12794,
    "name": "SUAQ HULU",
    "zip_code": "23752"
  },
  {
    "id": 12795,
    "name": "SUBARANG",
    "zip_code": "23752"
  },
  {
    "id": 12796,
    "name": "TAMPANG",
    "zip_code": "23752"
  },
  {
    "id": 12797,
    "name": "TENGAH",
    "zip_code": "23752"
  },
  {
    "id": 12798,
    "name": "UJUNG KAMPUNG",
    "zip_code": "23752"
  },
  {
    "id": 12799,
    "name": "UJUNG TANAH",
    "zip_code": "23752"
  }
]