[
  {
    "id": 78789,
    "name": "BAILENGIT",
    "zip_code": "97764"
  },
  {
    "id": 78790,
    "name": "BERINGIN AGUNG",
    "zip_code": "97764"
  },
  {
    "id": 78791,
    "name": "GAGAAPOK",
    "zip_code": "97764"
  },
  {
    "id": 78792,
    "name": "KAI",
    "zip_code": "97764"
  },
  {
    "id": 78793,
    "name": "LELESENG (LELESANG)",
    "zip_code": "97764"
  },
  {
    "id": 78794,
    "name": "MAKARTI",
    "zip_code": "97764"
  },
  {
    "id": 78795,
    "name": "MARGOMOLYO (MARGOMOYO)",
    "zip_code": "97764"
  },
  {
    "id": 78796,
    "name": "MOMODA",
    "zip_code": "97764"
  },
  {
    "id": 78797,
    "name": "NGOALI",
    "zip_code": "97764"
  },
  {
    "id": 78798,
    "name": "PARSEBA",
    "zip_code": "97764"
  },
  {
    "id": 78799,
    "name": "PITAGO",
    "zip_code": "97764"
  },
  {
    "id": 78800,
    "name": "SANGAJI JAYA",
    "zip_code": "97764"
  },
  {
    "id": 78801,
    "name": "SOA HUKUM",
    "zip_code": "97764"
  },
  {
    "id": 78802,
    "name": "SOAMAETEK",
    "zip_code": "97764"
  },
  {
    "id": 78803,
    "name": "TAKIMO",
    "zip_code": "97764"
  },
  {
    "id": 78804,
    "name": "TOBOULAMO",
    "zip_code": "97764"
  },
  {
    "id": 78805,
    "name": "TOLABIT",
    "zip_code": "97764"
  },
  {
    "id": 78806,
    "name": "TOLIWANG",
    "zip_code": "97764"
  },
  {
    "id": 78807,
    "name": "TORAWAT",
    "zip_code": "97764"
  },
  {
    "id": 78808,
    "name": "TUGUIS",
    "zip_code": "97764"
  },
  {
    "id": 78809,
    "name": "WONOSARI",
    "zip_code": "97764"
  }
]