[
  {
    "id": 70246,
    "name": "BANGPENDAH",
    "zip_code": "69173"
  },
  {
    "id": 70247,
    "name": "BANJAR",
    "zip_code": "69173"
  },
  {
    "id": 70248,
    "name": "BANYUBUNIH",
    "zip_code": "69173"
  },
  {
    "id": 70249,
    "name": "BELATERAN (BLATERAN)",
    "zip_code": "69173"
  },
  {
    "id": 70250,
    "name": "DALEMAN",
    "zip_code": "69173"
  },
  {
    "id": 70251,
    "name": "GALIS",
    "zip_code": "69173"
  },
  {
    "id": 70252,
    "name": "KAJUANAK",
    "zip_code": "69173"
  },
  {
    "id": 70253,
    "name": "KELBUNG",
    "zip_code": "69173"
  },
  {
    "id": 70254,
    "name": "KRANGGAN TIMUR",
    "zip_code": "69173"
  },
  {
    "id": 70255,
    "name": "LANTEK BARAT",
    "zip_code": "69173"
  },
  {
    "id": 70256,
    "name": "LANTEK TEMOR",
    "zip_code": "69173"
  },
  {
    "id": 70257,
    "name": "LONGKEK",
    "zip_code": "69173"
  },
  {
    "id": 70258,
    "name": "PAKA'AN LAOK",
    "zip_code": "69173"
  },
  {
    "id": 70259,
    "name": "PAKAAN DAYA",
    "zip_code": "69173"
  },
  {
    "id": 70260,
    "name": "PATERONGAN",
    "zip_code": "69173"
  },
  {
    "id": 70261,
    "name": "PEKADAN",
    "zip_code": "69173"
  },
  {
    "id": 70262,
    "name": "SADAH",
    "zip_code": "69173"
  },
  {
    "id": 70263,
    "name": "SEPARAH",
    "zip_code": "69173"
  },
  {
    "id": 70264,
    "name": "SORPA",
    "zip_code": "69173"
  },
  {
    "id": 70265,
    "name": "TELAGAH (TLAGAH)",
    "zip_code": "69173"
  },
  {
    "id": 70266,
    "name": "TELLOK",
    "zip_code": "69173"
  }
]