[
  {
    "id": 3599,
    "name": "ABIRAU",
    "zip_code": "70661"
  },
  {
    "id": 3600,
    "name": "AWANG BANGKAL BARAT",
    "zip_code": "70661"
  },
  {
    "id": 3601,
    "name": "AWANG BANGKAL TIMUR",
    "zip_code": "70661"
  },
  {
    "id": 3602,
    "name": "BALAU",
    "zip_code": "70661"
  },
  {
    "id": 3603,
    "name": "BIIH",
    "zip_code": "70661"
  },
  {
    "id": 3604,
    "name": "JINGAH HABANG ILIR",
    "zip_code": "70661"
  },
  {
    "id": 3605,
    "name": "JINGAH HABANG ULU",
    "zip_code": "70661"
  },
  {
    "id": 3606,
    "name": "KARANG INTAN",
    "zip_code": "70661"
  },
  {
    "id": 3607,
    "name": "KIRAM",
    "zip_code": "70661"
  },
  {
    "id": 3608,
    "name": "LIHUNG",
    "zip_code": "70661"
  },
  {
    "id": 3609,
    "name": "LOKTANGGA",
    "zip_code": "70661"
  },
  {
    "id": 3610,
    "name": "MALI MALI",
    "zip_code": "70661"
  },
  {
    "id": 3611,
    "name": "MANDI ANGIN BARAT",
    "zip_code": "70661"
  },
  {
    "id": 3612,
    "name": "MANDI ANGIN TIMUR",
    "zip_code": "70661"
  },
  {
    "id": 3613,
    "name": "MANDI KAPAU BARAT",
    "zip_code": "70661"
  },
  {
    "id": 3614,
    "name": "MANDI KAPAU TIMUR",
    "zip_code": "70661"
  },
  {
    "id": 3615,
    "name": "PADANG PANJANG",
    "zip_code": "70661"
  },
  {
    "id": 3616,
    "name": "PANDAK DAUN",
    "zip_code": "70661"
  },
  {
    "id": 3617,
    "name": "PASAR LAMA",
    "zip_code": "70661"
  },
  {
    "id": 3618,
    "name": "PENYAMBARAN",
    "zip_code": "70661"
  },
  {
    "id": 3619,
    "name": "PULAU NYIUR",
    "zip_code": "70661"
  },
  {
    "id": 3620,
    "name": "SEI/SUNGAI ALANG",
    "zip_code": "70661"
  },
  {
    "id": 3621,
    "name": "SEI/SUNGAI ARFAT",
    "zip_code": "70661"
  },
  {
    "id": 3622,
    "name": "SEI/SUNGAI ASAM",
    "zip_code": "70661"
  },
  {
    "id": 3623,
    "name": "SEI/SUNGAI BESAR",
    "zip_code": "70661"
  },
  {
    "id": 3624,
    "name": "SEI/SUNGAI LANDAS",
    "zip_code": "70661"
  }
]