[
  {
    "id": 51528,
    "name": "BAKUNG RAYA",
    "zip_code": "74463"
  },
  {
    "id": 51529,
    "name": "BUMI SUBUR",
    "zip_code": "74463"
  },
  {
    "id": 51530,
    "name": "JAYA MAKMUR",
    "zip_code": "74463"
  },
  {
    "id": 51531,
    "name": "KAMPUNG BARU",
    "zip_code": "74463"
  },
  {
    "id": 51532,
    "name": "KAMPUNG MELAYU",
    "zip_code": "74463"
  },
  {
    "id": 51533,
    "name": "KAMPUNG TENGAH",
    "zip_code": "74463"
  },
  {
    "id": 51534,
    "name": "MAKMUR UTAMA",
    "zip_code": "74463"
  },
  {
    "id": 51535,
    "name": "MANGUN JAYA",
    "zip_code": "74463"
  },
  {
    "id": 51536,
    "name": "PEGATAN/PAGATAN HILIR",
    "zip_code": "74463"
  },
  {
    "id": 51537,
    "name": "PEGATAN/PAGATAN HULU",
    "zip_code": "74463"
  },
  {
    "id": 51538,
    "name": "SEBANGAU JAYA",
    "zip_code": "74463"
  },
  {
    "id": 51539,
    "name": "SELAT BANING",
    "zip_code": "74463"
  },
  {
    "id": 51540,
    "name": "SETIA MULIA",
    "zip_code": "74463"
  },
  {
    "id": 51541,
    "name": "SINGAM RAYA",
    "zip_code": "74463"
  },
  {
    "id": 51542,
    "name": "SUBUR INDAH",
    "zip_code": "74463"
  },
  {
    "id": 51543,
    "name": "SUNGAI KAKI",
    "zip_code": "74463"
  }
]