[
  {
    "id": 77703,
    "name": "BANJARANYAR",
    "zip_code": "46383"
  },
  {
    "id": 77704,
    "name": "BANJARSARI",
    "zip_code": "46383"
  },
  {
    "id": 77705,
    "name": "CIBADAK",
    "zip_code": "46383"
  },
  {
    "id": 77706,
    "name": "CICAPAR",
    "zip_code": "46383"
  },
  {
    "id": 77707,
    "name": "CIGAYAM",
    "zip_code": "46383"
  },
  {
    "id": 77708,
    "name": "CIHERANG",
    "zip_code": "46383"
  },
  {
    "id": 77709,
    "name": "CIKASO",
    "zip_code": "46383"
  },
  {
    "id": 77710,
    "name": "CIKUPA",
    "zip_code": "46383"
  },
  {
    "id": 77711,
    "name": "CIULU",
    "zip_code": "46383"
  },
  {
    "id": 77712,
    "name": "KALIJAYA",
    "zip_code": "46383"
  },
  {
    "id": 77713,
    "name": "KARYAMUKTI",
    "zip_code": "46383"
  },
  {
    "id": 77714,
    "name": "KAWASEN",
    "zip_code": "46383"
  },
  {
    "id": 77715,
    "name": "LANGKAPSARI",
    "zip_code": "46383"
  },
  {
    "id": 77716,
    "name": "PASAWAHAN",
    "zip_code": "46383"
  },
  {
    "id": 77717,
    "name": "PURWASARI",
    "zip_code": "46383"
  },
  {
    "id": 77718,
    "name": "RATAWANGI",
    "zip_code": "46383"
  },
  {
    "id": 77719,
    "name": "SINDANGASIH",
    "zip_code": "46383"
  },
  {
    "id": 77720,
    "name": "SINDANGHAYU",
    "zip_code": "46383"
  },
  {
    "id": 77721,
    "name": "SINDANGRASA",
    "zip_code": "46383"
  },
  {
    "id": 77722,
    "name": "SINDANGSARI",
    "zip_code": "46383"
  },
  {
    "id": 77723,
    "name": "SUKASARI",
    "zip_code": "46383"
  },
  {
    "id": 77724,
    "name": "TANJUNGASARI",
    "zip_code": "46383"
  }
]