[
  {
    "id": 20516,
    "name": "AUR GADING",
    "zip_code": "37481"
  },
  {
    "id": 20517,
    "name": "BARU",
    "zip_code": "37481"
  },
  {
    "id": 20518,
    "name": "BERNAI",
    "zip_code": "37481"
  },
  {
    "id": 20519,
    "name": "BERNAI DALAM",
    "zip_code": "37481"
  },
  {
    "id": 20520,
    "name": "DUSUN SAROLANGUN",
    "zip_code": "37481"
  },
  {
    "id": 20521,
    "name": "GUNUNG KEMBANG",
    "zip_code": "37481"
  },
  {
    "id": 20522,
    "name": "LADANG PANJANG",
    "zip_code": "37481"
  },
  {
    "id": 20523,
    "name": "LIDUNG",
    "zip_code": "37481"
  },
  {
    "id": 20524,
    "name": "PANTI",
    "zip_code": "37481"
  },
  {
    "id": 20525,
    "name": "PASAR SAROLANGUN",
    "zip_code": "37481"
  },
  {
    "id": 20526,
    "name": "SAROLANGUN KEMBANG",
    "zip_code": "37481"
  },
  {
    "id": 20527,
    "name": "SEI/SUNGAI BAUNG",
    "zip_code": "37481"
  },
  {
    "id": 20528,
    "name": "SUKASARI",
    "zip_code": "37481"
  },
  {
    "id": 20529,
    "name": "SUNGAI ABANG",
    "zip_code": "37481"
  },
  {
    "id": 20530,
    "name": "TINGTING",
    "zip_code": "37481"
  },
  {
    "id": 20531,
    "name": "UJUNG TANJUNG",
    "zip_code": "37481"
  }
]