[
  {
    "id": 75920,
    "name": "BUMI RATU",
    "zip_code": "35376"
  },
  {
    "id": 75921,
    "name": "BUMI REJO",
    "zip_code": "35376"
  },
  {
    "id": 75922,
    "name": "CANDI RETNO",
    "zip_code": "35376"
  },
  {
    "id": 75923,
    "name": "GANJARAN",
    "zip_code": "35376"
  },
  {
    "id": 75924,
    "name": "GEMAH RIPAH",
    "zip_code": "35376"
  },
  {
    "id": 75925,
    "name": "GUMUK MAS",
    "zip_code": "35376"
  },
  {
    "id": 75926,
    "name": "GUMUK REJO",
    "zip_code": "35376"
  },
  {
    "id": 75927,
    "name": "KARANGSARI",
    "zip_code": "35376"
  },
  {
    "id": 75928,
    "name": "LUGUSARI",
    "zip_code": "35375"
  },
  {
    "id": 75929,
    "name": "PADANG REJO",
    "zip_code": "35376"
  },
  {
    "id": 75930,
    "name": "PAGELARAN",
    "zip_code": "35376"
  },
  {
    "id": 75931,
    "name": "PAMENANG",
    "zip_code": "35376"
  },
  {
    "id": 75932,
    "name": "PANUTAN",
    "zip_code": "35376"
  },
  {
    "id": 75933,
    "name": "PASIR UKIR",
    "zip_code": "35376"
  },
  {
    "id": 75934,
    "name": "PATOMAN",
    "zip_code": "35376"
  },
  {
    "id": 75935,
    "name": "PUJI HARJO",
    "zip_code": "35376"
  },
  {
    "id": 75936,
    "name": "SIDODADI",
    "zip_code": "35376"
  },
  {
    "id": 75937,
    "name": "SUKARATU",
    "zip_code": "35376"
  },
  {
    "id": 75938,
    "name": "SUKAWANGI",
    "zip_code": "35376"
  },
  {
    "id": 75939,
    "name": "SUMBER REJO",
    "zip_code": "35376"
  },
  {
    "id": 75940,
    "name": "TANJUNG DALAM/DALOM",
    "zip_code": "35376"
  },
  {
    "id": 75941,
    "name": "WAY NGISOM",
    "zip_code": "35376"
  }
]