[
  {
    "id": 42657,
    "name": "AMBURUDI (MBURIDI)",
    "zip_code": "22155"
  },
  {
    "id": 42658,
    "name": "BINTANG MERIAH",
    "zip_code": "22155"
  },
  {
    "id": 42659,
    "name": "BUAH RAYA",
    "zip_code": "22155"
  },
  {
    "id": 42660,
    "name": "GUNUNG MERIAH",
    "zip_code": "22155"
  },
  {
    "id": 42661,
    "name": "JINABUN",
    "zip_code": "22155"
  },
  {
    "id": 42662,
    "name": "KUTA BULUH",
    "zip_code": "22155"
  },
  {
    "id": 42663,
    "name": "KUTA BULUH GUGUNG",
    "zip_code": "22155"
  },
  {
    "id": 42664,
    "name": "KUTA MALE",
    "zip_code": "22155"
  },
  {
    "id": 42665,
    "name": "LAU BULUH",
    "zip_code": "22155"
  },
  {
    "id": 42666,
    "name": "LIANG MERDEKA",
    "zip_code": "22155"
  },
  {
    "id": 42667,
    "name": "NEGERI JAHE",
    "zip_code": "22155"
  },
  {
    "id": 42668,
    "name": "POLA TEBU",
    "zip_code": "22155"
  },
  {
    "id": 42669,
    "name": "RIH TENGAH",
    "zip_code": "22155"
  },
  {
    "id": 42670,
    "name": "SIABANG ABANG",
    "zip_code": "22155"
  },
  {
    "id": 42671,
    "name": "TANJUNG MERAHE",
    "zip_code": "22155"
  },
  {
    "id": 42672,
    "name": "UJUNG DELENG",
    "zip_code": "22155"
  }
]