[
  {
    "id": 3758,
    "name": "ANTASAN SUTUN",
    "zip_code": "70618"
  },
  {
    "id": 3759,
    "name": "KELILING BENTENG TENGAH",
    "zip_code": "70618"
  },
  {
    "id": 3760,
    "name": "KELILING BENTENG ULU",
    "zip_code": "70618"
  },
  {
    "id": 3761,
    "name": "PENGGALAMAN",
    "zip_code": "70618"
  },
  {
    "id": 3762,
    "name": "SEI/SUNGAI BATANG",
    "zip_code": "70618"
  },
  {
    "id": 3763,
    "name": "SEI/SUNGAI BATANG ILIR",
    "zip_code": "70618"
  },
  {
    "id": 3764,
    "name": "SEI/SUNGAI RANGAS",
    "zip_code": "70618"
  },
  {
    "id": 3765,
    "name": "SEI/SUNGAI RANGAS HAMBUKU",
    "zip_code": "70618"
  },
  {
    "id": 3766,
    "name": "SEI/SUNGAI RANGAS TENGAH",
    "zip_code": "70618"
  },
  {
    "id": 3767,
    "name": "SEI/SUNGAI RANGAS ULU",
    "zip_code": "70618"
  },
  {
    "id": 3768,
    "name": "TANGKAS",
    "zip_code": "70618"
  },
  {
    "id": 3769,
    "name": "TELOK SELONG",
    "zip_code": "70618"
  },
  {
    "id": 3770,
    "name": "TELOK SELONG ULU",
    "zip_code": "70618"
  }
]