[
  {
    "id": 11238,
    "name": "AKHIH MAJILE",
    "zip_code": "24673"
  },
  {
    "id": 11239,
    "name": "BINTANG ALGA MUSARA",
    "zip_code": "24673"
  },
  {
    "id": 11240,
    "name": "BUKIT BINTANG INDAH",
    "zip_code": "24673"
  },
  {
    "id": 11241,
    "name": "BUKIT MEKHIAH",
    "zip_code": "24673"
  },
  {
    "id": 11242,
    "name": "BUNBUN ALAS",
    "zip_code": "24673"
  },
  {
    "id": 11243,
    "name": "BUNBUN INDAH WAR",
    "zip_code": "24673"
  },
  {
    "id": 11244,
    "name": "GAYE SENDAH",
    "zip_code": "24673"
  },
  {
    "id": 11245,
    "name": "GUNUNG PAK-PAK",
    "zip_code": "24673"
  },
  {
    "id": 11246,
    "name": "HAKHAPEN",
    "zip_code": "24673"
  },
  {
    "id": 11247,
    "name": "KANE MENDE",
    "zip_code": "24673"
  },
  {
    "id": 11248,
    "name": "KOMPAS",
    "zip_code": "24673"
  },
  {
    "id": 11249,
    "name": "LAUT TAWAR",
    "zip_code": "24673"
  },
  {
    "id": 11250,
    "name": "LAWE SEKHAKUT",
    "zip_code": "24673"
  },
  {
    "id": 11251,
    "name": "NAGA TIMBUL",
    "zip_code": "24673"
  },
  {
    "id": 11252,
    "name": "PERMATA MUSARA",
    "zip_code": "24673"
  },
  {
    "id": 11253,
    "name": "PUNCE NALI",
    "zip_code": "24673"
  },
  {
    "id": 11254,
    "name": "SADE ATE",
    "zip_code": "24673"
  },
  {
    "id": 11255,
    "name": "SEPAKAT",
    "zip_code": "24673"
  },
  {
    "id": 11256,
    "name": "SUKA DAMAI",
    "zip_code": "24673"
  },
  {
    "id": 11257,
    "name": "TANAH KHEKHINE",
    "zip_code": "24673"
  },
  {
    "id": 11258,
    "name": "TANJUNG SARI",
    "zip_code": "24673"
  },
  {
    "id": 11259,
    "name": "TUNAS MUDE",
    "zip_code": "24673"
  },
  {
    "id": 11260,
    "name": "UKHAT PESELUK",
    "zip_code": "24673"
  }
]