[
  {
    "id": 9977,
    "name": "BAROH BLANG MEE",
    "zip_code": "23354"
  },
  {
    "id": 9978,
    "name": "BAROH GENTEUT",
    "zip_code": "23354"
  },
  {
    "id": 9979,
    "name": "BAROH KRUENG KALA",
    "zip_code": "23354"
  },
  {
    "id": 9980,
    "name": "BIREK",
    "zip_code": "23354"
  },
  {
    "id": 9981,
    "name": "COT",
    "zip_code": "23354"
  },
  {
    "id": 9982,
    "name": "CUNDIN",
    "zip_code": "23354"
  },
  {
    "id": 9983,
    "name": "GAPUY",
    "zip_code": "23354"
  },
  {
    "id": 9984,
    "name": "GLEE BRUEK",
    "zip_code": "23354"
  },
  {
    "id": 9985,
    "name": "JANTANG",
    "zip_code": "23354"
  },
  {
    "id": 9986,
    "name": "KAREUNG",
    "zip_code": "23354"
  },
  {
    "id": 9987,
    "name": "KEUTAPANG",
    "zip_code": "23354"
  },
  {
    "id": 9988,
    "name": "LAM GRIHEU",
    "zip_code": "23354"
  },
  {
    "id": 9989,
    "name": "LAM JUHANG",
    "zip_code": "23354"
  },
  {
    "id": 9990,
    "name": "LAM KUTA BLANG MEE",
    "zip_code": "23354"
  },
  {
    "id": 9991,
    "name": "LAM SUJEN",
    "zip_code": "23354"
  },
  {
    "id": 9992,
    "name": "MEUNASAH KRUENG KALA",
    "zip_code": "23354"
  },
  {
    "id": 9993,
    "name": "MEUNASAH LHOK",
    "zip_code": "23354"
  },
  {
    "id": 9994,
    "name": "MON MATA",
    "zip_code": "23354"
  },
  {
    "id": 9995,
    "name": "PAROY",
    "zip_code": "23354"
  },
  {
    "id": 9996,
    "name": "PASIE",
    "zip_code": "23354"
  },
  {
    "id": 9997,
    "name": "PUDENG",
    "zip_code": "23354"
  },
  {
    "id": 9998,
    "name": "SANEY",
    "zip_code": "23354"
  },
  {
    "id": 9999,
    "name": "SENGKO MEULAT",
    "zip_code": "23354"
  },
  {
    "id": 10000,
    "name": "TEUNGOH BLANG MEE",
    "zip_code": "23354"
  },
  {
    "id": 10001,
    "name": "TEUNGOH GEUNTEUT",
    "zip_code": "23354"
  },
  {
    "id": 10002,
    "name": "TUNONG KRUENG KALA",
    "zip_code": "23354"
  },
  {
    "id": 10003,
    "name": "UMONG SEUREBEE",
    "zip_code": "23354"
  },
  {
    "id": 10004,
    "name": "UTAMONG",
    "zip_code": "23354"
  }
]