[
  {
    "id": 72411,
    "name": "BALAPULANG KULON",
    "zip_code": "52464"
  },
  {
    "id": 72412,
    "name": "BALAPULANG WETAN",
    "zip_code": "52464"
  },
  {
    "id": 72413,
    "name": "BANJAR ANYAR",
    "zip_code": "52464"
  },
  {
    "id": 72414,
    "name": "BATUAGUNG",
    "zip_code": "52464"
  },
  {
    "id": 72415,
    "name": "BUKATEJA",
    "zip_code": "52464"
  },
  {
    "id": 72416,
    "name": "CENGGINI",
    "zip_code": "52464"
  },
  {
    "id": 72417,
    "name": "CIBUNAR",
    "zip_code": "52464"
  },
  {
    "id": 72418,
    "name": "CILONGOK",
    "zip_code": "52464"
  },
  {
    "id": 72419,
    "name": "DANAREJA",
    "zip_code": "52464"
  },
  {
    "id": 72420,
    "name": "DANAWARIH",
    "zip_code": "52464"
  },
  {
    "id": 72421,
    "name": "HARJOWINANGUN",
    "zip_code": "52464"
  },
  {
    "id": 72422,
    "name": "KALIBAKUNG",
    "zip_code": "52464"
  },
  {
    "id": 72423,
    "name": "KALIWUNGU",
    "zip_code": "52464"
  },
  {
    "id": 72424,
    "name": "KARANGJAMBU",
    "zip_code": "52464"
  },
  {
    "id": 72425,
    "name": "PAGERWANGI",
    "zip_code": "52464"
  },
  {
    "id": 72426,
    "name": "PAMIRITAN",
    "zip_code": "52464"
  },
  {
    "id": 72427,
    "name": "SANGKANJAYA",
    "zip_code": "52464"
  },
  {
    "id": 72428,
    "name": "SESEPAN",
    "zip_code": "52464"
  },
  {
    "id": 72429,
    "name": "TEMBONGWAH",
    "zip_code": "52464"
  },
  {
    "id": 72430,
    "name": "WRINGIN JENGGOT",
    "zip_code": "52464"
  }
]