[
  {
    "id": 56507,
    "name": "ALUL",
    "zip_code": "94882"
  },
  {
    "id": 56508,
    "name": "BOLOI (BOLOY)",
    "zip_code": "94882"
  },
  {
    "id": 56509,
    "name": "BULAGI DUA",
    "zip_code": "94882"
  },
  {
    "id": 56510,
    "name": "BULAGI SATU",
    "zip_code": "94882"
  },
  {
    "id": 56511,
    "name": "KAMBAL",
    "zip_code": "94882"
  },
  {
    "id": 56512,
    "name": "KAYUBET",
    "zip_code": "94882"
  },
  {
    "id": 56513,
    "name": "KOMBA-KOMBA",
    "zip_code": "94882"
  },
  {
    "id": 56514,
    "name": "LALANDAY",
    "zip_code": "94882"
  },
  {
    "id": 56515,
    "name": "MESELESEK",
    "zip_code": "94882"
  },
  {
    "id": 56516,
    "name": "MONTOMISAN",
    "zip_code": "94882"
  },
  {
    "id": 56517,
    "name": "OLUNO",
    "zip_code": "94882"
  },
  {
    "id": 56518,
    "name": "PELING SEASA",
    "zip_code": "94882"
  },
  {
    "id": 56519,
    "name": "SOSOM",
    "zip_code": "94882"
  },
  {
    "id": 56520,
    "name": "SUMONDUNG",
    "zip_code": "94882"
  },
  {
    "id": 56521,
    "name": "TOLO",
    "zip_code": "94882"
  },
  {
    "id": 56522,
    "name": "TOOLON",
    "zip_code": "94882"
  }
]