[
  {
    "id": 21655,
    "name": "ANATAUREI (ANATOREI)",
    "zip_code": "98214"
  },
  {
    "id": 21656,
    "name": "BANAWA",
    "zip_code": "98215"
  },
  {
    "id": 21657,
    "name": "BARAWAIKAP",
    "zip_code": "98215"
  },
  {
    "id": 21658,
    "name": "BAWAI",
    "zip_code": "98215"
  },
  {
    "id": 21659,
    "name": "FAMBOAMAN (FAMBUAMAN)",
    "zip_code": "98215"
  },
  {
    "id": 21660,
    "name": "IMANDOA",
    "zip_code": "98211"
  },
  {
    "id": 21661,
    "name": "KANDOWARIRA",
    "zip_code": "98215"
  },
  {
    "id": 21662,
    "name": "KETUAPI",
    "zip_code": "98215"
  },
  {
    "id": 21663,
    "name": "MANAINI",
    "zip_code": "98211"
  },
  {
    "id": 21664,
    "name": "MANTEMBU",
    "zip_code": "98211"
  },
  {
    "id": 21665,
    "name": "MARIADEI (MARIADERI)",
    "zip_code": "98215"
  },
  {
    "id": 21666,
    "name": "NUNDAWIPI",
    "zip_code": "98215"
  },
  {
    "id": 21667,
    "name": "PASIR HITAM",
    "zip_code": "98215"
  },
  {
    "id": 21668,
    "name": "PASIR PUTIH",
    "zip_code": "98215"
  },
  {
    "id": 21669,
    "name": "SERUI JAYA",
    "zip_code": "98212"
  },
  {
    "id": 21670,
    "name": "SERUI KOTA",
    "zip_code": "98211"
  },
  {
    "id": 21671,
    "name": "SERUI LAUT",
    "zip_code": "98215"
  },
  {
    "id": 21672,
    "name": "TARAU",
    "zip_code": "98213"
  },
  {
    "id": 21673,
    "name": "TURU",
    "zip_code": "98211"
  },
  {
    "id": 21674,
    "name": "WARARI",
    "zip_code": "98211"
  },
  {
    "id": 21675,
    "name": "YAPAN",
    "zip_code": "98215"
  }
]