[
  {
    "id": 35133,
    "name": "BALAWELING I",
    "zip_code": "86272"
  },
  {
    "id": 35134,
    "name": "BALAWELING II",
    "zip_code": "86272"
  },
  {
    "id": 35135,
    "name": "DANI WATO",
    "zip_code": "86272"
  },
  {
    "id": 35136,
    "name": "KALELU",
    "zip_code": "86272"
  },
  {
    "id": 35137,
    "name": "KARAWATUNG",
    "zip_code": "86272"
  },
  {
    "id": 35138,
    "name": "LAMAOLE",
    "zip_code": "86272"
  },
  {
    "id": 35139,
    "name": "LAMAWALANG (LAMAWOHONG)",
    "zip_code": "86272"
  },
  {
    "id": 35140,
    "name": "LEWONAMA",
    "zip_code": "86272"
  },
  {
    "id": 35141,
    "name": "LEWOTANAH OLE",
    "zip_code": "86272"
  },
  {
    "id": 35142,
    "name": "NUSADANI",
    "zip_code": "86272"
  },
  {
    "id": 35143,
    "name": "ONGALERENG",
    "zip_code": "86272"
  },
  {
    "id": 35144,
    "name": "PAMAKAYO",
    "zip_code": "86272"
  },
  {
    "id": 35145,
    "name": "RITAEBANG",
    "zip_code": "86272"
  },
  {
    "id": 35146,
    "name": "TANAH LEIN",
    "zip_code": "86272"
  },
  {
    "id": 35147,
    "name": "TITEHENA",
    "zip_code": "86272"
  }
]