[
  {
    "id": 5512,
    "name": "BAGINDA",
    "zip_code": "45311"
  },
  {
    "id": 5513,
    "name": "CIHERANG",
    "zip_code": "45311"
  },
  {
    "id": 5514,
    "name": "CIPAMEUNGPEUK",
    "zip_code": "45315"
  },
  {
    "id": 5515,
    "name": "CIPANCAR",
    "zip_code": "45311"
  },
  {
    "id": 5516,
    "name": "CITENGAH",
    "zip_code": "45311"
  },
  {
    "id": 5517,
    "name": "GUNASARI",
    "zip_code": "45311"
  },
  {
    "id": 5518,
    "name": "KOTAKULON",
    "zip_code": "45311"
  },
  {
    "id": 5519,
    "name": "MARGALAKSANA",
    "zip_code": "45311"
  },
  {
    "id": 5520,
    "name": "MARGAMEKAR",
    "zip_code": "45311"
  },
  {
    "id": 5521,
    "name": "MEKAR RAHAYU",
    "zip_code": "45311"
  },
  {
    "id": 5522,
    "name": "PASANGGRAHAN",
    "zip_code": "45313"
  },
  {
    "id": 5523,
    "name": "REGOL WETAN",
    "zip_code": "45311"
  },
  {
    "id": 5524,
    "name": "SUKAGALIH",
    "zip_code": "45311"
  },
  {
    "id": 5525,
    "name": "SUKAJAYA",
    "zip_code": "45314"
  }
]