[
  {
    "id": 37336,
    "name": "AMAKAKA",
    "zip_code": "86683"
  },
  {
    "id": 37337,
    "name": "BEUTARAN",
    "zip_code": "86683"
  },
  {
    "id": 37338,
    "name": "BUNGAMUDA",
    "zip_code": "86683"
  },
  {
    "id": 37339,
    "name": "DULITUKAN",
    "zip_code": "86683"
  },
  {
    "id": 37340,
    "name": "KOLIPADAN",
    "zip_code": "86683"
  },
  {
    "id": 37341,
    "name": "KOLONTOBO",
    "zip_code": "86683"
  },
  {
    "id": 37342,
    "name": "LAMAWARA",
    "zip_code": "86683"
  },
  {
    "id": 37343,
    "name": "LARANWUTUN",
    "zip_code": "86683"
  },
  {
    "id": 37344,
    "name": "MURUONA",
    "zip_code": "86683"
  },
  {
    "id": 37345,
    "name": "NAPASABOK",
    "zip_code": "86683"
  },
  {
    "id": 37346,
    "name": "PALILOLON",
    "zip_code": "86683"
  },
  {
    "id": 37347,
    "name": "PETUNTAWA",
    "zip_code": "86683"
  },
  {
    "id": 37348,
    "name": "RIANGBAO",
    "zip_code": "86683"
  },
  {
    "id": 37349,
    "name": "TAGAWITI",
    "zip_code": "86683"
  },
  {
    "id": 37350,
    "name": "TANJUNG BATU",
    "zip_code": "86683"
  },
  {
    "id": 37351,
    "name": "WAOWALA",
    "zip_code": "86683"
  },
  {
    "id": 37352,
    "name": "WATODIRI",
    "zip_code": "86683"
  }
]