[
  {
    "id": 59526,
    "name": "BATU MAKJAGE",
    "zip_code": "79461"
  },
  {
    "id": 59527,
    "name": "BEKUT",
    "zip_code": "79461"
  },
  {
    "id": 59528,
    "name": "BUKIT SEGOLER",
    "zip_code": "79461"
  },
  {
    "id": 59529,
    "name": "DUNGUN PERAPAKAN",
    "zip_code": "79461"
  },
  {
    "id": 59530,
    "name": "MAK RAMPAI",
    "zip_code": "79461"
  },
  {
    "id": 59531,
    "name": "MAK TANGGUK",
    "zip_code": "79461"
  },
  {
    "id": 59532,
    "name": "MARIBAS",
    "zip_code": "79461"
  },
  {
    "id": 59533,
    "name": "MATANG LABUNG",
    "zip_code": "79461"
  },
  {
    "id": 59534,
    "name": "MEKAR SEKUNTUM",
    "zip_code": "79461"
  },
  {
    "id": 59535,
    "name": "MENSERE",
    "zip_code": "79461"
  },
  {
    "id": 59536,
    "name": "PANGKALAN KONGSI",
    "zip_code": "79461"
  },
  {
    "id": 59537,
    "name": "PUSAKA",
    "zip_code": "79461"
  },
  {
    "id": 59538,
    "name": "SEBERKAT",
    "zip_code": "79461"
  },
  {
    "id": 59539,
    "name": "SEGARAU PARIT",
    "zip_code": "79461"
  },
  {
    "id": 59540,
    "name": "SEGEDONG",
    "zip_code": "79461"
  },
  {
    "id": 59541,
    "name": "SEI/SUNGAI KELAMBU",
    "zip_code": "79461"
  },
  {
    "id": 59542,
    "name": "SEJIRAM",
    "zip_code": "79461"
  },
  {
    "id": 59543,
    "name": "SEMPALAI",
    "zip_code": "79461"
  },
  {
    "id": 59544,
    "name": "SERET AYON",
    "zip_code": "79461"
  },
  {
    "id": 59545,
    "name": "SERINDANG",
    "zip_code": "79461"
  },
  {
    "id": 59546,
    "name": "SERUMPUN BULUH",
    "zip_code": "79461"
  },
  {
    "id": 59547,
    "name": "TEBAS KUALA",
    "zip_code": "79461"
  },
  {
    "id": 59548,
    "name": "TEBAS SUNGAI",
    "zip_code": "79461"
  }
]