[
  {
    "id": 53371,
    "name": "AIR PEDARA",
    "zip_code": "30659"
  },
  {
    "id": 53372,
    "name": "AIR RUMBAI",
    "zip_code": "30659"
  },
  {
    "id": 53373,
    "name": "DARAT",
    "zip_code": "30659"
  },
  {
    "id": 53374,
    "name": "DELING",
    "zip_code": "30659"
  },
  {
    "id": 53375,
    "name": "LEBUNG BATANG",
    "zip_code": "30659"
  },
  {
    "id": 53376,
    "name": "LIRIK",
    "zip_code": "30659"
  },
  {
    "id": 53377,
    "name": "PANGKALAN LAMPAM",
    "zip_code": "30659"
  },
  {
    "id": 53378,
    "name": "PERIGI",
    "zip_code": "30659"
  },
  {
    "id": 53379,
    "name": "PULAUAN (PULAWAN)",
    "zip_code": "30659"
  },
  {
    "id": 53380,
    "name": "RAMBAI",
    "zip_code": "30659"
  },
  {
    "id": 53381,
    "name": "RIDING",
    "zip_code": "30659"
  },
  {
    "id": 53382,
    "name": "RIMBA SAMAK",
    "zip_code": "30659"
  },
  {
    "id": 53383,
    "name": "SUKA RAJA",
    "zip_code": "30659"
  },
  {
    "id": 53384,
    "name": "SUKADAMAI",
    "zip_code": "30659"
  },
  {
    "id": 53385,
    "name": "SUNGAI BUNGIN",
    "zip_code": "30659"
  },
  {
    "id": 53386,
    "name": "SUNGGUTAN",
    "zip_code": "30659"
  },
  {
    "id": 53387,
    "name": "TALANG DAYA",
    "zip_code": "30659"
  }
]