[
  {
    "id": 60022,
    "name": "AMPELSARI",
    "zip_code": "67175"
  },
  {
    "id": 60023,
    "name": "CENGKRONG",
    "zip_code": "67175"
  },
  {
    "id": 60024,
    "name": "GALIH",
    "zip_code": "67175"
  },
  {
    "id": 60025,
    "name": "JOGOREPUH",
    "zip_code": "67175"
  },
  {
    "id": 60026,
    "name": "KLAKAH",
    "zip_code": "67175"
  },
  {
    "id": 60027,
    "name": "LEMAHBANG",
    "zip_code": "67175"
  },
  {
    "id": 60028,
    "name": "MANGGUAN",
    "zip_code": "67175"
  },
  {
    "id": 60029,
    "name": "NGANTUNGAN",
    "zip_code": "67175"
  },
  {
    "id": 60030,
    "name": "PASREPAN",
    "zip_code": "67175"
  },
  {
    "id": 60031,
    "name": "PETUNG",
    "zip_code": "67175"
  },
  {
    "id": 60032,
    "name": "POH GADING",
    "zip_code": "67175"
  },
  {
    "id": 60033,
    "name": "POH GEDANG",
    "zip_code": "67175"
  },
  {
    "id": 60034,
    "name": "REJOSALAM",
    "zip_code": "67175"
  },
  {
    "id": 60035,
    "name": "SAPULANTE",
    "zip_code": "67175"
  },
  {
    "id": 60036,
    "name": "SIBON",
    "zip_code": "67175"
  },
  {
    "id": 60037,
    "name": "TAMBAKREJO",
    "zip_code": "67175"
  },
  {
    "id": 60038,
    "name": "TEMPURAN",
    "zip_code": "67175"
  }
]