[
  {
    "id": 41521,
    "name": "BAKARAN BATU",
    "zip_code": "20511"
  },
  {
    "id": 41522,
    "name": "CEMARA",
    "zip_code": "20517"
  },
  {
    "id": 41523,
    "name": "LUBUK PAKAM I-II",
    "zip_code": "20511"
  },
  {
    "id": 41524,
    "name": "LUBUK PAKAM PEKAN",
    "zip_code": "20512"
  },
  {
    "id": 41525,
    "name": "LUBUK PAKAM TIGA",
    "zip_code": "20516"
  },
  {
    "id": 41526,
    "name": "PAGAR JATI",
    "zip_code": "20518"
  },
  {
    "id": 41527,
    "name": "PAGAR MERBAU TIGA",
    "zip_code": "20515"
  },
  {
    "id": 41528,
    "name": "PALUH KEMIRI",
    "zip_code": "20513"
  },
  {
    "id": 41529,
    "name": "PASAR MELINTANG",
    "zip_code": "20518"
  },
  {
    "id": 41530,
    "name": "PETAPAHAN",
    "zip_code": "20514"
  },
  {
    "id": 41531,
    "name": "SEKIP",
    "zip_code": "20517"
  },
  {
    "id": 41532,
    "name": "SYAHMAD",
    "zip_code": "20515"
  },
  {
    "id": 41533,
    "name": "TANJUNG GARBUS",
    "zip_code": "20511"
  }
]