[
  {
    "id": 29627,
    "name": "ARSE SIMATORKIS",
    "zip_code": "22763"
  },
  {
    "id": 29628,
    "name": "BANGUN RAYA",
    "zip_code": "22763"
  },
  {
    "id": 29629,
    "name": "BINABO JAE",
    "zip_code": "22763"
  },
  {
    "id": 29630,
    "name": "BINABO JULU",
    "zip_code": "22763"
  },
  {
    "id": 29631,
    "name": "BULU SONIK",
    "zip_code": "22763"
  },
  {
    "id": 29632,
    "name": "HANDIS JULU",
    "zip_code": "22763"
  },
  {
    "id": 29633,
    "name": "HASAHATAN JAE",
    "zip_code": "22763"
  },
  {
    "id": 29634,
    "name": "HASAHATAN JULU",
    "zip_code": "22763"
  },
  {
    "id": 29635,
    "name": "HUTARIMBARU",
    "zip_code": "22763"
  },
  {
    "id": 29636,
    "name": "JANJI LOBI",
    "zip_code": "22763"
  },
  {
    "id": 29637,
    "name": "LIMBONG",
    "zip_code": "22763"
  },
  {
    "id": 29638,
    "name": "MOMPANG",
    "zip_code": "22763"
  },
  {
    "id": 29639,
    "name": "PAGARAN BARINGIN",
    "zip_code": "22763"
  },
  {
    "id": 29640,
    "name": "PANCAUKAN",
    "zip_code": "22763"
  },
  {
    "id": 29641,
    "name": "PASAR SIBUHUAN",
    "zip_code": "22763"
  },
  {
    "id": 29642,
    "name": "PURBATUA",
    "zip_code": "22763"
  },
  {
    "id": 29643,
    "name": "SABA RIMBA/RIBA",
    "zip_code": "22763"
  },
  {
    "id": 29644,
    "name": "SABAHOTANG",
    "zip_code": "22763"
  },
  {
    "id": 29645,
    "name": "SALAMBUE (SIALAM BUE)",
    "zip_code": "22763"
  },
  {
    "id": 29646,
    "name": "SAYUR MATUA",
    "zip_code": "22763"
  },
  {
    "id": 29647,
    "name": "SIBUHUAN JAE",
    "zip_code": "22763"
  },
  {
    "id": 29648,
    "name": "SIBUHUAN JULU",
    "zip_code": "22763"
  },
  {
    "id": 29649,
    "name": "SIGORBUS JAE",
    "zip_code": "22763"
  },
  {
    "id": 29650,
    "name": "SIGORBUS JULU",
    "zip_code": "22763"
  },
  {
    "id": 29651,
    "name": "SIOLIP",
    "zip_code": "22763"
  },
  {
    "id": 29652,
    "name": "SITAROLO JULU",
    "zip_code": "22763"
  },
  {
    "id": 29653,
    "name": "TANJUNG BOTUNG",
    "zip_code": "22763"
  },
  {
    "id": 29654,
    "name": "TANJUNG DURIAN",
    "zip_code": "22763"
  },
  {
    "id": 29655,
    "name": "TANO BATO",
    "zip_code": "22763"
  },
  {
    "id": 43202,
    "name": "SIMANINGGIR",
    "zip_code": "22763"
  }
]