[
  {
    "id": 41875,
    "name": "BANDAR DOLOK",
    "zip_code": "20551"
  },
  {
    "id": 41876,
    "name": "JATI BARU (SIDOARJO I)",
    "zip_code": "20551"
  },
  {
    "id": 41877,
    "name": "JATI REJO",
    "zip_code": "20551"
  },
  {
    "id": 41878,
    "name": "PAGAR MERBAU I",
    "zip_code": "20551"
  },
  {
    "id": 41879,
    "name": "PAGAR MERBAU II",
    "zip_code": "20551"
  },
  {
    "id": 41880,
    "name": "PASAR MIRING (SIDOARJO SATU PSR MIRING)",
    "zip_code": "20551"
  },
  {
    "id": 41881,
    "name": "PERBARAKAN",
    "zip_code": "20551"
  },
  {
    "id": 41882,
    "name": "PURWODADI",
    "zip_code": "20551"
  },
  {
    "id": 41883,
    "name": "SIDODADI BATU DELAPAN",
    "zip_code": "20551"
  },
  {
    "id": 41884,
    "name": "SUKA MULIA",
    "zip_code": "20551"
  },
  {
    "id": 41885,
    "name": "SUKAMANDI HILIR",
    "zip_code": "20551"
  },
  {
    "id": 41886,
    "name": "SUKAMANDI HULU",
    "zip_code": "20551"
  },
  {
    "id": 41887,
    "name": "SUMBEREJO",
    "zip_code": "20551"
  },
  {
    "id": 41888,
    "name": "TANJUNG GARBUS II",
    "zip_code": "20551"
  },
  {
    "id": 41889,
    "name": "TANJUNG GARBUS KAMPUNG",
    "zip_code": "20551"
  },
  {
    "id": 43351,
    "name": "TANJUNG MULIA",
    "zip_code": "20551"
  }
]