[
  {
    "id": 15738,
    "name": "BULOH",
    "zip_code": "24185"
  },
  {
    "id": 15739,
    "name": "COT LHEU RHENG",
    "zip_code": "24185"
  },
  {
    "id": 15740,
    "name": "COT MAKASO",
    "zip_code": "24185"
  },
  {
    "id": 15741,
    "name": "DAYAH PANGWA",
    "zip_code": "24185"
  },
  {
    "id": 15742,
    "name": "DAYAH TEUMANAH",
    "zip_code": "24185"
  },
  {
    "id": 15743,
    "name": "DAYAH UJONG BAROH",
    "zip_code": "24185"
  },
  {
    "id": 15744,
    "name": "DE (GAMPONG DEE)",
    "zip_code": "24185"
  },
  {
    "id": 15745,
    "name": "KEUDE TRIENGGADENG",
    "zip_code": "24185"
  },
  {
    "id": 15746,
    "name": "KUTA PANGWA",
    "zip_code": "24185"
  },
  {
    "id": 15747,
    "name": "MATANG",
    "zip_code": "24185"
  },
  {
    "id": 15748,
    "name": "ME PANGWA",
    "zip_code": "24185"
  },
  {
    "id": 15749,
    "name": "ME PEUDUEK (PEUDOK BAROH)",
    "zip_code": "24185"
  },
  {
    "id": 15750,
    "name": "MESJID PEUDUEK",
    "zip_code": "24185"
  },
  {
    "id": 15751,
    "name": "MESJID TRIENGGADENG",
    "zip_code": "24185"
  },
  {
    "id": 15752,
    "name": "MEUCAT PANGWA",
    "zip_code": "24185"
  },
  {
    "id": 15753,
    "name": "MEUE",
    "zip_code": "24185"
  },
  {
    "id": 15754,
    "name": "PANTON RAYA",
    "zip_code": "24185"
  },
  {
    "id": 15755,
    "name": "PAYA",
    "zip_code": "24185"
  },
  {
    "id": 15756,
    "name": "PEULANDOK TEUNGOH",
    "zip_code": "24185"
  },
  {
    "id": 15757,
    "name": "PEULANDOK TUNONG",
    "zip_code": "24185"
  },
  {
    "id": 15758,
    "name": "RAWASARI",
    "zip_code": "24185"
  },
  {
    "id": 15759,
    "name": "RAYA",
    "zip_code": "24185"
  },
  {
    "id": 15760,
    "name": "REUSEB",
    "zip_code": "24185"
  },
  {
    "id": 15761,
    "name": "SAGOU",
    "zip_code": "24185"
  },
  {
    "id": 15762,
    "name": "TAMPUI",
    "zip_code": "24185"
  },
  {
    "id": 15763,
    "name": "TUHA",
    "zip_code": "24185"
  },
  {
    "id": 15764,
    "name": "TUNGKLUET (TUNG KLEUT)",
    "zip_code": "24185"
  }
]