[
  {
    "id": 46544,
    "name": "BABADAN",
    "zip_code": "64472"
  },
  {
    "id": 46545,
    "name": "BANARAN",
    "zip_code": "64472"
  },
  {
    "id": 46546,
    "name": "BATEMBAT",
    "zip_code": "64472"
  },
  {
    "id": 46547,
    "name": "BODOR",
    "zip_code": "64472"
  },
  {
    "id": 46548,
    "name": "CERME",
    "zip_code": "64472"
  },
  {
    "id": 46549,
    "name": "GEMENGGENG",
    "zip_code": "64472"
  },
  {
    "id": 46550,
    "name": "GONDANG",
    "zip_code": "64451"
  },
  {
    "id": 46551,
    "name": "JAMPES",
    "zip_code": "64472"
  },
  {
    "id": 46552,
    "name": "JATIGREGES",
    "zip_code": "64472"
  },
  {
    "id": 46553,
    "name": "JETIS",
    "zip_code": "64472"
  },
  {
    "id": 46554,
    "name": "JOHO",
    "zip_code": "64472"
  },
  {
    "id": 46555,
    "name": "KECUBUNG",
    "zip_code": "64472"
  },
  {
    "id": 46556,
    "name": "KEPANJEN",
    "zip_code": "64472"
  },
  {
    "id": 46557,
    "name": "MLANDANGAN",
    "zip_code": "64472"
  },
  {
    "id": 46558,
    "name": "PACE WETAN",
    "zip_code": "64472"
  },
  {
    "id": 46559,
    "name": "PACEKULON",
    "zip_code": "64472"
  },
  {
    "id": 46560,
    "name": "PLOSOHARJO",
    "zip_code": "64472"
  },
  {
    "id": 46561,
    "name": "SANAN",
    "zip_code": "64472"
  }
]