[
  {
    "id": 8522,
    "name": "CIASIHAN",
    "zip_code": "16810"
  },
  {
    "id": 8523,
    "name": "CIASMARA",
    "zip_code": "16810"
  },
  {
    "id": 8524,
    "name": "CIBENING",
    "zip_code": "16810"
  },
  {
    "id": 8525,
    "name": "CIBITUNG KULON",
    "zip_code": "16810"
  },
  {
    "id": 8526,
    "name": "CIBITUNG WETAN",
    "zip_code": "16810"
  },
  {
    "id": 8527,
    "name": "CIBUNIAN",
    "zip_code": "16810"
  },
  {
    "id": 8528,
    "name": "CIMAYANG",
    "zip_code": "16810"
  },
  {
    "id": 8529,
    "name": "GUNUNG BUNDER 1",
    "zip_code": "16810"
  },
  {
    "id": 8530,
    "name": "GUNUNG BUNDER 2",
    "zip_code": "16810"
  },
  {
    "id": 8531,
    "name": "GUNUNG MENYAN",
    "zip_code": "16810"
  },
  {
    "id": 8532,
    "name": "GUNUNG PICUNG",
    "zip_code": "16810"
  },
  {
    "id": 8533,
    "name": "GUNUNG SARI",
    "zip_code": "16810"
  },
  {
    "id": 8534,
    "name": "PAMIJAHAN",
    "zip_code": "16810"
  },
  {
    "id": 8535,
    "name": "PASAREAN",
    "zip_code": "16810"
  },
  {
    "id": 8536,
    "name": "PURWABAKTI",
    "zip_code": "16810"
  }
]