[
  {
    "id": 73764,
    "name": "AINGOGIN",
    "zip_code": "99967"
  },
  {
    "id": 73765,
    "name": "ARWANOP",
    "zip_code": "99967"
  },
  {
    "id": 73766,
    "name": "BALUNI",
    "zip_code": "99967"
  },
  {
    "id": 73767,
    "name": "BANIGOGOM",
    "zip_code": "99967"
  },
  {
    "id": 73768,
    "name": "BANTI DUA",
    "zip_code": "99967"
  },
  {
    "id": 73769,
    "name": "DOLININGOKNGIN",
    "zip_code": "99967"
  },
  {
    "id": 73770,
    "name": "JAGAMIN",
    "zip_code": "99967"
  },
  {
    "id": 73771,
    "name": "JONGKOGAMA",
    "zip_code": "99967"
  },
  {
    "id": 73772,
    "name": "MENINGIMPONOGAMA",
    "zip_code": "99967"
  },
  {
    "id": 73773,
    "name": "NOSELANOP",
    "zip_code": "99967"
  },
  {
    "id": 73774,
    "name": "OPITAWAK",
    "zip_code": "99967"
  },
  {
    "id": 73775,
    "name": "T SINGA",
    "zip_code": "99967"
  },
  {
    "id": 73776,
    "name": "TEMBAGAPURA",
    "zip_code": "99967"
  },
  {
    "id": 73777,
    "name": "WAA",
    "zip_code": "99967"
  }
]