[
  {
    "id": 29804,
    "name": "AEK BARGOT",
    "zip_code": "22762"
  },
  {
    "id": 29805,
    "name": "BANUA TONGA",
    "zip_code": "22762"
  },
  {
    "id": 29806,
    "name": "BINANGA TOLU",
    "zip_code": "22762"
  },
  {
    "id": 29807,
    "name": "HULIM",
    "zip_code": "22762"
  },
  {
    "id": 29808,
    "name": "HUTA BARA",
    "zip_code": "22762"
  },
  {
    "id": 29809,
    "name": "HUTA BARGOT",
    "zip_code": "22762"
  },
  {
    "id": 29810,
    "name": "HUTA BARU SIUNDOL",
    "zip_code": "22762"
  },
  {
    "id": 29811,
    "name": "HUTA BARU SOSOPAN",
    "zip_code": "22762"
  },
  {
    "id": 29812,
    "name": "PAGARAN BIRA JAE",
    "zip_code": "22762"
  },
  {
    "id": 29813,
    "name": "PAGARAN BIRA JULU",
    "zip_code": "22762"
  },
  {
    "id": 29814,
    "name": "SIANGGUNAN",
    "zip_code": "22762"
  },
  {
    "id": 29815,
    "name": "SIBUAL-BUALI",
    "zip_code": "22762"
  },
  {
    "id": 29816,
    "name": "SIGALA GALA",
    "zip_code": "22762"
  },
  {
    "id": 29817,
    "name": "SIHAPORAS",
    "zip_code": "22762"
  },
  {
    "id": 29818,
    "name": "SIMANINGGIR SOSOPAN",
    "zip_code": "22762"
  },
  {
    "id": 29819,
    "name": "SIMARTOLU",
    "zip_code": "22762"
  },
  {
    "id": 29820,
    "name": "SIUNDOL DOLOK",
    "zip_code": "22762"
  },
  {
    "id": 29821,
    "name": "SIUNDOL JAE",
    "zip_code": "22762"
  },
  {
    "id": 29822,
    "name": "SIUNDOL JULU",
    "zip_code": "22762"
  },
  {
    "id": 29823,
    "name": "SOSOPAN",
    "zip_code": "22762"
  },
  {
    "id": 29824,
    "name": "SOSOPAN JULU",
    "zip_code": "22762"
  },
  {
    "id": 29825,
    "name": "ULU AER",
    "zip_code": "22762"
  }
]