[
  {
    "id": 55918,
    "name": "BABANG BUYANGGE",
    "zip_code": "94761"
  },
  {
    "id": 55919,
    "name": "DIMPALON",
    "zip_code": "94761"
  },
  {
    "id": 55920,
    "name": "KALOLOS",
    "zip_code": "94761"
  },
  {
    "id": 55921,
    "name": "KINTOM",
    "zip_code": "94761"
  },
  {
    "id": 55922,
    "name": "LONTIO",
    "zip_code": "94761"
  },
  {
    "id": 55923,
    "name": "MANYULA",
    "zip_code": "94761"
  },
  {
    "id": 55924,
    "name": "MENDONO",
    "zip_code": "94761"
  },
  {
    "id": 55925,
    "name": "PADANG",
    "zip_code": "94761"
  },
  {
    "id": 55926,
    "name": "PADUNGNYO",
    "zip_code": "94761"
  },
  {
    "id": 55927,
    "name": "SAMADOYA",
    "zip_code": "94761"
  },
  {
    "id": 55928,
    "name": "SAYAMBONGIN",
    "zip_code": "94761"
  },
  {
    "id": 55929,
    "name": "SOLAN",
    "zip_code": "94761"
  },
  {
    "id": 55930,
    "name": "TANGKIANG",
    "zip_code": "94761"
  },
  {
    "id": 55931,
    "name": "ULING",
    "zip_code": "94761"
  }
]