[
  {
    "id": 45909,
    "name": "BANJARSARI",
    "zip_code": "61352"
  },
  {
    "id": 45910,
    "name": "BENDUNG",
    "zip_code": "61352"
  },
  {
    "id": 45911,
    "name": "CANGGU",
    "zip_code": "61352"
  },
  {
    "id": 45912,
    "name": "JETIS",
    "zip_code": "61352"
  },
  {
    "id": 45913,
    "name": "JOLOTUNDO",
    "zip_code": "61352"
  },
  {
    "id": 45914,
    "name": "KUPANG",
    "zip_code": "61352"
  },
  {
    "id": 45915,
    "name": "LAKARDOWO",
    "zip_code": "61352"
  },
  {
    "id": 45916,
    "name": "MLIRIP",
    "zip_code": "61352"
  },
  {
    "id": 45917,
    "name": "MOJOLEBAK",
    "zip_code": "61352"
  },
  {
    "id": 45918,
    "name": "MOJOREJO",
    "zip_code": "61352"
  },
  {
    "id": 45919,
    "name": "NGABAR",
    "zip_code": "61352"
  },
  {
    "id": 45920,
    "name": "PARINGAN",
    "zip_code": "61352"
  },
  {
    "id": 45921,
    "name": "PENOMPO",
    "zip_code": "61352"
  },
  {
    "id": 45922,
    "name": "PERNING",
    "zip_code": "61352"
  },
  {
    "id": 45923,
    "name": "SAWO",
    "zip_code": "61352"
  },
  {
    "id": 45924,
    "name": "SIDOREJO",
    "zip_code": "61352"
  }
]