[
  {
    "id": 58367,
    "name": "BULUH MERINDU",
    "zip_code": "78694"
  },
  {
    "id": 58368,
    "name": "EMPAKAN",
    "zip_code": "78694"
  },
  {
    "id": 58369,
    "name": "EMPOYANG",
    "zip_code": "78694"
  },
  {
    "id": 58370,
    "name": "ENTOGONG",
    "zip_code": "78694"
  },
  {
    "id": 58371,
    "name": "KERAPUK JAYA",
    "zip_code": "78694"
  },
  {
    "id": 58372,
    "name": "LANDAU BARA",
    "zip_code": "78694"
  },
  {
    "id": 58373,
    "name": "LINTANG TAMBUK",
    "zip_code": "78694"
  },
  {
    "id": 58374,
    "name": "MAPAN JAYA",
    "zip_code": "78694"
  },
  {
    "id": 58375,
    "name": "MERAH ARAI",
    "zip_code": "78694"
  },
  {
    "id": 58376,
    "name": "MERAHAU PERMAI",
    "zip_code": "78694"
  },
  {
    "id": 58377,
    "name": "NANGA ABAI",
    "zip_code": "78694"
  },
  {
    "id": 58378,
    "name": "NANGA LAAR",
    "zip_code": "78694"
  },
  {
    "id": 58379,
    "name": "NANGA MASAU",
    "zip_code": "78694"
  },
  {
    "id": 58380,
    "name": "NANGA ORAN",
    "zip_code": "78694"
  },
  {
    "id": 58381,
    "name": "NANGA PAYAK",
    "zip_code": "78694"
  },
  {
    "id": 58382,
    "name": "NANGA TEBIDAH",
    "zip_code": "78694"
  },
  {
    "id": 58383,
    "name": "NANGA TONGGOI",
    "zip_code": "78694"
  },
  {
    "id": 58384,
    "name": "NANGA TORAN",
    "zip_code": "78694"
  },
  {
    "id": 58385,
    "name": "NANGA UNGAI",
    "zip_code": "78694"
  },
  {
    "id": 58386,
    "name": "NANGKAK LESTARI",
    "zip_code": "78694"
  },
  {
    "id": 58387,
    "name": "RIAM MUNTIK",
    "zip_code": "78694"
  },
  {
    "id": 58388,
    "name": "RIAM PANJANG",
    "zip_code": "78694"
  },
  {
    "id": 58389,
    "name": "TANAH MERAH",
    "zip_code": "78694"
  },
  {
    "id": 58390,
    "name": "TANJUNG BUNGA",
    "zip_code": "78694"
  },
  {
    "id": 58391,
    "name": "TANJUNG LALAU",
    "zip_code": "78694"
  },
  {
    "id": 58392,
    "name": "TANJUNG MIRU",
    "zip_code": "78694"
  },
  {
    "id": 58393,
    "name": "TAPANG MANUA",
    "zip_code": "78694"
  },
  {
    "id": 58394,
    "name": "TONAK GONEH",
    "zip_code": "78694"
  },
  {
    "id": 58395,
    "name": "TOPAN NANGA",
    "zip_code": "78694"
  }
]