[
  {
    "id": 43306,
    "name": "BAGAN ARYA",
    "zip_code": "21253"
  },
  {
    "id": 43307,
    "name": "BAGAN DALAM",
    "zip_code": "21253"
  },
  {
    "id": 43308,
    "name": "BANDAR RAHMAT",
    "zip_code": "21253"
  },
  {
    "id": 43309,
    "name": "BOGAK",
    "zip_code": "21253"
  },
  {
    "id": 43310,
    "name": "GUNTUNG",
    "zip_code": "21253"
  },
  {
    "id": 43311,
    "name": "KAMPUNG LALANG",
    "zip_code": "21253"
  },
  {
    "id": 43312,
    "name": "PAHLAWAN",
    "zip_code": "21253"
  },
  {
    "id": 43313,
    "name": "PEMATANG RAMBE",
    "zip_code": "21253"
  },
  {
    "id": 43314,
    "name": "SUKA JAYA",
    "zip_code": "21253"
  },
  {
    "id": 43315,
    "name": "SUKA MAJU",
    "zip_code": "21253"
  },
  {
    "id": 43316,
    "name": "TANJUNGMULIA",
    "zip_code": "21253"
  },
  {
    "id": 43317,
    "name": "TANJUNGTIRAM",
    "zip_code": "21253"
  },
  {
    "id": 43354,
    "name": "BAGAN BARU",
    "zip_code": "21253"
  },
  {
    "id": 43355,
    "name": "BANDAR SONO",
    "zip_code": "21253"
  },
  {
    "id": 43356,
    "name": "JATI MULIA",
    "zip_code": "21253"
  },
  {
    "id": 43357,
    "name": "KAPAL MERAH",
    "zip_code": "21253"
  },
  {
    "id": 43358,
    "name": "LIMA LARAS",
    "zip_code": "21253"
  },
  {
    "id": 43359,
    "name": "MEKAR LARAS",
    "zip_code": "21253"
  },
  {
    "id": 43360,
    "name": "SEI MENTARAM",
    "zip_code": "21253"
  },
  {
    "id": 43361,
    "name": "SENTANG",
    "zip_code": "21253"
  },
  {
    "id": 43362,
    "name": "TALI AIR PERMAI",
    "zip_code": "21253"
  },
  {
    "id": 43363,
    "name": "UJUNG KUBU",
    "zip_code": "21253"
  }
]