[
  {
    "id": 21347,
    "name": "BANLI",
    "zip_code": "99655"
  },
  {
    "id": 21348,
    "name": "DEKA",
    "zip_code": "99655"
  },
  {
    "id": 21349,
    "name": "KALILAM",
    "zip_code": "99655"
  },
  {
    "id": 21350,
    "name": "KIMAAM",
    "zip_code": "99655"
  },
  {
    "id": 21351,
    "name": "KIWORO",
    "zip_code": "99655"
  },
  {
    "id": 21352,
    "name": "KOMOLOM",
    "zip_code": "99655"
  },
  {
    "id": 21353,
    "name": "KUMBIS",
    "zip_code": "99655"
  },
  {
    "id": 21354,
    "name": "MAMBUM",
    "zip_code": "99655"
  },
  {
    "id": 21355,
    "name": "PURAWANDERU",
    "zip_code": "99655"
  },
  {
    "id": 21356,
    "name": "SABUDON",
    "zip_code": "99655"
  },
  {
    "id": 21357,
    "name": "TERI",
    "zip_code": "99655"
  },
  {
    "id": 21358,
    "name": "TURIRAM",
    "zip_code": "99655"
  },
  {
    "id": 21359,
    "name": "UMANDERU",
    "zip_code": "99655"
  },
  {
    "id": 21360,
    "name": "WANAM KEM",
    "zip_code": "99655"
  },
  {
    "id": 21361,
    "name": "WEBU",
    "zip_code": "99655"
  },
  {
    "id": 21362,
    "name": "WONER",
    "zip_code": "99655"
  }
]