[
  {
    "id": 12995,
    "name": "ALUE RAMBOT",
    "zip_code": "23762"
  },
  {
    "id": 12996,
    "name": "BLANG MANGGENG",
    "zip_code": "23762"
  },
  {
    "id": 12997,
    "name": "KEUDEI",
    "zip_code": "23762"
  },
  {
    "id": 12998,
    "name": "LADANG PANAH",
    "zip_code": "23762"
  },
  {
    "id": 12999,
    "name": "LADANG TUHA I",
    "zip_code": "23762"
  },
  {
    "id": 13000,
    "name": "LADANG TUHA II",
    "zip_code": "23762"
  },
  {
    "id": 13001,
    "name": "LHOK PAWOH",
    "zip_code": "23762"
  },
  {
    "id": 13002,
    "name": "LHOK PUNTOL",
    "zip_code": "23762"
  },
  {
    "id": 13003,
    "name": "LHONG BARO",
    "zip_code": "23762"
  },
  {
    "id": 13004,
    "name": "PADANG",
    "zip_code": "23762"
  },
  {
    "id": 13005,
    "name": "PANTE PIRAK",
    "zip_code": "23762"
  },
  {
    "id": 13006,
    "name": "PANTE RAJA",
    "zip_code": "23762"
  },
  {
    "id": 13007,
    "name": "PANTOM MAKMUR",
    "zip_code": "23762"
  },
  {
    "id": 13008,
    "name": "PAYA",
    "zip_code": "23762"
  },
  {
    "id": 13009,
    "name": "PUSU INGIN RAYA",
    "zip_code": "23762"
  },
  {
    "id": 13010,
    "name": "SEJAHTERA",
    "zip_code": "23762"
  },
  {
    "id": 13011,
    "name": "SEUNEULOP",
    "zip_code": "23762"
  },
  {
    "id": 13012,
    "name": "TEUNGOH",
    "zip_code": "23762"
  },
  {
    "id": 13013,
    "name": "TOKOH",
    "zip_code": "23762"
  },
  {
    "id": 13014,
    "name": "UJUNG TANAH",
    "zip_code": "23762"
  },
  {
    "id": 82977,
    "name": "PANTE CERMIN",
    "zip_code": "23760"
  }
]