[
  {
    "id": 75957,
    "name": "AIR BAKOMAN",
    "zip_code": "35679"
  },
  {
    "id": 75958,
    "name": "BATU BEDIL",
    "zip_code": "35679"
  },
  {
    "id": 75959,
    "name": "GEDUNG AGUNG",
    "zip_code": "35679"
  },
  {
    "id": 75960,
    "name": "GUNUNG MEGANG",
    "zip_code": "35679"
  },
  {
    "id": 75961,
    "name": "GUNUNG MERAKSA",
    "zip_code": "35679"
  },
  {
    "id": 75962,
    "name": "KEMUNING",
    "zip_code": "35679"
  },
  {
    "id": 75963,
    "name": "MUARA DUA",
    "zip_code": "35679"
  },
  {
    "id": 75964,
    "name": "PENANTIAN",
    "zip_code": "35679"
  },
  {
    "id": 75965,
    "name": "PULAU PANGGUNG",
    "zip_code": "35679"
  },
  {
    "id": 75966,
    "name": "SINAR MANCAK",
    "zip_code": "35679"
  },
  {
    "id": 75967,
    "name": "SINAR MULYO",
    "zip_code": "35679"
  },
  {
    "id": 75968,
    "name": "SINDANG MARGA",
    "zip_code": "35679"
  },
  {
    "id": 75969,
    "name": "SRIMANGANTEN",
    "zip_code": "35679"
  },
  {
    "id": 75970,
    "name": "SUMBER MULYO/MULYA",
    "zip_code": "35679"
  },
  {
    "id": 75971,
    "name": "TALANG BERINGIN",
    "zip_code": "35679"
  },
  {
    "id": 75972,
    "name": "TALANG JAWA",
    "zip_code": "35679"
  },
  {
    "id": 75973,
    "name": "TANJUNG BEGELUNG",
    "zip_code": "35679"
  },
  {
    "id": 75974,
    "name": "TANJUNG REJO",
    "zip_code": "35679"
  },
  {
    "id": 75975,
    "name": "TANJUNGGUNUNG",
    "zip_code": "35679"
  },
  {
    "id": 75976,
    "name": "TEKAD",
    "zip_code": "35679"
  },
  {
    "id": 75977,
    "name": "WAY ILAHAN",
    "zip_code": "35679"
  }
]