[
  {
    "id": 50032,
    "name": "BATU PANJANG",
    "zip_code": "28781"
  },
  {
    "id": 50033,
    "name": "DARUL AMAN",
    "zip_code": "28781"
  },
  {
    "id": 50034,
    "name": "DUNGUN BARU",
    "zip_code": "28781"
  },
  {
    "id": 50035,
    "name": "HUTAN PANJANG",
    "zip_code": "28781"
  },
  {
    "id": 50036,
    "name": "MAKERUH",
    "zip_code": "28781"
  },
  {
    "id": 50037,
    "name": "PANCUR JAYA",
    "zip_code": "28781"
  },
  {
    "id": 50038,
    "name": "PANGKALAN NYIRIH",
    "zip_code": "28781"
  },
  {
    "id": 50039,
    "name": "PANGKALAN PINANG",
    "zip_code": "28781"
  },
  {
    "id": 50040,
    "name": "PARIT KEBUMEN",
    "zip_code": "28781"
  },
  {
    "id": 50041,
    "name": "PERGAM",
    "zip_code": "28781"
  },
  {
    "id": 50042,
    "name": "SEI/SUNGAI CINGAM",
    "zip_code": "28781"
  },
  {
    "id": 50043,
    "name": "SRI TANJUNG",
    "zip_code": "28781"
  },
  {
    "id": 50044,
    "name": "SUKARJO MESIN",
    "zip_code": "28781"
  },
  {
    "id": 50045,
    "name": "TANJUNG KAPAL",
    "zip_code": "28781"
  },
  {
    "id": 50046,
    "name": "TELUK LECAH",
    "zip_code": "28781"
  },
  {
    "id": 50047,
    "name": "TERKUL",
    "zip_code": "28781"
  }
]