[
  {
    "id": 28316,
    "name": "BATANG TURA SIRUMAMBE",
    "zip_code": "22733"
  },
  {
    "id": 28317,
    "name": "GUNUNG MANUNGKAP",
    "zip_code": "22733"
  },
  {
    "id": 28318,
    "name": "HURABA",
    "zip_code": "22733"
  },
  {
    "id": 28319,
    "name": "HUTA GINJANG",
    "zip_code": "22733"
  },
  {
    "id": 28320,
    "name": "LANTOSAN ROGAS",
    "zip_code": "22733"
  },
  {
    "id": 28321,
    "name": "MARISI",
    "zip_code": "22733"
  },
  {
    "id": 28322,
    "name": "PALL XI",
    "zip_code": "22733"
  },
  {
    "id": 28323,
    "name": "PANOMPUAN",
    "zip_code": "22733"
  },
  {
    "id": 28324,
    "name": "PANOMPUAN JAE",
    "zip_code": "22733"
  },
  {
    "id": 28325,
    "name": "PARGARUTAN DOLOK",
    "zip_code": "22733"
  },
  {
    "id": 28326,
    "name": "PARGARUTAN HUTA BARU",
    "zip_code": "22733"
  },
  {
    "id": 28327,
    "name": "PARGARUTAN JAE",
    "zip_code": "22733"
  },
  {
    "id": 28328,
    "name": "PARGARUTAN JULU",
    "zip_code": "22733"
  },
  {
    "id": 28329,
    "name": "PARGARUTAN TONGA",
    "zip_code": "22733"
  },
  {
    "id": 28330,
    "name": "PASAR PARGARUTAN",
    "zip_code": "22733"
  },
  {
    "id": 28331,
    "name": "SANGGAPATI",
    "zip_code": "22733"
  },
  {
    "id": 28332,
    "name": "SIJUNGKANG",
    "zip_code": "22733"
  }
]