[
  {
    "id": 55314,
    "name": "BANBAN REJO",
    "zip_code": "32366"
  },
  {
    "id": 55315,
    "name": "DADI MULYO",
    "zip_code": "32366"
  },
  {
    "id": 55316,
    "name": "JATI MULYA II",
    "zip_code": "32366"
  },
  {
    "id": 55317,
    "name": "KALIREJO",
    "zip_code": "32366"
  },
  {
    "id": 55318,
    "name": "KARANG NEGARA",
    "zip_code": "32366"
  },
  {
    "id": 55319,
    "name": "KERTANEGARA",
    "zip_code": "32366"
  },
  {
    "id": 55320,
    "name": "KOTA NEGARA",
    "zip_code": "32366"
  },
  {
    "id": 55321,
    "name": "KOTA NEGARA TIMUR",
    "zip_code": "32366"
  },
  {
    "id": 55322,
    "name": "MARGO TANI",
    "zip_code": "32366"
  },
  {
    "id": 55323,
    "name": "MARGOTANI II",
    "zip_code": "32366"
  },
  {
    "id": 55324,
    "name": "PANDAN AGUNG",
    "zip_code": "32366"
  },
  {
    "id": 55325,
    "name": "PANDAN JAYA",
    "zip_code": "32366"
  },
  {
    "id": 55326,
    "name": "RASUAN BARU",
    "zip_code": "32366"
  },
  {
    "id": 55327,
    "name": "RIANG BANDUNG",
    "zip_code": "32366"
  },
  {
    "id": 55328,
    "name": "RIANG BANDUNG ILIR",
    "zip_code": "32366"
  },
  {
    "id": 55329,
    "name": "SRI KENCANA",
    "zip_code": "32366"
  },
  {
    "id": 55330,
    "name": "SRI MULYO",
    "zip_code": "32366"
  },
  {
    "id": 55331,
    "name": "SUKANEGARA",
    "zip_code": "32366"
  },
  {
    "id": 55332,
    "name": "TALANG GIRING",
    "zip_code": "32366"
  }
]