[
  {
    "id": 54320,
    "name": "CIPTA PRAJA",
    "zip_code": "30754"
  },
  {
    "id": 54321,
    "name": "DAWAS",
    "zip_code": "30754"
  },
  {
    "id": 54322,
    "name": "KARYA MAJU",
    "zip_code": "30754"
  },
  {
    "id": 54323,
    "name": "KELUANG",
    "zip_code": "30754"
  },
  {
    "id": 54324,
    "name": "LOKA JAYA (PELANCU INDAH)",
    "zip_code": "30754"
  },
  {
    "id": 54325,
    "name": "MEKAR JAYA",
    "zip_code": "30754"
  },
  {
    "id": 54326,
    "name": "MEKARSARI",
    "zip_code": "30754"
  },
  {
    "id": 54327,
    "name": "MULYO ASIH",
    "zip_code": "30754"
  },
  {
    "id": 54328,
    "name": "SIDO REJO",
    "zip_code": "30754"
  },
  {
    "id": 54329,
    "name": "SRIDAMAI",
    "zip_code": "30754"
  },
  {
    "id": 54330,
    "name": "SUMBER AGUNG",
    "zip_code": "30754"
  },
  {
    "id": 54331,
    "name": "TANJUNG DALAM",
    "zip_code": "30754"
  },
  {
    "id": 54332,
    "name": "TEGAL MULYA",
    "zip_code": "30754"
  },
  {
    "id": 54333,
    "name": "TENGGARO",
    "zip_code": "30754"
  }
]