[
  {
    "id": 65999,
    "name": "BALENREJO",
    "zip_code": "62182"
  },
  {
    "id": 66000,
    "name": "BULAKLO",
    "zip_code": "62182"
  },
  {
    "id": 66001,
    "name": "BULU",
    "zip_code": "62182"
  },
  {
    "id": 66002,
    "name": "KABUNAN",
    "zip_code": "62182"
  },
  {
    "id": 66003,
    "name": "KEDUNGBONDO",
    "zip_code": "62182"
  },
  {
    "id": 66004,
    "name": "KEDUNGDOWO",
    "zip_code": "62182"
  },
  {
    "id": 66005,
    "name": "KEMAMANG",
    "zip_code": "62182"
  },
  {
    "id": 66006,
    "name": "KENEP",
    "zip_code": "62182"
  },
  {
    "id": 66007,
    "name": "LENGKONG",
    "zip_code": "62182"
  },
  {
    "id": 66008,
    "name": "MARGOMULYO",
    "zip_code": "62168"
  },
  {
    "id": 66009,
    "name": "MAYANGKAWIS",
    "zip_code": "62182"
  },
  {
    "id": 66010,
    "name": "MULYOAGUNG",
    "zip_code": "62182"
  },
  {
    "id": 66011,
    "name": "MULYOREJO",
    "zip_code": "62182"
  },
  {
    "id": 66012,
    "name": "NGADILUHUR",
    "zip_code": "62182"
  },
  {
    "id": 66013,
    "name": "PENGANTEN",
    "zip_code": "62182"
  },
  {
    "id": 66014,
    "name": "PILANG GEDE",
    "zip_code": "62182"
  },
  {
    "id": 66015,
    "name": "POH BOGO",
    "zip_code": "62182"
  },
  {
    "id": 66016,
    "name": "PRAMBATAN",
    "zip_code": "62182"
  },
  {
    "id": 66017,
    "name": "SARIREJO",
    "zip_code": "62182"
  },
  {
    "id": 66018,
    "name": "SEKARAN",
    "zip_code": "62182"
  },
  {
    "id": 66019,
    "name": "SIDOBANDUNG",
    "zip_code": "62182"
  },
  {
    "id": 66020,
    "name": "SOBONTORO",
    "zip_code": "62182"
  },
  {
    "id": 66021,
    "name": "SUWALOH",
    "zip_code": "62182"
  }
]