[
  {
    "id": 74725,
    "name": "BANDAR DALAM",
    "zip_code": "34883"
  },
  {
    "id": 74726,
    "name": "KOTA JAWA",
    "zip_code": "34883"
  },
  {
    "id": 74727,
    "name": "PAGAR BUKIT",
    "zip_code": "34883"
  },
  {
    "id": 74728,
    "name": "PAGAR BUKIT INDUK",
    "zip_code": "34883"
  },
  {
    "id": 74729,
    "name": "PEMERIHAN",
    "zip_code": "34883"
  },
  {
    "id": 74730,
    "name": "PENYANDINGAN",
    "zip_code": "34883"
  },
  {
    "id": 74731,
    "name": "SIRING GADING",
    "zip_code": "34883"
  },
  {
    "id": 74732,
    "name": "SUKA MARGA",
    "zip_code": "34883"
  },
  {
    "id": 74733,
    "name": "SUKA NEGERI",
    "zip_code": "34883"
  },
  {
    "id": 74734,
    "name": "SUMBEREJO",
    "zip_code": "34883"
  },
  {
    "id": 74735,
    "name": "TANJUNG KEMALA",
    "zip_code": "34883"
  },
  {
    "id": 74736,
    "name": "TANJUNG REJO",
    "zip_code": "34883"
  },
  {
    "id": 74737,
    "name": "WAY HARU",
    "zip_code": "34883"
  },
  {
    "id": 74738,
    "name": "WAY TIAS",
    "zip_code": "34883"
  }
]