[
  {
    "id": 72089,
    "name": "BEJI",
    "zip_code": "66233"
  },
  {
    "id": 72090,
    "name": "BONO",
    "zip_code": "66235"
  },
  {
    "id": 72091,
    "name": "BOYOLANGU",
    "zip_code": "66235"
  },
  {
    "id": 72092,
    "name": "GEDANGSEWU",
    "zip_code": "66231"
  },
  {
    "id": 72093,
    "name": "KARANGREJO",
    "zip_code": "66235"
  },
  {
    "id": 72094,
    "name": "KENDALBULUR",
    "zip_code": "66235"
  },
  {
    "id": 72095,
    "name": "KEPUH",
    "zip_code": "66234"
  },
  {
    "id": 72096,
    "name": "MOYOKETEN",
    "zip_code": "66235"
  },
  {
    "id": 72097,
    "name": "NGRANTI",
    "zip_code": "66235"
  },
  {
    "id": 72098,
    "name": "PUCUNG KIDUL",
    "zip_code": "66235"
  },
  {
    "id": 72099,
    "name": "SANGGRAHAN",
    "zip_code": "66235"
  },
  {
    "id": 72100,
    "name": "SERUT",
    "zip_code": "66235"
  },
  {
    "id": 72101,
    "name": "SOBONTORO",
    "zip_code": "66232"
  },
  {
    "id": 72102,
    "name": "TANJUNGSARI",
    "zip_code": "66235"
  },
  {
    "id": 72103,
    "name": "WAJAK KIDUL",
    "zip_code": "66235"
  },
  {
    "id": 72104,
    "name": "WAJAK LOR",
    "zip_code": "66235"
  },
  {
    "id": 72105,
    "name": "WAUNG",
    "zip_code": "66235"
  }
]