[
  {
    "id": 27370,
    "name": "BAWO DOBARA",
    "zip_code": "22865"
  },
  {
    "id": 27371,
    "name": "BAWO LOWALANI",
    "zip_code": "22865"
  },
  {
    "id": 27372,
    "name": "BAWO NIFAOSO",
    "zip_code": "22865"
  },
  {
    "id": 27373,
    "name": "BAWO ZAUA",
    "zip_code": "22865"
  },
  {
    "id": 27374,
    "name": "GANOWO SAUA",
    "zip_code": "22865"
  },
  {
    "id": 27375,
    "name": "HILIALITO SAUA",
    "zip_code": "22865"
  },
  {
    "id": 27376,
    "name": "HILIAMURI",
    "zip_code": "22865"
  },
  {
    "id": 27377,
    "name": "HILIANA'A",
    "zip_code": "22865"
  },
  {
    "id": 27378,
    "name": "HILIFALAGO",
    "zip_code": "22865"
  },
  {
    "id": 27379,
    "name": "HILIFALAGO RAYA",
    "zip_code": "22865"
  },
  {
    "id": 27380,
    "name": "HILIFARONO",
    "zip_code": "22865"
  },
  {
    "id": 27381,
    "name": "HILIGANOWO",
    "zip_code": "22865"
  },
  {
    "id": 27382,
    "name": "HILIGANOWO SALO'O",
    "zip_code": "22865"
  },
  {
    "id": 27383,
    "name": "HILIGEHO",
    "zip_code": "22865"
  },
  {
    "id": 27384,
    "name": "HILIKARA",
    "zip_code": "22865"
  },
  {
    "id": 27385,
    "name": "HILILAZA",
    "zip_code": "22865"
  },
  {
    "id": 27386,
    "name": "HILIMONDREGERAYA",
    "zip_code": "22865"
  },
  {
    "id": 27387,
    "name": "HILINAMOZAUA",
    "zip_code": "22865"
  },
  {
    "id": 27388,
    "name": "HILINAMOZAUA RAYA",
    "zip_code": "22865"
  },
  {
    "id": 27389,
    "name": "HILIONAHA",
    "zip_code": "22865"
  },
  {
    "id": 27390,
    "name": "HILISANEKHEHOSI",
    "zip_code": "22865"
  },
  {
    "id": 27391,
    "name": "HILISAOOTONIHA",
    "zip_code": "22865"
  },
  {
    "id": 27392,
    "name": "HILISONDREKHA",
    "zip_code": "22865"
  },
  {
    "id": 27393,
    "name": "HILITOBARA",
    "zip_code": "22865"
  },
  {
    "id": 27394,
    "name": "NANOWA",
    "zip_code": "22865"
  },
  {
    "id": 27395,
    "name": "PASAR TELUK DALAM",
    "zip_code": "22865"
  }
]