[
  {
    "id": 6359,
    "name": "BUNIJAYA",
    "zip_code": "43266"
  },
  {
    "id": 6360,
    "name": "BUNIWANGI",
    "zip_code": "43266"
  },
  {
    "id": 6361,
    "name": "GELARANYAR",
    "zip_code": "43266"
  },
  {
    "id": 6362,
    "name": "KARANGHARJA",
    "zip_code": "43266"
  },
  {
    "id": 6363,
    "name": "KERTARAHARJA",
    "zip_code": "43266"
  },
  {
    "id": 6364,
    "name": "MEKARSARI",
    "zip_code": "43266"
  },
  {
    "id": 6365,
    "name": "PADAMAJU",
    "zip_code": "43266"
  },
  {
    "id": 6366,
    "name": "PAGELARAN",
    "zip_code": "43266"
  },
  {
    "id": 6367,
    "name": "PANGADEGAN",
    "zip_code": "43266"
  },
  {
    "id": 6368,
    "name": "PASIRBARU",
    "zip_code": "43266"
  },
  {
    "id": 6369,
    "name": "SELAGEDANG",
    "zip_code": "43266"
  },
  {
    "id": 6370,
    "name": "SINDANGKERTA",
    "zip_code": "43266"
  },
  {
    "id": 6371,
    "name": "SITUHIANG",
    "zip_code": "43266"
  },
  {
    "id": 6372,
    "name": "SUKAMAJU",
    "zip_code": "43266"
  }
]