[
  {
    "id": 27417,
    "name": "AWONI",
    "zip_code": "22873"
  },
  {
    "id": 27418,
    "name": "BALOMBARUZO ORAHUA",
    "zip_code": "22873"
  },
  {
    "id": 27419,
    "name": "BUHAWA",
    "zip_code": "22873"
  },
  {
    "id": 27420,
    "name": "DAMAI",
    "zip_code": "22873"
  },
  {
    "id": 27421,
    "name": "DAO-DAO ZANUWO IDANO TAE",
    "zip_code": "22873"
  },
  {
    "id": 27422,
    "name": "DOLI-DOLI IDANO TAE",
    "zip_code": "22873"
  },
  {
    "id": 27423,
    "name": "FANEDANU SIBOHOU",
    "zip_code": "22873"
  },
  {
    "id": 27424,
    "name": "FONEDANU",
    "zip_code": "22873"
  },
  {
    "id": 27425,
    "name": "GUNUNGGABUNGAN",
    "zip_code": "22873"
  },
  {
    "id": 27426,
    "name": "HAREFA ORAHUA",
    "zip_code": "22873"
  },
  {
    "id": 27427,
    "name": "HILIALO'OA",
    "zip_code": "22873"
  },
  {
    "id": 27428,
    "name": "HILIANAA GOMO",
    "zip_code": "22873"
  },
  {
    "id": 27429,
    "name": "HILIGABUNGAN",
    "zip_code": "22873"
  },
  {
    "id": 27430,
    "name": "HILIMBOWO IDANO TAE",
    "zip_code": "22873"
  },
  {
    "id": 27431,
    "name": "HILISALO'O",
    "zip_code": "22873"
  },
  {
    "id": 27432,
    "name": "HILISERANGKAI",
    "zip_code": "22873"
  },
  {
    "id": 27433,
    "name": "LAHUSA IDANO TAE",
    "zip_code": "22873"
  },
  {
    "id": 27434,
    "name": "LAWA-LAWALUO GOMO",
    "zip_code": "22873"
  },
  {
    "id": 27435,
    "name": "LAWA-LAWALUO IDANO TAE",
    "zip_code": "22873"
  },
  {
    "id": 27436,
    "name": "LOLOSONI",
    "zip_code": "22873"
  },
  {
    "id": 27437,
    "name": "ORAHILI GOMO",
    "zip_code": "22873"
  },
  {
    "id": 27438,
    "name": "ORAHILI SIBOHOU",
    "zip_code": "22873"
  },
  {
    "id": 27439,
    "name": "ORAHUA",
    "zip_code": "22873"
  },
  {
    "id": 27440,
    "name": "SIFAOROASI GOMO",
    "zip_code": "22873"
  },
  {
    "id": 27441,
    "name": "SIRAHIA",
    "zip_code": "22873"
  },
  {
    "id": 27442,
    "name": "SISARAHILI EWO",
    "zip_code": "22873"
  },
  {
    "id": 27443,
    "name": "SISIWA EWALI",
    "zip_code": "22873"
  },
  {
    "id": 27444,
    "name": "SUKA MAJU MOHILI",
    "zip_code": "22873"
  },
  {
    "id": 27445,
    "name": "TANONIKO'O",
    "zip_code": "22873"
  },
  {
    "id": 27446,
    "name": "UMBU IDANO TAE",
    "zip_code": "22873"
  },
  {
    "id": 27447,
    "name": "UMBU ORAHUA",
    "zip_code": "22873"
  }
]