[
  {
    "id": 42782,
    "name": "AJIBUHARA",
    "zip_code": "22171"
  },
  {
    "id": 42783,
    "name": "AJIJAHE",
    "zip_code": "22171"
  },
  {
    "id": 42784,
    "name": "AJIJULU",
    "zip_code": "22171"
  },
  {
    "id": 42785,
    "name": "AJIMBELANG",
    "zip_code": "22171"
  },
  {
    "id": 42786,
    "name": "BERTAH",
    "zip_code": "22171"
  },
  {
    "id": 42787,
    "name": "BUNURAYA",
    "zip_code": "22171"
  },
  {
    "id": 42788,
    "name": "KACINAMBUN",
    "zip_code": "22171"
  },
  {
    "id": 42789,
    "name": "KUBU SIMBELANG",
    "zip_code": "22171"
  },
  {
    "id": 42790,
    "name": "KUTA BALE",
    "zip_code": "22171"
  },
  {
    "id": 42791,
    "name": "KUTA KEPAR",
    "zip_code": "22171"
  },
  {
    "id": 42792,
    "name": "KUTA MBELIN",
    "zip_code": "22171"
  },
  {
    "id": 42793,
    "name": "KUTAJULU",
    "zip_code": "22171"
  },
  {
    "id": 42794,
    "name": "LAMBAR",
    "zip_code": "22171"
  },
  {
    "id": 42795,
    "name": "LAU RIMAN",
    "zip_code": "22171"
  },
  {
    "id": 42796,
    "name": "LEPAR SAMURA",
    "zip_code": "22171"
  },
  {
    "id": 42797,
    "name": "MANUK MULIA",
    "zip_code": "22171"
  },
  {
    "id": 42798,
    "name": "MULAWARI",
    "zip_code": "22171"
  },
  {
    "id": 42799,
    "name": "SALIT",
    "zip_code": "22171"
  },
  {
    "id": 42800,
    "name": "SEBERAYA",
    "zip_code": "22171"
  },
  {
    "id": 42801,
    "name": "SINGA",
    "zip_code": "22171"
  },
  {
    "id": 42802,
    "name": "SUKA",
    "zip_code": "22171"
  },
  {
    "id": 42803,
    "name": "SUKA MBAYAK",
    "zip_code": "22171"
  },
  {
    "id": 42804,
    "name": "SUKADAME",
    "zip_code": "22171"
  },
  {
    "id": 42805,
    "name": "SUKAMAJU",
    "zip_code": "22171"
  },
  {
    "id": 42806,
    "name": "SUKAPILIHEN",
    "zip_code": "22171"
  },
  {
    "id": 42807,
    "name": "TIGAPANAH",
    "zip_code": "22171"
  }
]