[
  {
    "id": 46294,
    "name": "CATAK GAYAM",
    "zip_code": "61475"
  },
  {
    "id": 46295,
    "name": "GEDANGAN",
    "zip_code": "61475"
  },
  {
    "id": 46296,
    "name": "GONDEK",
    "zip_code": "61475"
  },
  {
    "id": 46297,
    "name": "GROBOGAN",
    "zip_code": "61475"
  },
  {
    "id": 46298,
    "name": "JAPANAN",
    "zip_code": "61475"
  },
  {
    "id": 46299,
    "name": "KARANGLO",
    "zip_code": "61475"
  },
  {
    "id": 46300,
    "name": "KEDUNGPARI",
    "zip_code": "61475"
  },
  {
    "id": 46301,
    "name": "LATSARI",
    "zip_code": "61475"
  },
  {
    "id": 46302,
    "name": "MENGANTO",
    "zip_code": "61475"
  },
  {
    "id": 46303,
    "name": "MOJODUWUR",
    "zip_code": "61475"
  },
  {
    "id": 46304,
    "name": "MOJOJEJER",
    "zip_code": "61475"
  },
  {
    "id": 46305,
    "name": "MOJOWANGI",
    "zip_code": "61475"
  },
  {
    "id": 46306,
    "name": "MOJOWARNO",
    "zip_code": "61475"
  },
  {
    "id": 46307,
    "name": "PENGGARON",
    "zip_code": "61475"
  },
  {
    "id": 46308,
    "name": "REJOSLAMET",
    "zip_code": "61475"
  },
  {
    "id": 46309,
    "name": "SELOREJO",
    "zip_code": "61475"
  },
  {
    "id": 46310,
    "name": "SIDOKERTO",
    "zip_code": "61475"
  },
  {
    "id": 46311,
    "name": "SUKOMULYO",
    "zip_code": "61475"
  },
  {
    "id": 46312,
    "name": "WRINGINPITU",
    "zip_code": "61475"
  }
]