[
  {
    "id": 65498,
    "name": "BAWANG",
    "zip_code": "51255"
  },
  {
    "id": 65499,
    "name": "BESANI",
    "zip_code": "51255"
  },
  {
    "id": 65500,
    "name": "BISMO",
    "zip_code": "51255"
  },
  {
    "id": 65501,
    "name": "BLADO",
    "zip_code": "51255"
  },
  {
    "id": 65502,
    "name": "COKRO",
    "zip_code": "51255"
  },
  {
    "id": 65503,
    "name": "GERLANG",
    "zip_code": "51255"
  },
  {
    "id": 65504,
    "name": "GONDANG",
    "zip_code": "51255"
  },
  {
    "id": 65505,
    "name": "KALIPANCUR",
    "zip_code": "51255"
  },
  {
    "id": 65506,
    "name": "KALISARI",
    "zip_code": "51255"
  },
  {
    "id": 65507,
    "name": "KALITENGAH",
    "zip_code": "51255"
  },
  {
    "id": 65508,
    "name": "KAMBANGAN (KEMBANGAN)",
    "zip_code": "51255"
  },
  {
    "id": 65509,
    "name": "KEMBANGLANGIT",
    "zip_code": "51255"
  },
  {
    "id": 65510,
    "name": "KEPUTON",
    "zip_code": "51255"
  },
  {
    "id": 65511,
    "name": "KETELENG",
    "zip_code": "51255"
  },
  {
    "id": 65512,
    "name": "PESANTREN",
    "zip_code": "51255"
  },
  {
    "id": 65513,
    "name": "SELOPAJANG BARAT",
    "zip_code": "51255"
  },
  {
    "id": 65514,
    "name": "SELOPAJANG TIMUR",
    "zip_code": "51255"
  },
  {
    "id": 65515,
    "name": "WONOBODRO",
    "zip_code": "51255"
  },
  {
    "id": 65516,
    "name": "WONOROJO",
    "zip_code": "51255"
  }
]