[
  {
    "id": 74039,
    "name": "AGOM",
    "zip_code": "35551"
  },
  {
    "id": 74040,
    "name": "BABULANG",
    "zip_code": "35551"
  },
  {
    "id": 74041,
    "name": "BUAH BERAK",
    "zip_code": "35551"
  },
  {
    "id": 74042,
    "name": "BULOK",
    "zip_code": "35551"
  },
  {
    "id": 74043,
    "name": "BUMI AGUNG",
    "zip_code": "35551"
  },
  {
    "id": 74044,
    "name": "CANGGU",
    "zip_code": "35551"
  },
  {
    "id": 74045,
    "name": "GUNUNG TERANG",
    "zip_code": "35551"
  },
  {
    "id": 74046,
    "name": "HARA BANJAR MANIS",
    "zip_code": "35551"
  },
  {
    "id": 74047,
    "name": "JONDONG",
    "zip_code": "35551"
  },
  {
    "id": 74048,
    "name": "KALIANDA",
    "zip_code": "35551"
  },
  {
    "id": 74049,
    "name": "KECAPI",
    "zip_code": "35551"
  },
  {
    "id": 74050,
    "name": "KEDATON",
    "zip_code": "35551"
  },
  {
    "id": 74051,
    "name": "KESUGIHAN",
    "zip_code": "35551"
  },
  {
    "id": 74052,
    "name": "MAJA",
    "zip_code": "35551"
  },
  {
    "id": 74053,
    "name": "MARGA CATUR",
    "zip_code": "35551"
  },
  {
    "id": 74054,
    "name": "MERAK BELANTUNG",
    "zip_code": "35551"
  },
  {
    "id": 74055,
    "name": "MUNJUK SEMPURNA",
    "zip_code": "35551"
  },
  {
    "id": 74056,
    "name": "NEGERI PANDAN",
    "zip_code": "35551"
  },
  {
    "id": 74057,
    "name": "PALEMBAPANG",
    "zip_code": "35551"
  },
  {
    "id": 74058,
    "name": "PAUH TANJUNG IMAN",
    "zip_code": "35551"
  },
  {
    "id": 74059,
    "name": "PEMATANG",
    "zip_code": "35551"
  },
  {
    "id": 74060,
    "name": "SUKA TANI",
    "zip_code": "35551"
  },
  {
    "id": 74061,
    "name": "SUKARATU",
    "zip_code": "35551"
  },
  {
    "id": 74062,
    "name": "SUMURKUMBANG",
    "zip_code": "35551"
  },
  {
    "id": 74063,
    "name": "TAJIMALELA",
    "zip_code": "35551"
  },
  {
    "id": 74064,
    "name": "TAMAN AGUNG",
    "zip_code": "35551"
  },
  {
    "id": 74065,
    "name": "TENGKUJUH",
    "zip_code": "35551"
  },
  {
    "id": 74066,
    "name": "WAI LUBUK",
    "zip_code": "35551"
  },
  {
    "id": 74067,
    "name": "WAYURANG",
    "zip_code": "35551"
  }
]