[
  {
    "id": 46039,
    "name": "BALONGMOJO",
    "zip_code": "61363"
  },
  {
    "id": 46040,
    "name": "BANJARAGUNG",
    "zip_code": "61363"
  },
  {
    "id": 46041,
    "name": "BRAYUNG",
    "zip_code": "61363"
  },
  {
    "id": 46042,
    "name": "KEBONAGUNG",
    "zip_code": "61363"
  },
  {
    "id": 46043,
    "name": "KENANTEN",
    "zip_code": "61363"
  },
  {
    "id": 46044,
    "name": "KETEMASDUNGUS",
    "zip_code": "61363"
  },
  {
    "id": 46045,
    "name": "KINTELAN",
    "zip_code": "61363"
  },
  {
    "id": 46046,
    "name": "MEDALI",
    "zip_code": "61363"
  },
  {
    "id": 46047,
    "name": "MLATEN",
    "zip_code": "61363"
  },
  {
    "id": 46048,
    "name": "PLOSOSARI",
    "zip_code": "61363"
  },
  {
    "id": 46049,
    "name": "PURI",
    "zip_code": "61363"
  },
  {
    "id": 46050,
    "name": "SUMBERGIRANG",
    "zip_code": "61363"
  },
  {
    "id": 46051,
    "name": "SUMOLAWANG",
    "zip_code": "61363"
  },
  {
    "id": 46052,
    "name": "TAMBAKAGUNG",
    "zip_code": "61363"
  },
  {
    "id": 46053,
    "name": "TAMPUNGREJO",
    "zip_code": "61363"
  },
  {
    "id": 46054,
    "name": "TANGUNAN",
    "zip_code": "61363"
  }
]