[
  {
    "id": 79144,
    "name": "BAJI MAPPAKASUNGGU",
    "zip_code": "90131"
  },
  {
    "id": 79145,
    "name": "BONTO BIRAENG",
    "zip_code": "90132"
  },
  {
    "id": 79146,
    "name": "BONTO LEBANG",
    "zip_code": "90133"
  },
  {
    "id": 79147,
    "name": "KARANG ANYAR",
    "zip_code": "90134"
  },
  {
    "id": 79148,
    "name": "LABUANG BAJI",
    "zip_code": "90132"
  },
  {
    "id": 79149,
    "name": "MAMAJANG DALAM",
    "zip_code": "90135"
  },
  {
    "id": 79150,
    "name": "MAMAJANG LUAR",
    "zip_code": "90132"
  },
  {
    "id": 79151,
    "name": "MANDALA",
    "zip_code": "90135"
  },
  {
    "id": 79152,
    "name": "MARICAYA SELATAN",
    "zip_code": "90131"
  },
  {
    "id": 79153,
    "name": "PA BATANG",
    "zip_code": "90131"
  },
  {
    "id": 79154,
    "name": "PARANG",
    "zip_code": "90133"
  },
  {
    "id": 79155,
    "name": "SAMBUNG JAWA",
    "zip_code": "90134"
  },
  {
    "id": 79156,
    "name": "TAMPARANG KEKE",
    "zip_code": "90134"
  }
]