[
  {
    "id": 41721,
    "name": "AEK PANCUR",
    "zip_code": "20362"
  },
  {
    "id": 41722,
    "name": "BANDAR LABUHAN",
    "zip_code": "20362"
  },
  {
    "id": 41723,
    "name": "BANGUN REJO",
    "zip_code": "20362"
  },
  {
    "id": 41724,
    "name": "BANGUN SARI BARU",
    "zip_code": "20362"
  },
  {
    "id": 41725,
    "name": "BUNTU BADIMBAR (BEDIMBAR)",
    "zip_code": "20362"
  },
  {
    "id": 41726,
    "name": "DAGANG KELAMBIR",
    "zip_code": "20362"
  },
  {
    "id": 41727,
    "name": "DAGANG KRAWAN (KERAWAN)",
    "zip_code": "20362"
  },
  {
    "id": 41728,
    "name": "DALU X A (DALU SEPULUH A)",
    "zip_code": "20362"
  },
  {
    "id": 41729,
    "name": "DALU X B (DALU SEPULUH B)",
    "zip_code": "20362"
  },
  {
    "id": 41730,
    "name": "LENGAU SERPANG",
    "zip_code": "20362"
  },
  {
    "id": 41731,
    "name": "LIMAU MANIS",
    "zip_code": "20362"
  },
  {
    "id": 41732,
    "name": "MEDAN SINEMBAH",
    "zip_code": "20362"
  },
  {
    "id": 41733,
    "name": "NAGA TIMBUL",
    "zip_code": "20362"
  },
  {
    "id": 41734,
    "name": "PEKAN TANJUNG MORAWA",
    "zip_code": "20362"
  },
  {
    "id": 41735,
    "name": "PENARA KEBON/KEBUN",
    "zip_code": "20362"
  },
  {
    "id": 41736,
    "name": "PERDAMEAN (PERDAMAIAN)",
    "zip_code": "20362"
  },
  {
    "id": 41737,
    "name": "PUNDEN REJO",
    "zip_code": "20362"
  },
  {
    "id": 41738,
    "name": "SEI/SUNGAI MERAH",
    "zip_code": "20362"
  },
  {
    "id": 41739,
    "name": "TANJUNG BARU",
    "zip_code": "20362"
  },
  {
    "id": 41740,
    "name": "TANJUNG MORAWA A",
    "zip_code": "20362"
  },
  {
    "id": 41741,
    "name": "TANJUNG MORAWA B",
    "zip_code": "20362"
  },
  {
    "id": 41742,
    "name": "TELAGA SARI",
    "zip_code": "20362"
  },
  {
    "id": 41743,
    "name": "UJUNG SERDANG",
    "zip_code": "20362"
  },
  {
    "id": 41744,
    "name": "WONO SARI",
    "zip_code": "20362"
  },
  {
    "id": 43350,
    "name": "TANJUNG MULIA",
    "zip_code": "20362"
  },
  {
    "id": 43369,
    "name": "BANGUN SARI",
    "zip_code": "20362"
  }
]