[
  {
    "id": 68577,
    "name": "BINANGUN",
    "zip_code": "53352"
  },
  {
    "id": 68578,
    "name": "BOJONG",
    "zip_code": "53352"
  },
  {
    "id": 68579,
    "name": "CAMPAKOAH",
    "zip_code": "53352"
  },
  {
    "id": 68580,
    "name": "CIPAKU",
    "zip_code": "53352"
  },
  {
    "id": 68581,
    "name": "KARANG NANGKA",
    "zip_code": "53352"
  },
  {
    "id": 68582,
    "name": "KARANGTURI",
    "zip_code": "53352"
  },
  {
    "id": 68583,
    "name": "KRADENAN",
    "zip_code": "53352"
  },
  {
    "id": 68584,
    "name": "LAMBUR",
    "zip_code": "53352"
  },
  {
    "id": 68585,
    "name": "MANGUNEGARA",
    "zip_code": "53352"
  },
  {
    "id": 68586,
    "name": "MREBET",
    "zip_code": "53352"
  },
  {
    "id": 68587,
    "name": "ONJE",
    "zip_code": "53352"
  },
  {
    "id": 68588,
    "name": "PAGER ANDONG",
    "zip_code": "53352"
  },
  {
    "id": 68589,
    "name": "PENGALUSAN",
    "zip_code": "53352"
  },
  {
    "id": 68590,
    "name": "SANGKANAYU",
    "zip_code": "53352"
  },
  {
    "id": 68591,
    "name": "SELAGANGGENG",
    "zip_code": "53352"
  },
  {
    "id": 68592,
    "name": "SERAYU KARANGANYAR",
    "zip_code": "53352"
  },
  {
    "id": 68593,
    "name": "SERAYU LARANGAN",
    "zip_code": "53352"
  },
  {
    "id": 68594,
    "name": "SINDANG",
    "zip_code": "53352"
  },
  {
    "id": 68595,
    "name": "TANGKISAN",
    "zip_code": "53352"
  }
]