[
  {
    "id": 6247,
    "name": "CIGUNUNGHERANG",
    "zip_code": "43291"
  },
  {
    "id": 6248,
    "name": "CIJAGANG",
    "zip_code": "43291"
  },
  {
    "id": 6249,
    "name": "CINANGSI",
    "zip_code": "43291"
  },
  {
    "id": 6250,
    "name": "CIRAMA GIRANG",
    "zip_code": "43291"
  },
  {
    "id": 6251,
    "name": "GUDANG",
    "zip_code": "43291"
  },
  {
    "id": 6252,
    "name": "KAMURANG",
    "zip_code": "43291"
  },
  {
    "id": 6253,
    "name": "LEMBAHSARI",
    "zip_code": "43291"
  },
  {
    "id": 6254,
    "name": "MAJALAYA",
    "zip_code": "43291"
  },
  {
    "id": 6255,
    "name": "MEKAR MULYA",
    "zip_code": "43291"
  },
  {
    "id": 6256,
    "name": "MEKAR SARI",
    "zip_code": "43291"
  },
  {
    "id": 6257,
    "name": "MEKARGALIH",
    "zip_code": "43291"
  },
  {
    "id": 6258,
    "name": "MEKARJAYA",
    "zip_code": "43291"
  },
  {
    "id": 6259,
    "name": "MENTENGSARI",
    "zip_code": "43291"
  },
  {
    "id": 6260,
    "name": "NEGLASARI",
    "zip_code": "43291"
  },
  {
    "id": 6261,
    "name": "PADAJAYA",
    "zip_code": "43291"
  },
  {
    "id": 6262,
    "name": "SUKAGALIH",
    "zip_code": "43291"
  },
  {
    "id": 6263,
    "name": "SUKAMULYA",
    "zip_code": "43291"
  },
  {
    "id": 6264,
    "name": "WARUDOYONG",
    "zip_code": "43291"
  }
]