[
  {
    "id": 19531,
    "name": "AIR LAGO",
    "zip_code": "37371"
  },
  {
    "id": 19532,
    "name": "BADAK TEKURUNG",
    "zip_code": "37371"
  },
  {
    "id": 19533,
    "name": "DURIAN RAMBUN",
    "zip_code": "37371"
  },
  {
    "id": 19534,
    "name": "LUBUK BERINGIN",
    "zip_code": "37371"
  },
  {
    "id": 19535,
    "name": "LUBUK BIRAH",
    "zip_code": "37371"
  },
  {
    "id": 19536,
    "name": "MUARA SIAU",
    "zip_code": "37371"
  },
  {
    "id": 19537,
    "name": "PASAR MUARA SIAU",
    "zip_code": "37371"
  },
  {
    "id": 19538,
    "name": "PERADUN TEMERAS",
    "zip_code": "37371"
  },
  {
    "id": 19539,
    "name": "PULAU RAMAN",
    "zip_code": "37371"
  },
  {
    "id": 19540,
    "name": "RANTAU BAYUR",
    "zip_code": "37371"
  },
  {
    "id": 19541,
    "name": "RANTAU BIDARO (RANTAI BEDARO)",
    "zip_code": "37371"
  },
  {
    "id": 19542,
    "name": "RANTAU MACANG",
    "zip_code": "37371"
  },
  {
    "id": 19543,
    "name": "RANTAU PANJANG",
    "zip_code": "37371"
  },
  {
    "id": 19544,
    "name": "SEPANTAI RENAH",
    "zip_code": "37371"
  },
  {
    "id": 19545,
    "name": "SUNGAI ULAS",
    "zip_code": "37371"
  },
  {
    "id": 19546,
    "name": "TELUK SIKUMBANG",
    "zip_code": "37371"
  },
  {
    "id": 19547,
    "name": "TIARO",
    "zip_code": "37371"
  }
]