[
  {
    "id": 27993,
    "name": "BOTTOT",
    "zip_code": "22563"
  },
  {
    "id": 27994,
    "name": "DOLOK PANTIS",
    "zip_code": "22563"
  },
  {
    "id": 27995,
    "name": "FAJAR",
    "zip_code": "22563"
  },
  {
    "id": 27996,
    "name": "GONTING MAHE",
    "zip_code": "22563"
  },
  {
    "id": 27997,
    "name": "HITE URAT",
    "zip_code": "22563"
  },
  {
    "id": 27998,
    "name": "MUARA NAULI",
    "zip_code": "22563"
  },
  {
    "id": 27999,
    "name": "NAIPOSPOS BARAT",
    "zip_code": "22563"
  },
  {
    "id": 28000,
    "name": "NAULI",
    "zip_code": "22563"
  },
  {
    "id": 28001,
    "name": "PAGARAN JULU",
    "zip_code": "22563"
  },
  {
    "id": 28002,
    "name": "PANANGGAHAN",
    "zip_code": "22563"
  },
  {
    "id": 28003,
    "name": "PARDAMEAN",
    "zip_code": "22563"
  },
  {
    "id": 28004,
    "name": "PARGARUTAN",
    "zip_code": "22563"
  },
  {
    "id": 28005,
    "name": "PEA RAJA",
    "zip_code": "22563"
  },
  {
    "id": 28006,
    "name": "PELITA",
    "zip_code": "22563"
  },
  {
    "id": 28007,
    "name": "RIANIATE",
    "zip_code": "22563"
  },
  {
    "id": 28008,
    "name": "SIHAPAS",
    "zip_code": "22563"
  },
  {
    "id": 28009,
    "name": "SORKAM",
    "zip_code": "22563"
  },
  {
    "id": 28010,
    "name": "SORKAM KIRI",
    "zip_code": "22563"
  },
  {
    "id": 28011,
    "name": "SORKAM TENGAH",
    "zip_code": "22563"
  },
  {
    "id": 28012,
    "name": "TARUTUNG BOLAK",
    "zip_code": "22563"
  },
  {
    "id": 28013,
    "name": "TELUK ROBAN",
    "zip_code": "22563"
  }
]