[
  {
    "id": 45807,
    "name": "BANGSAL",
    "zip_code": "61381"
  },
  {
    "id": 45808,
    "name": "GAYAM",
    "zip_code": "61381"
  },
  {
    "id": 45809,
    "name": "KEDUNGUNENG",
    "zip_code": "61381"
  },
  {
    "id": 45810,
    "name": "KUTOPORONG",
    "zip_code": "61381"
  },
  {
    "id": 45811,
    "name": "MEJOYO",
    "zip_code": "61381"
  },
  {
    "id": 45812,
    "name": "MOJOTAMPING",
    "zip_code": "61381"
  },
  {
    "id": 45813,
    "name": "NGASTEMI",
    "zip_code": "61381"
  },
  {
    "id": 45814,
    "name": "NGROWO",
    "zip_code": "61381"
  },
  {
    "id": 45815,
    "name": "PACING",
    "zip_code": "61381"
  },
  {
    "id": 45816,
    "name": "PEKUWON",
    "zip_code": "61381"
  },
  {
    "id": 45817,
    "name": "PETERONGAN",
    "zip_code": "61381"
  },
  {
    "id": 45818,
    "name": "PULONITI",
    "zip_code": "61381"
  },
  {
    "id": 45819,
    "name": "SALEN",
    "zip_code": "61381"
  },
  {
    "id": 45820,
    "name": "SIDOMULYO",
    "zip_code": "61381"
  },
  {
    "id": 45821,
    "name": "SUMBERTEBU",
    "zip_code": "61381"
  },
  {
    "id": 45822,
    "name": "SUMBERWONO",
    "zip_code": "61381"
  },
  {
    "id": 45823,
    "name": "TINGGARBUNTUT",
    "zip_code": "61381"
  }
]