[
  {
    "id": 82449,
    "name": "BENTENG",
    "zip_code": "92953"
  },
  {
    "id": 82450,
    "name": "GIRIKUSUMA",
    "zip_code": "92953"
  },
  {
    "id": 82451,
    "name": "LADONGI",
    "zip_code": "92953"
  },
  {
    "id": 82452,
    "name": "MALANGKE",
    "zip_code": "92953"
  },
  {
    "id": 82453,
    "name": "PATTIMANG",
    "zip_code": "92953"
  },
  {
    "id": 82454,
    "name": "PETTA LANDUNG",
    "zip_code": "92953"
  },
  {
    "id": 82455,
    "name": "PINCE PUTE",
    "zip_code": "92953"
  },
  {
    "id": 82456,
    "name": "PUTE MATA",
    "zip_code": "92953"
  },
  {
    "id": 82457,
    "name": "SALEKOE",
    "zip_code": "92953"
  },
  {
    "id": 82458,
    "name": "TAKKALALA",
    "zip_code": "92953"
  },
  {
    "id": 82459,
    "name": "TANDUNG",
    "zip_code": "92953"
  },
  {
    "id": 82460,
    "name": "TINGKARA (TINGKARAN)",
    "zip_code": "92953"
  },
  {
    "id": 82461,
    "name": "TO LADA",
    "zip_code": "92953"
  },
  {
    "id": 82462,
    "name": "TOKKE",
    "zip_code": "92953"
  }
]