[
  {
    "id": 69521,
    "name": "BABAKBAWO",
    "zip_code": "61155"
  },
  {
    "id": 69522,
    "name": "BABAKSARI",
    "zip_code": "61155"
  },
  {
    "id": 69523,
    "name": "BANGERAN",
    "zip_code": "61155"
  },
  {
    "id": 69524,
    "name": "BARON",
    "zip_code": "61155"
  },
  {
    "id": 69525,
    "name": "BULANGAN",
    "zip_code": "61155"
  },
  {
    "id": 69526,
    "name": "DUKUH KEMBAR",
    "zip_code": "61155"
  },
  {
    "id": 69527,
    "name": "DUKUNANYAR",
    "zip_code": "61155"
  },
  {
    "id": 69528,
    "name": "GEDONGKEDOAN",
    "zip_code": "61155"
  },
  {
    "id": 69529,
    "name": "IMAAN",
    "zip_code": "61155"
  },
  {
    "id": 69530,
    "name": "JREBENG",
    "zip_code": "61155"
  },
  {
    "id": 69531,
    "name": "KALIREJO",
    "zip_code": "61155"
  },
  {
    "id": 69532,
    "name": "KARANGCANGKRING",
    "zip_code": "61155"
  },
  {
    "id": 69533,
    "name": "LOWAYU",
    "zip_code": "61155"
  },
  {
    "id": 69534,
    "name": "MADUMULYOREJO",
    "zip_code": "61155"
  },
  {
    "id": 69535,
    "name": "MENTARAS",
    "zip_code": "61155"
  },
  {
    "id": 69536,
    "name": "MOJOPETUNG",
    "zip_code": "61155"
  },
  {
    "id": 69537,
    "name": "PADANG BANDUNG",
    "zip_code": "61155"
  },
  {
    "id": 69538,
    "name": "PETIYIN TUNGGAL",
    "zip_code": "61155"
  },
  {
    "id": 69539,
    "name": "SAMBOGUNUNG",
    "zip_code": "61155"
  },
  {
    "id": 69540,
    "name": "SAWO",
    "zip_code": "61155"
  },
  {
    "id": 69541,
    "name": "SEKARGADUNG",
    "zip_code": "61155"
  },
  {
    "id": 69542,
    "name": "SEMBUNG ANYAR",
    "zip_code": "61155"
  },
  {
    "id": 69543,
    "name": "SEMBUNGAN KIDUL",
    "zip_code": "61155"
  },
  {
    "id": 69544,
    "name": "TEBUWUNG",
    "zip_code": "61155"
  },
  {
    "id": 69545,
    "name": "TIREMENGGAL",
    "zip_code": "61155"
  },
  {
    "id": 69546,
    "name": "WONOKERTO",
    "zip_code": "61155"
  }
]