[
  {
    "id": 28443,
    "name": "AEK TANGGA",
    "zip_code": "22473"
  },
  {
    "id": 28444,
    "name": "GAROGA SIBARGOT",
    "zip_code": "22473"
  },
  {
    "id": 28445,
    "name": "GONTING GAROGA",
    "zip_code": "22473"
  },
  {
    "id": 28446,
    "name": "GONTING SALAK",
    "zip_code": "22473"
  },
  {
    "id": 28447,
    "name": "LONTUNG JAE I",
    "zip_code": "22473"
  },
  {
    "id": 28448,
    "name": "LONTUNG JAE II",
    "zip_code": "22473"
  },
  {
    "id": 28449,
    "name": "PADANG SIANDOMANG",
    "zip_code": "22473"
  },
  {
    "id": 28450,
    "name": "PARINSORAN PANGORIAN",
    "zip_code": "22473"
  },
  {
    "id": 28451,
    "name": "PARMANUHAN",
    "zip_code": "22473"
  },
  {
    "id": 28452,
    "name": "PARSOSORAN",
    "zip_code": "22473"
  },
  {
    "id": 28453,
    "name": "SIBAGANDING",
    "zip_code": "22473"
  },
  {
    "id": 28454,
    "name": "SIBALANGA",
    "zip_code": "22473"
  },
  {
    "id": 28455,
    "name": "SIMPANG BOLON",
    "zip_code": "22473"
  }
]