[
  {
    "id": 44177,
    "name": "AMPELSARI",
    "zip_code": "54382"
  },
  {
    "id": 44178,
    "name": "BANJARWINANGUN",
    "zip_code": "54382"
  },
  {
    "id": 44179,
    "name": "GROGOLBENINGSARI",
    "zip_code": "54382"
  },
  {
    "id": 44180,
    "name": "GROGOLPENATUS",
    "zip_code": "54382"
  },
  {
    "id": 44181,
    "name": "GRUJUGAN",
    "zip_code": "54382"
  },
  {
    "id": 44182,
    "name": "JAGAMERTAN",
    "zip_code": "54382"
  },
  {
    "id": 44183,
    "name": "JATIMULYO",
    "zip_code": "54382"
  },
  {
    "id": 44184,
    "name": "KARANGDUWUR",
    "zip_code": "54382"
  },
  {
    "id": 44185,
    "name": "KARANGGADUNG",
    "zip_code": "54382"
  },
  {
    "id": 44186,
    "name": "KARANGREJO",
    "zip_code": "54382"
  },
  {
    "id": 44187,
    "name": "KEBONSARI",
    "zip_code": "54382"
  },
  {
    "id": 44188,
    "name": "KRITIG",
    "zip_code": "54382"
  },
  {
    "id": 44189,
    "name": "KUWANGUNAN",
    "zip_code": "54382"
  },
  {
    "id": 44190,
    "name": "MUNGGU",
    "zip_code": "54382"
  },
  {
    "id": 44191,
    "name": "NAMPUDADI",
    "zip_code": "54382"
  },
  {
    "id": 44192,
    "name": "PETANAHAN",
    "zip_code": "54382"
  },
  {
    "id": 44193,
    "name": "PODOURIP",
    "zip_code": "54382"
  },
  {
    "id": 44194,
    "name": "SIDOMULYO",
    "zip_code": "54382"
  },
  {
    "id": 44195,
    "name": "TANJUNGSARI",
    "zip_code": "54382"
  },
  {
    "id": 44196,
    "name": "TEGALRETNO",
    "zip_code": "54382"
  },
  {
    "id": 44197,
    "name": "TRESNOREJO",
    "zip_code": "54382"
  }
]