[
  {
    "id": 56704,
    "name": "GUAMONIAL",
    "zip_code": "94565"
  },
  {
    "id": 56705,
    "name": "LAMADONG I",
    "zip_code": "94565"
  },
  {
    "id": 56706,
    "name": "LAMADONG II",
    "zip_code": "94565"
  },
  {
    "id": 56707,
    "name": "MANGUBI",
    "zip_code": "94565"
  },
  {
    "id": 56708,
    "name": "MOMUNU",
    "zip_code": "94565"
  },
  {
    "id": 56709,
    "name": "PAJEKO",
    "zip_code": "94565"
  },
  {
    "id": 56710,
    "name": "PANIMBUL",
    "zip_code": "94565"
  },
  {
    "id": 56711,
    "name": "PERMATA PUTIH",
    "zip_code": "94565"
  },
  {
    "id": 56712,
    "name": "PINAMULA",
    "zip_code": "94565"
  },
  {
    "id": 56713,
    "name": "POMAYAGON",
    "zip_code": "94565"
  },
  {
    "id": 56714,
    "name": "POTUGU",
    "zip_code": "94565"
  },
  {
    "id": 56715,
    "name": "PUJIMULYO",
    "zip_code": "94565"
  },
  {
    "id": 56716,
    "name": "SORAYA",
    "zip_code": "94565"
  },
  {
    "id": 56717,
    "name": "TALUAN",
    "zip_code": "94565"
  },
  {
    "id": 56718,
    "name": "TONGON",
    "zip_code": "94565"
  },
  {
    "id": 56719,
    "name": "WAKAT",
    "zip_code": "94565"
  }
]