[
  {
    "id": 62282,
    "name": "BEKU",
    "zip_code": "57475"
  },
  {
    "id": 62283,
    "name": "BLANCERAN",
    "zip_code": "57475"
  },
  {
    "id": 62284,
    "name": "BRANGKAL",
    "zip_code": "57475"
  },
  {
    "id": 62285,
    "name": "GEMPOL",
    "zip_code": "57475"
  },
  {
    "id": 62286,
    "name": "GLEDEG",
    "zip_code": "57475"
  },
  {
    "id": 62287,
    "name": "JAMBEYAN",
    "zip_code": "57475"
  },
  {
    "id": 62288,
    "name": "JEBLOG",
    "zip_code": "57475"
  },
  {
    "id": 62289,
    "name": "JUNGKARE",
    "zip_code": "57475"
  },
  {
    "id": 62290,
    "name": "JURANGJERO",
    "zip_code": "57475"
  },
  {
    "id": 62291,
    "name": "KADIREJO",
    "zip_code": "57475"
  },
  {
    "id": 62292,
    "name": "KARANGAN",
    "zip_code": "57475"
  },
  {
    "id": 62293,
    "name": "KARANGANOM",
    "zip_code": "57475"
  },
  {
    "id": 62294,
    "name": "KUNDEN",
    "zip_code": "57475"
  },
  {
    "id": 62295,
    "name": "NGABEYAN",
    "zip_code": "57475"
  },
  {
    "id": 62296,
    "name": "PADAS",
    "zip_code": "57475"
  },
  {
    "id": 62297,
    "name": "PONDOK",
    "zip_code": "57475"
  },
  {
    "id": 62298,
    "name": "SOROPATEN",
    "zip_code": "57475"
  },
  {
    "id": 62299,
    "name": "TARUBASAN",
    "zip_code": "57475"
  },
  {
    "id": 62300,
    "name": "TROSO",
    "zip_code": "57475"
  }
]