[
  {
    "id": 51799,
    "name": "BARONANG II",
    "zip_code": "74581"
  },
  {
    "id": 51800,
    "name": "BULAU NGANDUNG",
    "zip_code": "74581"
  },
  {
    "id": 51801,
    "name": "DIRUNG KORAM",
    "zip_code": "74581"
  },
  {
    "id": 51802,
    "name": "HURUNG TABENGAN",
    "zip_code": "74581"
  },
  {
    "id": 51803,
    "name": "HURUNG TAMPANG",
    "zip_code": "74581"
  },
  {
    "id": 51804,
    "name": "JAKATAN PARI",
    "zip_code": "74581"
  },
  {
    "id": 51805,
    "name": "KATANJUNG",
    "zip_code": "74581"
  },
  {
    "id": 51806,
    "name": "MAMPAI JAYA",
    "zip_code": "74581"
  },
  {
    "id": 51807,
    "name": "RAHUNG BUNGAI",
    "zip_code": "74581"
  },
  {
    "id": 51808,
    "name": "SEI/SUNGAI HANYO/HANYU",
    "zip_code": "74581"
  },
  {
    "id": 51809,
    "name": "SUPANG",
    "zip_code": "74581"
  },
  {
    "id": 51810,
    "name": "TANGIRANG",
    "zip_code": "74581"
  },
  {
    "id": 51811,
    "name": "TUMBANG PUROH/PURUH",
    "zip_code": "74581"
  },
  {
    "id": 51812,
    "name": "TUMBANG SIRAT",
    "zip_code": "74581"
  }
]