[
  {
    "id": 16457,
    "name": "BAKOM",
    "zip_code": "45562"
  },
  {
    "id": 16458,
    "name": "CAGEUR",
    "zip_code": "45562"
  },
  {
    "id": 16459,
    "name": "CIKUPA",
    "zip_code": "45562"
  },
  {
    "id": 16460,
    "name": "CIMENGA",
    "zip_code": "45562"
  },
  {
    "id": 16461,
    "name": "CIPASUNG",
    "zip_code": "45562"
  },
  {
    "id": 16462,
    "name": "DARMA",
    "zip_code": "45562"
  },
  {
    "id": 16463,
    "name": "GUNUNGSIRAH",
    "zip_code": "45562"
  },
  {
    "id": 16464,
    "name": "JAGARA",
    "zip_code": "45562"
  },
  {
    "id": 16465,
    "name": "KARANGANYAR",
    "zip_code": "45562"
  },
  {
    "id": 16466,
    "name": "KARANGSARI",
    "zip_code": "45562"
  },
  {
    "id": 16467,
    "name": "KAWAHMANUK",
    "zip_code": "45562"
  },
  {
    "id": 16468,
    "name": "PANINGGARAN",
    "zip_code": "45562"
  },
  {
    "id": 16469,
    "name": "PARUNG",
    "zip_code": "45562"
  },
  {
    "id": 16470,
    "name": "SAGARAHIANG",
    "zip_code": "45562"
  },
  {
    "id": 16471,
    "name": "SAKERTA BARAT",
    "zip_code": "45562"
  },
  {
    "id": 16472,
    "name": "SAKERTA TIMUR",
    "zip_code": "45562"
  },
  {
    "id": 16473,
    "name": "SITUSARI",
    "zip_code": "45562"
  },
  {
    "id": 16474,
    "name": "SUKARASA",
    "zip_code": "45562"
  },
  {
    "id": 16475,
    "name": "TUGUMULYA",
    "zip_code": "45562"
  }
]