[
  {
    "id": 82529,
    "name": "BANYUWANGI",
    "zip_code": "92963"
  },
  {
    "id": 82530,
    "name": "KALUKU",
    "zip_code": "92963"
  },
  {
    "id": 82531,
    "name": "KATULUNGAN",
    "zip_code": "92963"
  },
  {
    "id": 82532,
    "name": "LAMPUAWA",
    "zip_code": "92963"
  },
  {
    "id": 82533,
    "name": "LINO",
    "zip_code": "92963"
  },
  {
    "id": 82534,
    "name": "MINANGA TALLU",
    "zip_code": "92963"
  },
  {
    "id": 82535,
    "name": "MULYASARI",
    "zip_code": "92963"
  },
  {
    "id": 82536,
    "name": "MULYOREJO",
    "zip_code": "92963"
  },
  {
    "id": 82537,
    "name": "PAOMACANG",
    "zip_code": "92963"
  },
  {
    "id": 82538,
    "name": "RAWAMANGUN",
    "zip_code": "92963"
  },
  {
    "id": 82539,
    "name": "SALULEMO",
    "zip_code": "92963"
  },
  {
    "id": 82540,
    "name": "SAPTAMARGA",
    "zip_code": "92963"
  },
  {
    "id": 82541,
    "name": "SIDORAHARJO",
    "zip_code": "92963"
  },
  {
    "id": 82542,
    "name": "SUBUR",
    "zip_code": "92963"
  },
  {
    "id": 82543,
    "name": "SUKADAMAI",
    "zip_code": "92963"
  },
  {
    "id": 82544,
    "name": "SUKAHARAPAN",
    "zip_code": "92963"
  },
  {
    "id": 82545,
    "name": "SUKAMAJU",
    "zip_code": "92963"
  },
  {
    "id": 82546,
    "name": "SUKAMUKTI",
    "zip_code": "92963"
  },
  {
    "id": 82547,
    "name": "SUMBER BARU",
    "zip_code": "92963"
  },
  {
    "id": 82548,
    "name": "TAMBOKE",
    "zip_code": "92963"
  },
  {
    "id": 82549,
    "name": "TOLANGI",
    "zip_code": "92963"
  },
  {
    "id": 82550,
    "name": "TULUNG INDAH",
    "zip_code": "92963"
  },
  {
    "id": 82551,
    "name": "TULUNG SARI",
    "zip_code": "92963"
  },
  {
    "id": 82552,
    "name": "WONOKERTO",
    "zip_code": "92963"
  },
  {
    "id": 82553,
    "name": "WONOSARI",
    "zip_code": "92963"
  }
]