[
  {
    "id": 65982,
    "name": "BANJAREJO",
    "zip_code": "62118"
  },
  {
    "id": 65983,
    "name": "CAMPUREJO",
    "zip_code": "62119"
  },
  {
    "id": 65984,
    "name": "JETAK",
    "zip_code": "62114"
  },
  {
    "id": 65985,
    "name": "KALIREJO",
    "zip_code": "62119"
  },
  {
    "id": 65986,
    "name": "KARANG PACAR",
    "zip_code": "62119"
  },
  {
    "id": 65987,
    "name": "KAUMAN",
    "zip_code": "62113"
  },
  {
    "id": 65988,
    "name": "KEPATIHAN",
    "zip_code": "62111"
  },
  {
    "id": 65989,
    "name": "KLANGON",
    "zip_code": "62113"
  },
  {
    "id": 65990,
    "name": "LEDOK KULON",
    "zip_code": "62112"
  },
  {
    "id": 65991,
    "name": "LEDOK WETAN",
    "zip_code": "62112"
  },
  {
    "id": 65992,
    "name": "MOJOKAMPUNG",
    "zip_code": "62119"
  },
  {
    "id": 65993,
    "name": "MULYOAGUNG",
    "zip_code": "62119"
  },
  {
    "id": 65994,
    "name": "NGROWO",
    "zip_code": "62119"
  },
  {
    "id": 65995,
    "name": "PACUL",
    "zip_code": "62114"
  },
  {
    "id": 65996,
    "name": "SEMANDING",
    "zip_code": "62119"
  },
  {
    "id": 65997,
    "name": "SUKOREJO",
    "zip_code": "62115"
  },
  {
    "id": 65998,
    "name": "SUMBANG",
    "zip_code": "62115"
  },
  {
    "id": 82829,
    "name": "KADIPATEN",
    "zip_code": "62111"
  }
]