[
  {
    "id": 75595,
    "name": "BANDAR SARI",
    "zip_code": "34767"
  },
  {
    "id": 75596,
    "name": "BERINGIN JAYA",
    "zip_code": "34767"
  },
  {
    "id": 75597,
    "name": "BUKIT GEMURUH",
    "zip_code": "34767"
  },
  {
    "id": 75598,
    "name": "BUKIT HARAPAN",
    "zip_code": "34767"
  },
  {
    "id": 75599,
    "name": "BUMI DANA",
    "zip_code": "34767"
  },
  {
    "id": 75600,
    "name": "KARYA JAYA",
    "zip_code": "34767"
  },
  {
    "id": 75601,
    "name": "RAMSAI/RAMSAY",
    "zip_code": "34767"
  },
  {
    "id": 75602,
    "name": "SAY UMPU",
    "zip_code": "34767"
  },
  {
    "id": 75603,
    "name": "SUMA MUKTI",
    "zip_code": "34767"
  },
  {
    "id": 75604,
    "name": "WAY MENCAR",
    "zip_code": "34767"
  },
  {
    "id": 75605,
    "name": "WAY PISANG",
    "zip_code": "34767"
  },
  {
    "id": 75606,
    "name": "WAY TUBA",
    "zip_code": "34767"
  },
  {
    "id": 75607,
    "name": "WAY TUBA ASRI",
    "zip_code": "34767"
  }
]