[
  {
    "id": 55062,
    "name": "ARISAN GADING",
    "zip_code": "30862"
  },
  {
    "id": 55063,
    "name": "BETI",
    "zip_code": "30862"
  },
  {
    "id": 55064,
    "name": "MANDIANGIN",
    "zip_code": "30862"
  },
  {
    "id": 55065,
    "name": "MERANJAT I",
    "zip_code": "30862"
  },
  {
    "id": 55066,
    "name": "MERANJAT II",
    "zip_code": "30862"
  },
  {
    "id": 55067,
    "name": "MERANJAT III",
    "zip_code": "30862"
  },
  {
    "id": 55068,
    "name": "MERANJAT ILIR",
    "zip_code": "30862"
  },
  {
    "id": 55069,
    "name": "SUKARAJA BARU",
    "zip_code": "30862"
  },
  {
    "id": 55070,
    "name": "SUKARAJA LAMA",
    "zip_code": "30862"
  },
  {
    "id": 55071,
    "name": "TANJUNG DAYANG SELATAN",
    "zip_code": "30862"
  },
  {
    "id": 55072,
    "name": "TANJUNG DAYANG UTARA",
    "zip_code": "30862"
  },
  {
    "id": 55073,
    "name": "TANJUNG LUBUK",
    "zip_code": "30862"
  },
  {
    "id": 55074,
    "name": "TEBING GERINTING SELATAN",
    "zip_code": "30862"
  },
  {
    "id": 55075,
    "name": "TEBING GERINTING UTARA",
    "zip_code": "30862"
  }
]