[
  {
    "id": 16501,
    "name": "BABAKANMULYA",
    "zip_code": "45554"
  },
  {
    "id": 16502,
    "name": "CINIRU",
    "zip_code": "45554"
  },
  {
    "id": 16503,
    "name": "JALAKSANA",
    "zip_code": "45554"
  },
  {
    "id": 16504,
    "name": "MANISKIDUL",
    "zip_code": "45554"
  },
  {
    "id": 16505,
    "name": "MANISLOR",
    "zip_code": "45554"
  },
  {
    "id": 16506,
    "name": "PADAMENAK",
    "zip_code": "45554"
  },
  {
    "id": 16507,
    "name": "PEUSING",
    "zip_code": "45554"
  },
  {
    "id": 16508,
    "name": "SADAMANTRA",
    "zip_code": "45554"
  },
  {
    "id": 16509,
    "name": "SANGKANERANG",
    "zip_code": "45554"
  },
  {
    "id": 16510,
    "name": "SAYANA",
    "zip_code": "45554"
  },
  {
    "id": 16511,
    "name": "SEMBAWA",
    "zip_code": "45554"
  },
  {
    "id": 16512,
    "name": "SIDAMULYA",
    "zip_code": "45554"
  },
  {
    "id": 16513,
    "name": "SINDANGBARANG",
    "zip_code": "45554"
  },
  {
    "id": 16514,
    "name": "SUKAMUKTI",
    "zip_code": "45554"
  },
  {
    "id": 82946,
    "name": "NANGGERANG",
    "zip_code": "45554"
  }
]