[
  {
    "id": 28764,
    "name": "AEK JABUT",
    "zip_code": "22756"
  },
  {
    "id": 28765,
    "name": "AEK KANAN",
    "zip_code": "22756"
  },
  {
    "id": 28766,
    "name": "AEK KUNDUR",
    "zip_code": "22756"
  },
  {
    "id": 28767,
    "name": "AEK SIMANAP",
    "zip_code": "22756"
  },
  {
    "id": 28768,
    "name": "BATU HIBUL",
    "zip_code": "22756"
  },
  {
    "id": 28769,
    "name": "GADUNG HOLBUNG",
    "zip_code": "22756"
  },
  {
    "id": 28770,
    "name": "GONTING BANGE",
    "zip_code": "22756"
  },
  {
    "id": 28771,
    "name": "GUNUNG SORMIN",
    "zip_code": "22756"
  },
  {
    "id": 28772,
    "name": "HASAHATAN",
    "zip_code": "22756"
  },
  {
    "id": 28773,
    "name": "HATIRAN",
    "zip_code": "22756"
  },
  {
    "id": 28774,
    "name": "HUTAIMBARU SIMUNDOL",
    "zip_code": "22756"
  },
  {
    "id": 28775,
    "name": "JANJI MANAHAN GNT",
    "zip_code": "22756"
  },
  {
    "id": 28776,
    "name": "KARANG ANYAR",
    "zip_code": "22756"
  },
  {
    "id": 28777,
    "name": "KUALA SIMPANG",
    "zip_code": "22756"
  },
  {
    "id": 28778,
    "name": "MALINO",
    "zip_code": "22756"
  },
  {
    "id": 28779,
    "name": "NABUNDONG",
    "zip_code": "22756"
  },
  {
    "id": 28780,
    "name": "NAHULU JAE",
    "zip_code": "22756"
  },
  {
    "id": 28781,
    "name": "NAHULU JULU",
    "zip_code": "22756"
  },
  {
    "id": 28782,
    "name": "PADANG MALAKKA",
    "zip_code": "22756"
  },
  {
    "id": 28783,
    "name": "PADANG MATINGGI GNT",
    "zip_code": "22756"
  },
  {
    "id": 28784,
    "name": "PAMARAI",
    "zip_code": "22756"
  },
  {
    "id": 28785,
    "name": "PAMONORAN",
    "zip_code": "22756"
  },
  {
    "id": 28786,
    "name": "PANYABUNGAN",
    "zip_code": "22756"
  },
  {
    "id": 28787,
    "name": "PASAR SAYUR MATINGGI",
    "zip_code": "22756"
  },
  {
    "id": 28788,
    "name": "PASAR SIMUNDOL",
    "zip_code": "22756"
  },
  {
    "id": 28789,
    "name": "PASIR LELA",
    "zip_code": "22756"
  },
  {
    "id": 28790,
    "name": "PINARIK",
    "zip_code": "22756"
  },
  {
    "id": 28791,
    "name": "PULO LIMAN",
    "zip_code": "22756"
  },
  {
    "id": 28792,
    "name": "SABA BANGUN",
    "zip_code": "22756"
  },
  {
    "id": 28793,
    "name": "SALUSUHAN",
    "zip_code": "22756"
  },
  {
    "id": 28794,
    "name": "SAYUR MATINGGI",
    "zip_code": "22756"
  },
  {
    "id": 28795,
    "name": "SIGORDANG",
    "zip_code": "22756"
  },
  {
    "id": 28796,
    "name": "SIHALO HALO",
    "zip_code": "22756"
  },
  {
    "id": 28797,
    "name": "SIMADIHON",
    "zip_code": "22756"
  },
  {
    "id": 28798,
    "name": "SIMANGAMBAT",
    "zip_code": "22756"
  },
  {
    "id": 28799,
    "name": "SIMANINGGIR SIMUNDOL",
    "zip_code": "22756"
  },
  {
    "id": 28800,
    "name": "SIMUNDOL",
    "zip_code": "22756"
  },
  {
    "id": 28801,
    "name": "SIPOGAS",
    "zip_code": "22756"
  },
  {
    "id": 28802,
    "name": "SIPOGAS A",
    "zip_code": "22756"
  },
  {
    "id": 28803,
    "name": "SITONUN",
    "zip_code": "22756"
  },
  {
    "id": 28804,
    "name": "SUNUT",
    "zip_code": "22756"
  },
  {
    "id": 28805,
    "name": "TANJUNG BARU SILAIYA",
    "zip_code": "22756"
  },
  {
    "id": 28806,
    "name": "UNTE MANIS",
    "zip_code": "22756"
  }
]