[
  {
    "id": 58396,
    "name": "BUKIT SEGALOH",
    "zip_code": "78693"
  },
  {
    "id": 58397,
    "name": "ENGKERANGAN",
    "zip_code": "78693"
  },
  {
    "id": 58398,
    "name": "JAMBU",
    "zip_code": "78693"
  },
  {
    "id": 58399,
    "name": "JAYA SAKTI",
    "zip_code": "78693"
  },
  {
    "id": 58400,
    "name": "KARYA BARU",
    "zip_code": "78693"
  },
  {
    "id": 58401,
    "name": "KERAPA SEPAN",
    "zip_code": "78693"
  },
  {
    "id": 58402,
    "name": "LALANG INGGAR",
    "zip_code": "78693"
  },
  {
    "id": 58403,
    "name": "LANDAU BERINGIN",
    "zip_code": "78693"
  },
  {
    "id": 58404,
    "name": "LINGGAM PERMAI",
    "zip_code": "78693"
  },
  {
    "id": 58405,
    "name": "MEKAR MANDIRI",
    "zip_code": "78693"
  },
  {
    "id": 58406,
    "name": "MELINGKAT",
    "zip_code": "78693"
  },
  {
    "id": 58407,
    "name": "MENTUNAI",
    "zip_code": "78693"
  },
  {
    "id": 58408,
    "name": "NANGA MAU",
    "zip_code": "78693"
  },
  {
    "id": 58409,
    "name": "NANGA TIKAN",
    "zip_code": "78693"
  },
  {
    "id": 58410,
    "name": "NATAI LESUNG",
    "zip_code": "78693"
  },
  {
    "id": 58411,
    "name": "NATAI TEBEDAK",
    "zip_code": "78693"
  },
  {
    "id": 58412,
    "name": "NYANGKOM",
    "zip_code": "78693"
  },
  {
    "id": 58413,
    "name": "PAKAK",
    "zip_code": "78693"
  },
  {
    "id": 58414,
    "name": "PAOH DESA",
    "zip_code": "78693"
  },
  {
    "id": 58415,
    "name": "PELAIK",
    "zip_code": "78693"
  },
  {
    "id": 58416,
    "name": "SEI/SUNGAI BUAYA",
    "zip_code": "78693"
  },
  {
    "id": 58417,
    "name": "SUNGAI GARONG",
    "zip_code": "78693"
  },
  {
    "id": 58418,
    "name": "SUNGAI MENUANG",
    "zip_code": "78693"
  },
  {
    "id": 58419,
    "name": "SUNGAI SINTANG",
    "zip_code": "78693"
  },
  {
    "id": 58420,
    "name": "TERTUNG MAU",
    "zip_code": "78693"
  },
  {
    "id": 58421,
    "name": "TUGUK",
    "zip_code": "78693"
  },
  {
    "id": 82959,
    "name": "LENGKONG BINDU",
    "zip_code": "78693"
  }
]