[
  {
    "id": 53648,
    "name": "AIR PUAR",
    "zip_code": "31453"
  },
  {
    "id": 53649,
    "name": "BABATAN",
    "zip_code": "31453"
  },
  {
    "id": 53650,
    "name": "DANAU BELIDANG",
    "zip_code": "31453"
  },
  {
    "id": 53651,
    "name": "DATAR BALAM",
    "zip_code": "31453"
  },
  {
    "id": 53652,
    "name": "DURIAN DANGKAL",
    "zip_code": "31453"
  },
  {
    "id": 53653,
    "name": "GERAMAT",
    "zip_code": "31453"
  },
  {
    "id": 53654,
    "name": "JADIAN BARU",
    "zip_code": "31453"
  },
  {
    "id": 53655,
    "name": "JADIAN LAMA",
    "zip_code": "31453"
  },
  {
    "id": 53656,
    "name": "KARANG LEBAK",
    "zip_code": "31453"
  },
  {
    "id": 53657,
    "name": "KEBAN AGUNG",
    "zip_code": "31453"
  },
  {
    "id": 53658,
    "name": "LAWANG AGUNG MULAK",
    "zip_code": "31453"
  },
  {
    "id": 53659,
    "name": "LESUNG BATU",
    "zip_code": "31453"
  },
  {
    "id": 53660,
    "name": "LUBUK DENDAN",
    "zip_code": "31453"
  },
  {
    "id": 53661,
    "name": "MENGKENANG",
    "zip_code": "31453"
  },
  {
    "id": 53662,
    "name": "MUARA TIGA",
    "zip_code": "31453"
  },
  {
    "id": 53663,
    "name": "PADANG BINDU",
    "zip_code": "31453"
  },
  {
    "id": 53664,
    "name": "PADANG MASAD/MASAT",
    "zip_code": "31453"
  },
  {
    "id": 53665,
    "name": "PAJAR BULAN",
    "zip_code": "31453"
  },
  {
    "id": 53666,
    "name": "PENANDINGAN",
    "zip_code": "31453"
  },
  {
    "id": 53667,
    "name": "PENGENTAAN",
    "zip_code": "31453"
  },
  {
    "id": 53668,
    "name": "PENINDAIAN",
    "zip_code": "31453"
  },
  {
    "id": 53669,
    "name": "SENGKUANG",
    "zip_code": "31453"
  },
  {
    "id": 53670,
    "name": "SUKANANTI",
    "zip_code": "31453"
  },
  {
    "id": 53671,
    "name": "TALANG BERANGIN",
    "zip_code": "31453"
  },
  {
    "id": 53672,
    "name": "TALANG PADANG",
    "zip_code": "31453"
  },
  {
    "id": 53673,
    "name": "TEBING TINGGI",
    "zip_code": "31453"
  }
]