[
  {
    "id": 52033,
    "name": "BUNTUT SAPAU",
    "zip_code": "74291"
  },
  {
    "id": 52034,
    "name": "MAJANG/MOJANG BARU",
    "zip_code": "74291"
  },
  {
    "id": 52035,
    "name": "MARANDANG",
    "zip_code": "74291"
  },
  {
    "id": 52036,
    "name": "MONGOH JUOI",
    "zip_code": "74291"
  },
  {
    "id": 52037,
    "name": "RANTAU PANJANG",
    "zip_code": "74291"
  },
  {
    "id": 52038,
    "name": "RIAM BATANG",
    "zip_code": "74291"
  },
  {
    "id": 52039,
    "name": "SEPUNDU HANTU",
    "zip_code": "74291"
  },
  {
    "id": 52040,
    "name": "TANJUNG PAKU",
    "zip_code": "74291"
  },
  {
    "id": 52041,
    "name": "TUMBANG BAHAN",
    "zip_code": "74291"
  },
  {
    "id": 52042,
    "name": "TUMBANG DARAP",
    "zip_code": "74291"
  },
  {
    "id": 52043,
    "name": "TUMBANG KALAM",
    "zip_code": "74291"
  },
  {
    "id": 52044,
    "name": "TUMBANG KASAI",
    "zip_code": "74291"
  },
  {
    "id": 52045,
    "name": "TUMBANG KUBANG",
    "zip_code": "74291"
  },
  {
    "id": 52046,
    "name": "TUMBANG LAKU",
    "zip_code": "74291"
  },
  {
    "id": 52047,
    "name": "TUMBANG MANJUL",
    "zip_code": "74291"
  },
  {
    "id": 52048,
    "name": "TUMBANG SEPAN",
    "zip_code": "74291"
  },
  {
    "id": 52049,
    "name": "TUMBANG SETAWAI",
    "zip_code": "74291"
  },
  {
    "id": 52050,
    "name": "TUMBANG SUEI",
    "zip_code": "74291"
  },
  {
    "id": 52051,
    "name": "TUMBANG TABERAU",
    "zip_code": "74291"
  },
  {
    "id": 52052,
    "name": "TUSUK BELAWAN",
    "zip_code": "74291"
  }
]