[
  {
    "id": 32529,
    "name": "AMORERE (AMOROME)",
    "zip_code": "93353"
  },
  {
    "id": 32530,
    "name": "AMOROME UTAMA",
    "zip_code": "93353"
  },
  {
    "id": 32531,
    "name": "ASEMI NUNULAI (ASEMINULAI)",
    "zip_code": "93353"
  },
  {
    "id": 32532,
    "name": "ASERA",
    "zip_code": "93353"
  },
  {
    "id": 32533,
    "name": "KOTA MULYA",
    "zip_code": "93353"
  },
  {
    "id": 32534,
    "name": "LANGGEO UTAMA",
    "zip_code": "93353"
  },
  {
    "id": 32535,
    "name": "PUUNGGOMOSI",
    "zip_code": "93353"
  },
  {
    "id": 32536,
    "name": "PUUWANGGUDU",
    "zip_code": "93353"
  },
  {
    "id": 32537,
    "name": "TANGGULURI (TANGGALURI)",
    "zip_code": "93353"
  },
  {
    "id": 32538,
    "name": "TAPUWATU",
    "zip_code": "93353"
  },
  {
    "id": 32539,
    "name": "WALALINDU",
    "zip_code": "93353"
  },
  {
    "id": 32540,
    "name": "WALASOLO",
    "zip_code": "93353"
  },
  {
    "id": 32541,
    "name": "WANGGUDU",
    "zip_code": "93353"
  },
  {
    "id": 32542,
    "name": "WANGGUDU RAYA/JAYA",
    "zip_code": "93353"
  },
  {
    "id": 32543,
    "name": "WAWOLIMBUE",
    "zip_code": "93353"
  },
  {
    "id": 32544,
    "name": "WUNDUHAKA",
    "zip_code": "93353"
  }
]