[
  {
    "id": 32588,
    "name": "BESU",
    "zip_code": "93354"
  },
  {
    "id": 32589,
    "name": "DIOLO",
    "zip_code": "93354"
  },
  {
    "id": 32590,
    "name": "LALONGGALUKU",
    "zip_code": "93354"
  },
  {
    "id": 32591,
    "name": "LAOSU",
    "zip_code": "93354"
  },
  {
    "id": 32592,
    "name": "LAOSU JAYA",
    "zip_code": "93354"
  },
  {
    "id": 32593,
    "name": "MENDIKONU",
    "zip_code": "93354"
  },
  {
    "id": 32594,
    "name": "MOROSI",
    "zip_code": "93354"
  },
  {
    "id": 32595,
    "name": "PAKU",
    "zip_code": "93354"
  },
  {
    "id": 32596,
    "name": "PAKU JAYA",
    "zip_code": "93354"
  },
  {
    "id": 32597,
    "name": "PEBUNOOHA",
    "zip_code": "93354"
  },
  {
    "id": 32598,
    "name": "PEBUNOOHA DALAM",
    "zip_code": "93354"
  },
  {
    "id": 32599,
    "name": "PORARA",
    "zip_code": "93354"
  },
  {
    "id": 32600,
    "name": "PUURUI (PUURUY)",
    "zip_code": "93354"
  },
  {
    "id": 32601,
    "name": "RAMBU KONGGA",
    "zip_code": "93354"
  },
  {
    "id": 32602,
    "name": "RUMBIA",
    "zip_code": "93771"
  },
  {
    "id": 32603,
    "name": "TANGGOBU",
    "zip_code": "93354"
  },
  {
    "id": 32604,
    "name": "TONDOWATU",
    "zip_code": "93354"
  },
  {
    "id": 32605,
    "name": "WONUA MORINI",
    "zip_code": "93354"
  }
]