[
  {
    "id": 43779,
    "name": "BENGABING",
    "zip_code": "20986"
  },
  {
    "id": 43780,
    "name": "BINGKAT",
    "zip_code": "20986"
  },
  {
    "id": 43781,
    "name": "JATI MULYO",
    "zip_code": "20986"
  },
  {
    "id": 43782,
    "name": "KARANG ANYAR",
    "zip_code": "20986"
  },
  {
    "id": 43783,
    "name": "LESTARI DADI",
    "zip_code": "20986"
  },
  {
    "id": 43784,
    "name": "MELATI KEBON/KEBUN",
    "zip_code": "20986"
  },
  {
    "id": 43785,
    "name": "PEGAJAHAN",
    "zip_code": "20986"
  },
  {
    "id": 43786,
    "name": "PONDOK TENGAH",
    "zip_code": "20986"
  },
  {
    "id": 43787,
    "name": "PUTUARAN/PETUARAN ILIR",
    "zip_code": "20986"
  },
  {
    "id": 43788,
    "name": "PUTUARAN/PETUARAN ULU",
    "zip_code": "20986"
  },
  {
    "id": 43789,
    "name": "SENAH/SENNAH",
    "zip_code": "20986"
  },
  {
    "id": 43790,
    "name": "SUKASARI",
    "zip_code": "20986"
  },
  {
    "id": 43791,
    "name": "TANJUNG PUTUS",
    "zip_code": "20986"
  }
]