[
  {
    "id": 55046,
    "name": "BAKUNG",
    "zip_code": "30862"
  },
  {
    "id": 55047,
    "name": "LOROK",
    "zip_code": "30862"
  },
  {
    "id": 55048,
    "name": "PALEM RAYA",
    "zip_code": "30862"
  },
  {
    "id": 55049,
    "name": "PARIT",
    "zip_code": "30862"
  },
  {
    "id": 55050,
    "name": "PAYAKABUNG",
    "zip_code": "30812"
  },
  {
    "id": 55051,
    "name": "PERMATA BARU",
    "zip_code": "30862"
  },
  {
    "id": 55052,
    "name": "PULAU KABAI",
    "zip_code": "30862"
  },
  {
    "id": 55053,
    "name": "PULAU SEMAMBU",
    "zip_code": "30862"
  },
  {
    "id": 55054,
    "name": "PURNAJAYA",
    "zip_code": "30862"
  },
  {
    "id": 55055,
    "name": "SUAK/SOAK BATOK",
    "zip_code": "30862"
  },
  {
    "id": 55056,
    "name": "SUKA MULIA",
    "zip_code": "30862"
  },
  {
    "id": 55057,
    "name": "SUNGAI RAMBUTAN",
    "zip_code": "30862"
  },
  {
    "id": 55058,
    "name": "TANJUNG BARU",
    "zip_code": "30862"
  },
  {
    "id": 55059,
    "name": "TANJUNG PERING",
    "zip_code": "30813"
  },
  {
    "id": 55060,
    "name": "TANJUNG PULE",
    "zip_code": "30862"
  },
  {
    "id": 55061,
    "name": "TIMBANGAN",
    "zip_code": "30862"
  }
]