[
  {
    "id": 16328,
    "name": "ANCARAN",
    "zip_code": "45514"
  },
  {
    "id": 16329,
    "name": "AWIRARANGAN",
    "zip_code": "45511"
  },
  {
    "id": 16330,
    "name": "CIBINUANG",
    "zip_code": "45511"
  },
  {
    "id": 16331,
    "name": "CIGINTUNG",
    "zip_code": "45517"
  },
  {
    "id": 16332,
    "name": "CIJOHO",
    "zip_code": "45513"
  },
  {
    "id": 16333,
    "name": "CIPORANG",
    "zip_code": "45514"
  },
  {
    "id": 16334,
    "name": "CIRENDANG",
    "zip_code": "45518"
  },
  {
    "id": 16335,
    "name": "CITANGTU",
    "zip_code": "45516"
  },
  {
    "id": 16336,
    "name": "KARANGTAWANG",
    "zip_code": "45515"
  },
  {
    "id": 16337,
    "name": "KEDUNGARUM",
    "zip_code": "45513"
  },
  {
    "id": 16338,
    "name": "KUNINGAN",
    "zip_code": "45511"
  },
  {
    "id": 16339,
    "name": "PURWAWINANGUN",
    "zip_code": "45512"
  },
  {
    "id": 16340,
    "name": "WINDUHAJI",
    "zip_code": "45516"
  },
  {
    "id": 16341,
    "name": "WINDUSENGKAHAN",
    "zip_code": "45515"
  }
]