[
  {
    "id": 25283,
    "name": "APALO",
    "zip_code": "99553"
  },
  {
    "id": 25284,
    "name": "BINIME",
    "zip_code": "99553"
  },
  {
    "id": 25285,
    "name": "DIBUNGGEN",
    "zip_code": "99553"
  },
  {
    "id": 25286,
    "name": "DOGOBAK",
    "zip_code": "99553"
  },
  {
    "id": 25287,
    "name": "GELORA",
    "zip_code": "99553"
  },
  {
    "id": 25288,
    "name": "KAMBO",
    "zip_code": "99553"
  },
  {
    "id": 25289,
    "name": "KELILA",
    "zip_code": "99553"
  },
  {
    "id": 25290,
    "name": "KINDOK (LOBI)",
    "zip_code": "99553"
  },
  {
    "id": 25291,
    "name": "KUMBU",
    "zip_code": "99553"
  },
  {
    "id": 25292,
    "name": "MABUNA (MABUMA)",
    "zip_code": "99553"
  },
  {
    "id": 25293,
    "name": "ONGGOBALO (GWIPU)",
    "zip_code": "99553"
  },
  {
    "id": 25294,
    "name": "PELANME (PELAME)",
    "zip_code": "99553"
  },
  {
    "id": 25295,
    "name": "TARI",
    "zip_code": "99553"
  },
  {
    "id": 25296,
    "name": "TIKAPURA",
    "zip_code": "99553"
  },
  {
    "id": 25297,
    "name": "TIMERIA",
    "zip_code": "99553"
  },
  {
    "id": 25298,
    "name": "TONGRIK (TENGGRIK/TOGIRIK/YINAGA)",
    "zip_code": "99553"
  },
  {
    "id": 25299,
    "name": "UGANDA",
    "zip_code": "99553"
  },
  {
    "id": 25300,
    "name": "YAGABUR",
    "zip_code": "99553"
  },
  {
    "id": 25301,
    "name": "YALENGGOLO (YELONGGOLO)",
    "zip_code": "99553"
  }
]