[
  {
    "id": 11888,
    "name": "BATEE",
    "zip_code": "24153"
  },
  {
    "id": 11889,
    "name": "BLANG RAYA",
    "zip_code": "24153"
  },
  {
    "id": 11890,
    "name": "COT",
    "zip_code": "24152"
  },
  {
    "id": 11891,
    "name": "DAYAH",
    "zip_code": "24153"
  },
  {
    "id": 11892,
    "name": "GLE CUT",
    "zip_code": "24153"
  },
  {
    "id": 11893,
    "name": "IE MASEN",
    "zip_code": "24153"
  },
  {
    "id": 11894,
    "name": "INGIN JAYA",
    "zip_code": "24153"
  },
  {
    "id": 11895,
    "name": "KEUPULA",
    "zip_code": "24153"
  },
  {
    "id": 11896,
    "name": "KRUENG",
    "zip_code": "24153"
  },
  {
    "id": 11897,
    "name": "MESJID",
    "zip_code": "24153"
  },
  {
    "id": 11898,
    "name": "PAPEUN",
    "zip_code": "24153"
  },
  {
    "id": 11899,
    "name": "PAWOD",
    "zip_code": "24153"
  },
  {
    "id": 11900,
    "name": "SAGOE",
    "zip_code": "24153"
  },
  {
    "id": 11901,
    "name": "SUKA JAYA",
    "zip_code": "24153"
  },
  {
    "id": 11902,
    "name": "TEUNGKU DI LAWEUNG",
    "zip_code": "24153"
  },
  {
    "id": 11903,
    "name": "TUHA BIHEUE",
    "zip_code": "24153"
  },
  {
    "id": 11904,
    "name": "UJONG PIE",
    "zip_code": "24153"
  }
]