[
  {
    "id": 48694,
    "name": "AIA SANTOK",
    "zip_code": "25531"
  },
  {
    "id": 48695,
    "name": "BATANG KABUNG / KABUANG",
    "zip_code": "25519"
  },
  {
    "id": 48696,
    "name": "BATO",
    "zip_code": "25519"
  },
  {
    "id": 48697,
    "name": "BUNGO TANJUNG",
    "zip_code": "25535"
  },
  {
    "id": 48698,
    "name": "CUBADAK MENTAWAI",
    "zip_code": "25516"
  },
  {
    "id": 48699,
    "name": "KAJAI",
    "zip_code": "25534"
  },
  {
    "id": 48700,
    "name": "KALUAT / KALUAIK (KALUAIAK)",
    "zip_code": "25534"
  },
  {
    "id": 48701,
    "name": "KAMPUANG GADANG",
    "zip_code": "25523"
  },
  {
    "id": 48702,
    "name": "KAMPUNG BARU PADUSUNAN",
    "zip_code": "25524"
  },
  {
    "id": 48703,
    "name": "KAMPUNG KANDANG",
    "zip_code": "25536"
  },
  {
    "id": 48704,
    "name": "KAMPUNG TANGAH",
    "zip_code": "25535"
  },
  {
    "id": 48705,
    "name": "KOTO MARAPAK",
    "zip_code": "25519"
  },
  {
    "id": 48706,
    "name": "PAKASAI",
    "zip_code": "25524"
  },
  {
    "id": 48707,
    "name": "SUNGAI PASAK",
    "zip_code": "25516"
  },
  {
    "id": 48708,
    "name": "SUNGAI SIRAH",
    "zip_code": "25516"
  },
  {
    "id": 48709,
    "name": "TALAGO SARIAK",
    "zip_code": "25523"
  }
]