[
  {
    "id": 60807,
    "name": "JEMBAYAN",
    "zip_code": "75571"
  },
  {
    "id": 60808,
    "name": "JEMBAYAN DALAM",
    "zip_code": "75571"
  },
  {
    "id": 60809,
    "name": "JEMBAYAN TENGAH",
    "zip_code": "75571"
  },
  {
    "id": 60810,
    "name": "JONGGON",
    "zip_code": "75571"
  },
  {
    "id": 60811,
    "name": "JONGKANG",
    "zip_code": "75571"
  },
  {
    "id": 60812,
    "name": "KARYA UTAMA",
    "zip_code": "75571"
  },
  {
    "id": 60813,
    "name": "LOA KULU KOTA",
    "zip_code": "75571"
  },
  {
    "id": 60814,
    "name": "LOH SUMBER",
    "zip_code": "75571"
  },
  {
    "id": 60815,
    "name": "LUNG ANAI",
    "zip_code": "75571"
  },
  {
    "id": 60816,
    "name": "MARGAHAYU (MARGA RAHAYU)",
    "zip_code": "75571"
  },
  {
    "id": 60817,
    "name": "PONORAGAN",
    "zip_code": "75571"
  },
  {
    "id": 60818,
    "name": "REMPANGA",
    "zip_code": "75571"
  },
  {
    "id": 60819,
    "name": "SEI/SUNGAI PAYANG",
    "zip_code": "75571"
  },
  {
    "id": 60820,
    "name": "SEPAKAT",
    "zip_code": "75571"
  },
  {
    "id": 60821,
    "name": "SUMBER SARI",
    "zip_code": "75571"
  }
]