[
  {
    "id": 45697,
    "name": "BALESARI",
    "zip_code": "56152"
  },
  {
    "id": 45698,
    "name": "BANDARSEDAYU",
    "zip_code": "56152"
  },
  {
    "id": 45699,
    "name": "BANJARSARI",
    "zip_code": "56152"
  },
  {
    "id": 45700,
    "name": "CANDISARI",
    "zip_code": "56152"
  },
  {
    "id": 45701,
    "name": "DAMPIT",
    "zip_code": "56152"
  },
  {
    "id": 45702,
    "name": "GENITO",
    "zip_code": "56152"
  },
  {
    "id": 45703,
    "name": "GIRIMULYO",
    "zip_code": "56152"
  },
  {
    "id": 45704,
    "name": "GONDANGREJO",
    "zip_code": "56152"
  },
  {
    "id": 45705,
    "name": "GUNUNGSARI",
    "zip_code": "56152"
  },
  {
    "id": 45706,
    "name": "KALIJOSO",
    "zip_code": "56152"
  },
  {
    "id": 45707,
    "name": "KEMBANGKUNING",
    "zip_code": "56152"
  },
  {
    "id": 45708,
    "name": "KENTENGSARI",
    "zip_code": "56152"
  },
  {
    "id": 45709,
    "name": "MANGUNSARI",
    "zip_code": "56152"
  },
  {
    "id": 45710,
    "name": "NGEMPLAK",
    "zip_code": "56152"
  },
  {
    "id": 45711,
    "name": "PASANGSARI",
    "zip_code": "56152"
  },
  {
    "id": 45712,
    "name": "SEMEN",
    "zip_code": "56152"
  },
  {
    "id": 45713,
    "name": "TANJUNGSARI",
    "zip_code": "56152"
  },
  {
    "id": 45714,
    "name": "UMBULSARI",
    "zip_code": "56152"
  },
  {
    "id": 45715,
    "name": "WINDUSARI",
    "zip_code": "56152"
  },
  {
    "id": 45716,
    "name": "WONOROTO",
    "zip_code": "56152"
  }
]