[
  {
    "id": 27778,
    "name": "BAWOGANOWO",
    "zip_code": "22865"
  },
  {
    "id": 27779,
    "name": "HILIALAWA",
    "zip_code": "22865"
  },
  {
    "id": 27780,
    "name": "HILIAMAETALUO",
    "zip_code": "22865"
  },
  {
    "id": 27781,
    "name": "HILIASI",
    "zip_code": "22865"
  },
  {
    "id": 27782,
    "name": "HILIMAGARI",
    "zip_code": "22865"
  },
  {
    "id": 27783,
    "name": "HILINAMONIHA",
    "zip_code": "22865"
  },
  {
    "id": 27784,
    "name": "HILINDRASO RAYA",
    "zip_code": "22865"
  },
  {
    "id": 27785,
    "name": "HILINDRASONIHA",
    "zip_code": "22865"
  },
  {
    "id": 27786,
    "name": "HILISATARO",
    "zip_code": "22865"
  },
  {
    "id": 27787,
    "name": "HILISATARO EHO SOFAYO",
    "zip_code": "22865"
  },
  {
    "id": 27788,
    "name": "HILISATARO GEWA",
    "zip_code": "22865"
  },
  {
    "id": 27789,
    "name": "HILISATARO NANDISA",
    "zip_code": "22865"
  },
  {
    "id": 27790,
    "name": "HILISATARO RAYA",
    "zip_code": "22865"
  },
  {
    "id": 27791,
    "name": "HILISOROMI",
    "zip_code": "22865"
  }
]