[
  {
    "id": 8724,
    "name": "BENTE/TUALAN",
    "zip_code": "76283"
  },
  {
    "id": 8725,
    "name": "GUNUNGPUTAR",
    "zip_code": "76283"
  },
  {
    "id": 8726,
    "name": "KEPALA TELAKE",
    "zip_code": "76283"
  },
  {
    "id": 8727,
    "name": "LONG KALI",
    "zip_code": "76283"
  },
  {
    "id": 8728,
    "name": "MAKMUR JAYA",
    "zip_code": "76283"
  },
  {
    "id": 8729,
    "name": "MARUAT",
    "zip_code": "76283"
  },
  {
    "id": 8730,
    "name": "MENDIK",
    "zip_code": "76283"
  },
  {
    "id": 8731,
    "name": "MENDIK BHAKTI",
    "zip_code": "76283"
  },
  {
    "id": 8732,
    "name": "MENDIK KARYA",
    "zip_code": "76283"
  },
  {
    "id": 8733,
    "name": "MENDIK MAKMUR",
    "zip_code": "76283"
  },
  {
    "id": 8734,
    "name": "MUARA LAMBAKAN",
    "zip_code": "76283"
  },
  {
    "id": 8735,
    "name": "MUARA PIAS",
    "zip_code": "76283"
  },
  {
    "id": 8736,
    "name": "MUARA TELAKE",
    "zip_code": "76283"
  },
  {
    "id": 8737,
    "name": "MUARA TOYU",
    "zip_code": "76283"
  },
  {
    "id": 8738,
    "name": "MUARAADANG II",
    "zip_code": "76283"
  },
  {
    "id": 8739,
    "name": "MUNGGU",
    "zip_code": "76283"
  },
  {
    "id": 8740,
    "name": "PERKUWIN",
    "zip_code": "76283"
  },
  {
    "id": 8741,
    "name": "PETIKU",
    "zip_code": "76283"
  },
  {
    "id": 8742,
    "name": "PINANG JATUS",
    "zip_code": "76283"
  },
  {
    "id": 8743,
    "name": "PUTANG",
    "zip_code": "76283"
  },
  {
    "id": 8744,
    "name": "SEBAKUNG",
    "zip_code": "76283"
  },
  {
    "id": 8745,
    "name": "SEBAKUNG IV",
    "zip_code": "76283"
  },
  {
    "id": 8746,
    "name": "SEBAKUNG MAKMUR",
    "zip_code": "76283"
  }
]