[
  {
    "id": 2143,
    "name": "AMARLAUT",
    "zip_code": "97595"
  },
  {
    "id": 2144,
    "name": "EFFA",
    "zip_code": "97595"
  },
  {
    "id": 2145,
    "name": "GULIAR",
    "zip_code": "97595"
  },
  {
    "id": 2146,
    "name": "ILILI",
    "zip_code": "97595"
  },
  {
    "id": 2147,
    "name": "KARLOMIN",
    "zip_code": "97595"
  },
  {
    "id": 2148,
    "name": "KELANGAN",
    "zip_code": "97595"
  },
  {
    "id": 2149,
    "name": "KELDOR",
    "zip_code": "97595"
  },
  {
    "id": 2150,
    "name": "KILBUTAK",
    "zip_code": "97595"
  },
  {
    "id": 2151,
    "name": "KURWARA",
    "zip_code": "97595"
  },
  {
    "id": 2152,
    "name": "LAHEMA",
    "zip_code": "97595"
  },
  {
    "id": 2153,
    "name": "OTADEMAN",
    "zip_code": "97595"
  },
  {
    "id": 2154,
    "name": "RUMA DURUN",
    "zip_code": "97595"
  },
  {
    "id": 2155,
    "name": "TAMHER TIMUR",
    "zip_code": "97595"
  },
  {
    "id": 2156,
    "name": "TAMHER WARAT",
    "zip_code": "97595"
  },
  {
    "id": 2157,
    "name": "TANA SOA",
    "zip_code": "97595"
  },
  {
    "id": 2158,
    "name": "TANAH BARU",
    "zip_code": "97595"
  },
  {
    "id": 2159,
    "name": "UTTA",
    "zip_code": "97595"
  },
  {
    "id": 2160,
    "name": "WUNIN ELDEDORA",
    "zip_code": "97595"
  }
]