[
  {
    "id": 22804,
    "name": "AGHAM (AGHAIN)",
    "zip_code": "99872"
  },
  {
    "id": 22805,
    "name": "GHANU",
    "zip_code": "99872"
  },
  {
    "id": 22806,
    "name": "IMA",
    "zip_code": "99872"
  },
  {
    "id": 22807,
    "name": "KHATAN / KATAN",
    "zip_code": "99872"
  },
  {
    "id": 22808,
    "name": "KOGOYAMAN",
    "zip_code": "99872"
  },
  {
    "id": 22809,
    "name": "LINGGUA",
    "zip_code": "99872"
  },
  {
    "id": 22810,
    "name": "MAGABAG / MAGABAK",
    "zip_code": "99872"
  },
  {
    "id": 22811,
    "name": "MONANA",
    "zip_code": "99872"
  },
  {
    "id": 22812,
    "name": "MUR",
    "zip_code": "99872"
  },
  {
    "id": 22813,
    "name": "TEREYEMU (TERIYEMU)",
    "zip_code": "99872"
  },
  {
    "id": 22814,
    "name": "WAGHIEN/KOBA (WAGHAIN BAWAH)",
    "zip_code": "99872"
  },
  {
    "id": 22815,
    "name": "WAGIN",
    "zip_code": "99872"
  },
  {
    "id": 22816,
    "name": "WAMAN",
    "zip_code": "99872"
  },
  {
    "id": 22817,
    "name": "WARUWE",
    "zip_code": "99872"
  },
  {
    "id": 22818,
    "name": "YATAN",
    "zip_code": "99872"
  }
]