[
  {
    "id": 52489,
    "name": "BAWAN",
    "zip_code": "74863"
  },
  {
    "id": 52490,
    "name": "GUHA",
    "zip_code": "74863"
  },
  {
    "id": 52491,
    "name": "HANUA",
    "zip_code": "74863"
  },
  {
    "id": 52492,
    "name": "HURUNG",
    "zip_code": "74863"
  },
  {
    "id": 52493,
    "name": "KASALI BARU",
    "zip_code": "74863"
  },
  {
    "id": 52494,
    "name": "LAWANG URU",
    "zip_code": "74863"
  },
  {
    "id": 52495,
    "name": "MANEN KALEKA",
    "zip_code": "74863"
  },
  {
    "id": 52496,
    "name": "MANEN PADURAN",
    "zip_code": "74863"
  },
  {
    "id": 52497,
    "name": "PAHAWAN",
    "zip_code": "74863"
  },
  {
    "id": 52498,
    "name": "PANDAWEI",
    "zip_code": "74863"
  },
  {
    "id": 52499,
    "name": "PANGI",
    "zip_code": "74863"
  },
  {
    "id": 52500,
    "name": "RAMANG",
    "zip_code": "74863"
  },
  {
    "id": 52501,
    "name": "TAMBAK",
    "zip_code": "74863"
  },
  {
    "id": 52502,
    "name": "TANGKAHEN",
    "zip_code": "74863"
  },
  {
    "id": 52503,
    "name": "TUMBANG TARUSAN",
    "zip_code": "74863"
  }
]