[
  {
    "id": 82289,
    "name": "ASANA",
    "zip_code": "92975"
  },
  {
    "id": 82290,
    "name": "BATU PUTIH",
    "zip_code": "92975"
  },
  {
    "id": 82291,
    "name": "BENTENG",
    "zip_code": "92975"
  },
  {
    "id": 82292,
    "name": "BONEPUTE",
    "zip_code": "92975"
  },
  {
    "id": 82293,
    "name": "BURAU",
    "zip_code": "92975"
  },
  {
    "id": 82294,
    "name": "BURAU PANTAI",
    "zip_code": "92975"
  },
  {
    "id": 82295,
    "name": "CENDANA",
    "zip_code": "92975"
  },
  {
    "id": 82296,
    "name": "HARAPAN",
    "zip_code": "92975"
  },
  {
    "id": 82297,
    "name": "JALAJJA",
    "zip_code": "92975"
  },
  {
    "id": 82298,
    "name": "KALATIRI",
    "zip_code": "92975"
  },
  {
    "id": 82299,
    "name": "LAGEGO",
    "zip_code": "92975"
  },
  {
    "id": 82300,
    "name": "LAMBARESE",
    "zip_code": "92975"
  },
  {
    "id": 82301,
    "name": "LANOSI",
    "zip_code": "92975"
  },
  {
    "id": 82302,
    "name": "LARO",
    "zip_code": "92975"
  },
  {
    "id": 82303,
    "name": "LAUWO",
    "zip_code": "92975"
  },
  {
    "id": 82304,
    "name": "LEWONU",
    "zip_code": "92975"
  },
  {
    "id": 82305,
    "name": "LUMBEWE",
    "zip_code": "92975"
  },
  {
    "id": 82306,
    "name": "MABONTA",
    "zip_code": "92975"
  }
]