[
  {
    "id": 7783,
    "name": "AIR BERAU",
    "zip_code": "38766"
  },
  {
    "id": 7784,
    "name": "AIR BIKUK",
    "zip_code": "38766"
  },
  {
    "id": 7785,
    "name": "AIR HITAM",
    "zip_code": "38766"
  },
  {
    "id": 7786,
    "name": "BATU EJUNG",
    "zip_code": "38766"
  },
  {
    "id": 7787,
    "name": "BUMI MEKAR JAYA",
    "zip_code": "38766"
  },
  {
    "id": 7788,
    "name": "KARYA MULYA",
    "zip_code": "38766"
  },
  {
    "id": 7789,
    "name": "LUBUK BENTO",
    "zip_code": "38766"
  },
  {
    "id": 7790,
    "name": "LUBUK SELANDAK",
    "zip_code": "38766"
  },
  {
    "id": 7791,
    "name": "MANDI ANGIN JAYA",
    "zip_code": "38766"
  },
  {
    "id": 7792,
    "name": "NELAN INDAH",
    "zip_code": "38766"
  },
  {
    "id": 7793,
    "name": "PERNYAH",
    "zip_code": "38766"
  },
  {
    "id": 7794,
    "name": "PONDOK KANDANG",
    "zip_code": "38766"
  },
  {
    "id": 7795,
    "name": "PONDOK SUGUH",
    "zip_code": "38766"
  },
  {
    "id": 7796,
    "name": "SIDO MAKMUR",
    "zip_code": "38766"
  },
  {
    "id": 7797,
    "name": "SINAR LAUT",
    "zip_code": "38766"
  },
  {
    "id": 7798,
    "name": "TELUK BAKUNG",
    "zip_code": "38766"
  },
  {
    "id": 7799,
    "name": "TUNGGANG (DUSUN TUNGGANG)",
    "zip_code": "38766"
  }
]