[
  {
    "id": 67496,
    "name": "BANJARANYAR",
    "zip_code": "52353"
  },
  {
    "id": 67497,
    "name": "GEMBYANG",
    "zip_code": "52353"
  },
  {
    "id": 67498,
    "name": "GONGSENG",
    "zip_code": "52353"
  },
  {
    "id": 67499,
    "name": "KALIMAS",
    "zip_code": "52353"
  },
  {
    "id": 67500,
    "name": "KALITORONG",
    "zip_code": "52353"
  },
  {
    "id": 67501,
    "name": "KARANGMONCOL",
    "zip_code": "52353"
  },
  {
    "id": 67502,
    "name": "KECEPIT",
    "zip_code": "52353"
  },
  {
    "id": 67503,
    "name": "KEJENE",
    "zip_code": "52353"
  },
  {
    "id": 67504,
    "name": "KREYO",
    "zip_code": "52353"
  },
  {
    "id": 67505,
    "name": "LODAYA",
    "zip_code": "52353"
  },
  {
    "id": 67506,
    "name": "MANGLI",
    "zip_code": "52353"
  },
  {
    "id": 67507,
    "name": "MEJAGONG",
    "zip_code": "52353"
  },
  {
    "id": 67508,
    "name": "PENUSUPAN",
    "zip_code": "52353"
  },
  {
    "id": 67509,
    "name": "RANDUDONGKAL",
    "zip_code": "52353"
  },
  {
    "id": 67510,
    "name": "REMBUL",
    "zip_code": "52353"
  },
  {
    "id": 67511,
    "name": "SEMAYA",
    "zip_code": "52353"
  },
  {
    "id": 67512,
    "name": "SEMINGKIR",
    "zip_code": "52353"
  },
  {
    "id": 67513,
    "name": "TANAHBAYA",
    "zip_code": "52353"
  }
]