[
  {
    "id": 47542,
    "name": "ALASSUMUR KULON",
    "zip_code": "67282"
  },
  {
    "id": 47543,
    "name": "ASEMBAGUS",
    "zip_code": "67282"
  },
  {
    "id": 47544,
    "name": "ASEMBAKOR",
    "zip_code": "67282"
  },
  {
    "id": 47545,
    "name": "BULU",
    "zip_code": "67282"
  },
  {
    "id": 47546,
    "name": "KALIBUNTU",
    "zip_code": "67282"
  },
  {
    "id": 47547,
    "name": "KANDANGJATI KULON",
    "zip_code": "67282"
  },
  {
    "id": 47548,
    "name": "KANDANGJATI WETAN",
    "zip_code": "67282"
  },
  {
    "id": 47549,
    "name": "KEBONAGUNG",
    "zip_code": "67282"
  },
  {
    "id": 47550,
    "name": "KRAKSAAN WETAN",
    "zip_code": "67282"
  },
  {
    "id": 47551,
    "name": "KREGENAN (KEREGENAN)",
    "zip_code": "67282"
  },
  {
    "id": 47552,
    "name": "PATOKAN",
    "zip_code": "67282"
  },
  {
    "id": 47553,
    "name": "RANGANG (RANGKANG)",
    "zip_code": "67282"
  },
  {
    "id": 47554,
    "name": "RONDOKUNING",
    "zip_code": "67282"
  },
  {
    "id": 47555,
    "name": "SEMAMPIR",
    "zip_code": "67282"
  },
  {
    "id": 47556,
    "name": "SIDOMUKTI",
    "zip_code": "67282"
  },
  {
    "id": 47557,
    "name": "SIDOPEKSO",
    "zip_code": "67282"
  },
  {
    "id": 47558,
    "name": "SUMBERLELE",
    "zip_code": "67282"
  },
  {
    "id": 47559,
    "name": "TAMAN SARI",
    "zip_code": "67282"
  }
]