[
  {
    "id": 18490,
    "name": "BOLANG",
    "zip_code": "42391"
  },
  {
    "id": 18491,
    "name": "CILANGKAHAN",
    "zip_code": "42391"
  },
  {
    "id": 18492,
    "name": "CIPEUNDEUY",
    "zip_code": "42313"
  },
  {
    "id": 18493,
    "name": "KADUJAJAR",
    "zip_code": "42391"
  },
  {
    "id": 18494,
    "name": "KERSARATU",
    "zip_code": "42391"
  },
  {
    "id": 18495,
    "name": "MALINGPING SELATAN",
    "zip_code": "42391"
  },
  {
    "id": 18496,
    "name": "MALINGPING UTARA",
    "zip_code": "42391"
  },
  {
    "id": 18497,
    "name": "PAGELARAN",
    "zip_code": "42391"
  },
  {
    "id": 18498,
    "name": "RAHONG",
    "zip_code": "42391"
  },
  {
    "id": 18499,
    "name": "SANGHIANG",
    "zip_code": "42391"
  },
  {
    "id": 18500,
    "name": "SENANGHATI",
    "zip_code": "42391"
  },
  {
    "id": 18501,
    "name": "SUKAMANAH",
    "zip_code": "42391"
  },
  {
    "id": 18502,
    "name": "SUKARAJA",
    "zip_code": "42391"
  },
  {
    "id": 18503,
    "name": "SUMBER WARAS",
    "zip_code": "42391"
  }
]