[
  {
    "id": 481,
    "name": "BOROK TOYANG",
    "zip_code": "83671"
  },
  {
    "id": 482,
    "name": "BOYEMARE",
    "zip_code": "83671"
  },
  {
    "id": 483,
    "name": "BUNGTIANG",
    "zip_code": "83671"
  },
  {
    "id": 484,
    "name": "GADUNGMAS",
    "zip_code": "83671"
  },
  {
    "id": 485,
    "name": "GERISAK SEMANGGELEN",
    "zip_code": "83671"
  },
  {
    "id": 486,
    "name": "GUNUNG RAJAK",
    "zip_code": "83671"
  },
  {
    "id": 487,
    "name": "JEROGUNUNG",
    "zip_code": "83671"
  },
  {
    "id": 488,
    "name": "KEMBANG ARE SAMPAI",
    "zip_code": "83671"
  },
  {
    "id": 489,
    "name": "MENGKURU",
    "zip_code": "83671"
  },
  {
    "id": 490,
    "name": "MONTONG BETER",
    "zip_code": "83671"
  },
  {
    "id": 491,
    "name": "PEJARING",
    "zip_code": "83671"
  },
  {
    "id": 492,
    "name": "PEMATUNG",
    "zip_code": "83671"
  },
  {
    "id": 493,
    "name": "PENGKELAKMAS",
    "zip_code": "83671"
  },
  {
    "id": 494,
    "name": "RENSING",
    "zip_code": "83671"
  },
  {
    "id": 495,
    "name": "RENSING BAT",
    "zip_code": "83671"
  },
  {
    "id": 496,
    "name": "RENSING RAYA",
    "zip_code": "83671"
  },
  {
    "id": 497,
    "name": "SUKARARA",
    "zip_code": "83671"
  },
  {
    "id": 498,
    "name": "TANAK KAKEN",
    "zip_code": "83671"
  }
]