[
  {
    "id": 75358,
    "name": "BANJAR AGUNG",
    "zip_code": "34385"
  },
  {
    "id": 75359,
    "name": "BAUH GUNUNG SARI",
    "zip_code": "34385"
  },
  {
    "id": 75360,
    "name": "BOJONG",
    "zip_code": "34385"
  },
  {
    "id": 75361,
    "name": "BRAWIJAYA",
    "zip_code": "34385"
  },
  {
    "id": 75362,
    "name": "BUMI MULYO",
    "zip_code": "34385"
  },
  {
    "id": 75363,
    "name": "GUNUNG AGUNG",
    "zip_code": "34385"
  },
  {
    "id": 75364,
    "name": "GUNUNG MULYO",
    "zip_code": "34385"
  },
  {
    "id": 75365,
    "name": "GUNUNG PASIR JAYA",
    "zip_code": "34385"
  },
  {
    "id": 75366,
    "name": "GUNUNG SUGIH BESAR",
    "zip_code": "34385"
  },
  {
    "id": 75367,
    "name": "MENGANDUNG SARI",
    "zip_code": "34385"
  },
  {
    "id": 75368,
    "name": "PUGUNG RAHARJO",
    "zip_code": "34385"
  },
  {
    "id": 75369,
    "name": "PURWO KENCONO",
    "zip_code": "34385"
  },
  {
    "id": 75370,
    "name": "SIDOREJO",
    "zip_code": "34385"
  },
  {
    "id": 75371,
    "name": "SINDANG ANOM",
    "zip_code": "34385"
  },
  {
    "id": 75372,
    "name": "TOBA/TUBA",
    "zip_code": "34385"
  }
]