[
  {
    "id": 76286,
    "name": "BAGELEN",
    "zip_code": "35366"
  },
  {
    "id": 76287,
    "name": "BERNUNG",
    "zip_code": "35366"
  },
  {
    "id": 76288,
    "name": "BOGOREJO",
    "zip_code": "35366"
  },
  {
    "id": 76289,
    "name": "CIPADANG",
    "zip_code": "35366"
  },
  {
    "id": 76290,
    "name": "GEDUNG TATAAN",
    "zip_code": "35366"
  },
  {
    "id": 76291,
    "name": "KARANG ANYAR",
    "zip_code": "35366"
  },
  {
    "id": 76292,
    "name": "KEBAGUSAN",
    "zip_code": "35366"
  },
  {
    "id": 76293,
    "name": "KURUNGAN NYAWA",
    "zip_code": "35366"
  },
  {
    "id": 76294,
    "name": "KUTOARJO",
    "zip_code": "35366"
  },
  {
    "id": 76295,
    "name": "NEGERI SAKTI",
    "zip_code": "35366"
  },
  {
    "id": 76296,
    "name": "PADANG RATU",
    "zip_code": "35366"
  },
  {
    "id": 76297,
    "name": "PAMPANGAN",
    "zip_code": "35366"
  },
  {
    "id": 76298,
    "name": "SUKABANJAR",
    "zip_code": "35366"
  },
  {
    "id": 76299,
    "name": "SUKADADI",
    "zip_code": "35366"
  },
  {
    "id": 76300,
    "name": "SUKARAJA",
    "zip_code": "35366"
  },
  {
    "id": 76301,
    "name": "SUNGAI LANGKA",
    "zip_code": "35366"
  },
  {
    "id": 76302,
    "name": "TAMANSARI",
    "zip_code": "35366"
  },
  {
    "id": 76303,
    "name": "WAY LAYAP",
    "zip_code": "35366"
  },
  {
    "id": 76304,
    "name": "WIYONO",
    "zip_code": "35366"
  }
]