[
  {
    "id": 63439,
    "name": "AIR BESAR",
    "zip_code": "98611"
  },
  {
    "id": 63440,
    "name": "BRONGKENDIK",
    "zip_code": "98611"
  },
  {
    "id": 63441,
    "name": "DANAWERIA",
    "zip_code": "98611"
  },
  {
    "id": 63442,
    "name": "HAMBRANGKENDIK",
    "zip_code": "98611"
  },
  {
    "id": 63443,
    "name": "KANANTARE",
    "zip_code": "98611"
  },
  {
    "id": 63444,
    "name": "KATEMBA",
    "zip_code": "98611"
  },
  {
    "id": 63445,
    "name": "KAYU MERAH",
    "zip_code": "98611"
  },
  {
    "id": 63446,
    "name": "MANDOPMA",
    "zip_code": "98611"
  },
  {
    "id": 63447,
    "name": "NEMEWIKARYA",
    "zip_code": "98611"
  },
  {
    "id": 63448,
    "name": "PASIR PUTIH",
    "zip_code": "98611"
  },
  {
    "id": 63449,
    "name": "PIRMA",
    "zip_code": "98611"
  },
  {
    "id": 63450,
    "name": "RADURIA",
    "zip_code": "98611"
  },
  {
    "id": 63451,
    "name": "SAKARTEMIN",
    "zip_code": "98611"
  },
  {
    "id": 63452,
    "name": "UNIPOKPOK",
    "zip_code": "98611"
  }
]