[
  {
    "id": 6955,
    "name": "ARGA INDAH II",
    "zip_code": "38383"
  },
  {
    "id": 6956,
    "name": "BAJAK III",
    "zip_code": "38383"
  },
  {
    "id": 6957,
    "name": "CURUP",
    "zip_code": "38383"
  },
  {
    "id": 6958,
    "name": "DURIAN LEBAR",
    "zip_code": "38383"
  },
  {
    "id": 6959,
    "name": "KARANG PANGGUNG",
    "zip_code": "38383"
  },
  {
    "id": 6960,
    "name": "KOMERING",
    "zip_code": "38383"
  },
  {
    "id": 6961,
    "name": "LUBUK PENDAM",
    "zip_code": "38383"
  },
  {
    "id": 6962,
    "name": "LUBUK PUAR",
    "zip_code": "38383"
  },
  {
    "id": 6963,
    "name": "PAGAR AGUNG",
    "zip_code": "38383"
  },
  {
    "id": 6964,
    "name": "PAGAR BESI",
    "zip_code": "38383"
  },
  {
    "id": 6965,
    "name": "PUNGGUK JAYA",
    "zip_code": "38383"
  },
  {
    "id": 6966,
    "name": "PUNJUNG",
    "zip_code": "38383"
  },
  {
    "id": 6967,
    "name": "RAJAB BESI / RAJAK BESI",
    "zip_code": "38383"
  },
  {
    "id": 6968,
    "name": "SUSUP",
    "zip_code": "38383"
  },
  {
    "id": 6969,
    "name": "TABA GEMATUNG",
    "zip_code": "38383"
  }
]