[
  {
    "id": 32545,
    "name": "ABOLA",
    "zip_code": "93352"
  },
  {
    "id": 32546,
    "name": "ANDEO",
    "zip_code": "93352"
  },
  {
    "id": 32547,
    "name": "ANDUMOWU",
    "zip_code": "93352"
  },
  {
    "id": 32548,
    "name": "BARASANGA",
    "zip_code": "93352"
  },
  {
    "id": 32549,
    "name": "BASULE",
    "zip_code": "93352"
  },
  {
    "id": 32550,
    "name": "BELALO",
    "zip_code": "93352"
  },
  {
    "id": 32551,
    "name": "BOENAGA",
    "zip_code": "93352"
  },
  {
    "id": 32552,
    "name": "KAMPOBUNGA",
    "zip_code": "93352"
  },
  {
    "id": 32553,
    "name": "LABENGKI",
    "zip_code": "93352"
  },
  {
    "id": 32554,
    "name": "LALOWARU",
    "zip_code": "93352"
  },
  {
    "id": 32555,
    "name": "LAMETONO",
    "zip_code": "93352"
  },
  {
    "id": 32556,
    "name": "LARODANGGE",
    "zip_code": "93352"
  },
  {
    "id": 32557,
    "name": "LEMOBAJO",
    "zip_code": "93352"
  },
  {
    "id": 32558,
    "name": "MATAPILA",
    "zip_code": "93352"
  },
  {
    "id": 32559,
    "name": "MOROMBO PANTAI",
    "zip_code": "93352"
  },
  {
    "id": 32560,
    "name": "MUARA TINOBU",
    "zip_code": "93352"
  },
  {
    "id": 32561,
    "name": "OTIPULU",
    "zip_code": "93352"
  },
  {
    "id": 32562,
    "name": "OTOLE",
    "zip_code": "93352"
  },
  {
    "id": 32563,
    "name": "TANJUNG BUNGA",
    "zip_code": "93352"
  },
  {
    "id": 32564,
    "name": "TETELUPAI",
    "zip_code": "93352"
  },
  {
    "id": 32565,
    "name": "TINOBU",
    "zip_code": "93352"
  },
  {
    "id": 32566,
    "name": "TOREO",
    "zip_code": "93352"
  },
  {
    "id": 32567,
    "name": "WATUKILA",
    "zip_code": "93352"
  },
  {
    "id": 32568,
    "name": "WATURAMBAHA",
    "zip_code": "93352"
  },
  {
    "id": 32569,
    "name": "WAWOLESEA",
    "zip_code": "93352"
  },
  {
    "id": 32570,
    "name": "WAWORAHA",
    "zip_code": "93352"
  }
]