[
  {
    "id": 50443,
    "name": "BELANTARAYA",
    "zip_code": "29282"
  },
  {
    "id": 50444,
    "name": "GEMBIRA",
    "zip_code": "29282"
  },
  {
    "id": 50445,
    "name": "JERAMBANG",
    "zip_code": "29282"
  },
  {
    "id": 50446,
    "name": "KUALA LAHANG",
    "zip_code": "29282"
  },
  {
    "id": 50447,
    "name": "LAHANG BARU",
    "zip_code": "29282"
  },
  {
    "id": 50448,
    "name": "LAHANG HULU",
    "zip_code": "29282"
  },
  {
    "id": 50449,
    "name": "LAHANG TENGAH",
    "zip_code": "29282"
  },
  {
    "id": 50450,
    "name": "PINTASAN",
    "zip_code": "29282"
  },
  {
    "id": 50451,
    "name": "PUNGKAT",
    "zip_code": "29282"
  },
  {
    "id": 50452,
    "name": "SEMAMBU KUNING",
    "zip_code": "29282"
  },
  {
    "id": 50453,
    "name": "SIMPANG GAUNG",
    "zip_code": "29282"
  },
  {
    "id": 50454,
    "name": "SOREN",
    "zip_code": "29282"
  },
  {
    "id": 50455,
    "name": "SUNGAI BARU",
    "zip_code": "29282"
  },
  {
    "id": 50456,
    "name": "TELUK KABUNG",
    "zip_code": "29282"
  },
  {
    "id": 50457,
    "name": "TELUKMERBAU",
    "zip_code": "29282"
  },
  {
    "id": 50458,
    "name": "TERUSAN KEMPAS",
    "zip_code": "29282"
  }
]