[
  {
    "id": 68785,
    "name": "BEJI",
    "zip_code": "53454"
  },
  {
    "id": 68786,
    "name": "BITING",
    "zip_code": "53454"
  },
  {
    "id": 68787,
    "name": "CONDONG CAMPUR",
    "zip_code": "53454"
  },
  {
    "id": 68788,
    "name": "DARMAYASA",
    "zip_code": "53454"
  },
  {
    "id": 68789,
    "name": "GEMBOL",
    "zip_code": "53454"
  },
  {
    "id": 68790,
    "name": "GIRITIRTA",
    "zip_code": "53454"
  },
  {
    "id": 68791,
    "name": "GROGOL",
    "zip_code": "53454"
  },
  {
    "id": 68792,
    "name": "KALILUNJAR",
    "zip_code": "53454"
  },
  {
    "id": 68793,
    "name": "KARANGSARI",
    "zip_code": "53454"
  },
  {
    "id": 68794,
    "name": "PANUSUPAN",
    "zip_code": "53454"
  },
  {
    "id": 68795,
    "name": "PEGUNDUNGAN",
    "zip_code": "53454"
  },
  {
    "id": 68796,
    "name": "PEJAWARAN",
    "zip_code": "53454"
  },
  {
    "id": 68797,
    "name": "RATAMBA",
    "zip_code": "53454"
  },
  {
    "id": 68798,
    "name": "SARWODADI",
    "zip_code": "53454"
  },
  {
    "id": 68799,
    "name": "SEMANGKUNG",
    "zip_code": "53454"
  },
  {
    "id": 68800,
    "name": "SIDENGOK",
    "zip_code": "53454"
  },
  {
    "id": 68801,
    "name": "TLAHAP",
    "zip_code": "53454"
  }
]