[
  {
    "id": 75732,
    "name": "PANGGUNG JAYA",
    "zip_code": "34696"
  },
  {
    "id": 75733,
    "name": "PANGGUNG REJO",
    "zip_code": "34696"
  },
  {
    "id": 75734,
    "name": "SIDANG BANDAR ANOM",
    "zip_code": "34696"
  },
  {
    "id": 75735,
    "name": "SIDANG GUNUNG TIGA",
    "zip_code": "34696"
  },
  {
    "id": 75736,
    "name": "SIDANG ISO MUKTI",
    "zip_code": "34696"
  },
  {
    "id": 75737,
    "name": "SIDANG KURNIA AGUNG",
    "zip_code": "34696"
  },
  {
    "id": 75738,
    "name": "SIDANG MAKMUR",
    "zip_code": "34696"
  },
  {
    "id": 75739,
    "name": "SIDANG MUARA JAYA",
    "zip_code": "34696"
  },
  {
    "id": 75740,
    "name": "SIDANG SIDO RAHAYU",
    "zip_code": "34696"
  },
  {
    "id": 75741,
    "name": "SIDANG WAY PUJI",
    "zip_code": "34696"
  },
  {
    "id": 75742,
    "name": "SUNGAI BUAYA",
    "zip_code": "34696"
  },
  {
    "id": 75743,
    "name": "SUNGAI SIDANG",
    "zip_code": "34696"
  },
  {
    "id": 75744,
    "name": "TELOGO REJO",
    "zip_code": "34696"
  }
]