[
  {
    "id": 12569,
    "name": "BUKIT",
    "zip_code": "24519"
  },
  {
    "id": 12570,
    "name": "BUKIT IWIH TAMI DELEM",
    "zip_code": "24519"
  },
  {
    "id": 12571,
    "name": "BUKIT SAMA",
    "zip_code": "24519"
  },
  {
    "id": 12572,
    "name": "GUNUNG BAHGIE",
    "zip_code": "24519"
  },
  {
    "id": 12573,
    "name": "GUNUNG BALOHEN",
    "zip_code": "24519"
  },
  {
    "id": 12574,
    "name": "GUNUNG BUKIT",
    "zip_code": "24519"
  },
  {
    "id": 12575,
    "name": "JONGOK BATHIN",
    "zip_code": "24519"
  },
  {
    "id": 12576,
    "name": "JONGOK MELUEM",
    "zip_code": "24518"
  },
  {
    "id": 12577,
    "name": "KALA LENGKIO",
    "zip_code": "24519"
  },
  {
    "id": 12578,
    "name": "KELUPAK MATA",
    "zip_code": "24519"
  },
  {
    "id": 12579,
    "name": "KUTELOT",
    "zip_code": "24519"
  },
  {
    "id": 12580,
    "name": "LOT KALA",
    "zip_code": "24517"
  },
  {
    "id": 12581,
    "name": "MENDALE",
    "zip_code": "24519"
  },
  {
    "id": 12582,
    "name": "PAYA REJE TAMIDELEM",
    "zip_code": "24519"
  },
  {
    "id": 12583,
    "name": "PAYA TUMPI",
    "zip_code": "24519"
  },
  {
    "id": 12584,
    "name": "PAYA TUMPI BARU",
    "zip_code": "24519"
  },
  {
    "id": 12585,
    "name": "PAYA TUMPI I",
    "zip_code": "24519"
  },
  {
    "id": 12586,
    "name": "PINANGAN",
    "zip_code": "24519"
  },
  {
    "id": 12587,
    "name": "TELEGE ATU",
    "zip_code": "24519"
  },
  {
    "id": 12588,
    "name": "TIMANGAN GADING",
    "zip_code": "24519"
  }
]