[
  {
    "id": 3585,
    "name": "BANYU HIRANG",
    "zip_code": "70652"
  },
  {
    "id": 3586,
    "name": "GAMBUT",
    "zip_code": "70652"
  },
  {
    "id": 3587,
    "name": "GAMBUT BARAT",
    "zip_code": "70652"
  },
  {
    "id": 3588,
    "name": "GUNTUNG PAPUYU",
    "zip_code": "70652"
  },
  {
    "id": 3589,
    "name": "GUNTUNG UJUNG",
    "zip_code": "70652"
  },
  {
    "id": 3590,
    "name": "KAYU BAWANG",
    "zip_code": "70652"
  },
  {
    "id": 3591,
    "name": "KELADAN BARU",
    "zip_code": "70652"
  },
  {
    "id": 3592,
    "name": "MAKMUR",
    "zip_code": "70652"
  },
  {
    "id": 3593,
    "name": "MALINTANG",
    "zip_code": "70652"
  },
  {
    "id": 3594,
    "name": "MALINTANG BARU",
    "zip_code": "70652"
  },
  {
    "id": 3595,
    "name": "SEI/SUNGAI KUPANG",
    "zip_code": "70652"
  },
  {
    "id": 3596,
    "name": "TAMBAK SIRANG BARU",
    "zip_code": "70652"
  },
  {
    "id": 3597,
    "name": "TAMBAK SIRANG DARAT",
    "zip_code": "70652"
  },
  {
    "id": 3598,
    "name": "TAMBAK SIRANG LAUT",
    "zip_code": "70652"
  }
]