[
  {
    "id": 75789,
    "name": "BUKO POSO",
    "zip_code": "34684"
  },
  {
    "id": 75790,
    "name": "BUMI HARAPAN",
    "zip_code": "34684"
  },
  {
    "id": 75791,
    "name": "GEDUNG BOGA",
    "zip_code": "34684"
  },
  {
    "id": 75792,
    "name": "HADI MULYO",
    "zip_code": "34684"
  },
  {
    "id": 75793,
    "name": "KARANG MULYA",
    "zip_code": "34684"
  },
  {
    "id": 75794,
    "name": "KEBUN DALEM",
    "zip_code": "34684"
  },
  {
    "id": 75795,
    "name": "KEJADIAN",
    "zip_code": "34684"
  },
  {
    "id": 75796,
    "name": "LABUHAN BARU",
    "zip_code": "34684"
  },
  {
    "id": 75797,
    "name": "LABUHAN BATIN",
    "zip_code": "34684"
  },
  {
    "id": 75798,
    "name": "LABUHAN MAKMUR",
    "zip_code": "34684"
  },
  {
    "id": 75799,
    "name": "LABUHAN MULYA",
    "zip_code": "34684"
  },
  {
    "id": 75800,
    "name": "LABUHAN PERMAI",
    "zip_code": "34684"
  },
  {
    "id": 75801,
    "name": "MARGO BHAKTI",
    "zip_code": "34684"
  },
  {
    "id": 75802,
    "name": "PANCA WARNA",
    "zip_code": "34684"
  },
  {
    "id": 75803,
    "name": "REJO MULYO",
    "zip_code": "34684"
  },
  {
    "id": 75804,
    "name": "SRI GEDUNG MULYA",
    "zip_code": "34684"
  },
  {
    "id": 75805,
    "name": "SUKA AGUNG",
    "zip_code": "34684"
  },
  {
    "id": 75806,
    "name": "SUKA MANDIRI",
    "zip_code": "34684"
  },
  {
    "id": 75807,
    "name": "SUMBER REJO",
    "zip_code": "34684"
  },
  {
    "id": 75808,
    "name": "TRI TUNGGAL JAYA",
    "zip_code": "34684"
  }
]