[
  {
    "id": 43627,
    "name": "AFDELING VI DOLOK ILIR",
    "zip_code": "20993"
  },
  {
    "id": 43628,
    "name": "AFDELING VII DOLOK ILIR",
    "zip_code": "20993"
  },
  {
    "id": 43629,
    "name": "BAH DAMAR",
    "zip_code": "20993"
  },
  {
    "id": 43630,
    "name": "BANDARAWAN",
    "zip_code": "20993"
  },
  {
    "id": 43631,
    "name": "DOLOK MERAWAN",
    "zip_code": "20993"
  },
  {
    "id": 43632,
    "name": "GUNUNG PARA II",
    "zip_code": "20993"
  },
  {
    "id": 43633,
    "name": "KALEMBAK",
    "zip_code": "20993"
  },
  {
    "id": 43634,
    "name": "KORAJIM",
    "zip_code": "20993"
  },
  {
    "id": 43635,
    "name": "LIMBONG",
    "zip_code": "20993"
  },
  {
    "id": 43636,
    "name": "MAINU TENGAH/TONGAH",
    "zip_code": "20993"
  },
  {
    "id": 43637,
    "name": "NAGARAJA I",
    "zip_code": "20993"
  },
  {
    "id": 43638,
    "name": "PABATU I",
    "zip_code": "20993"
  },
  {
    "id": 43639,
    "name": "PABATU II",
    "zip_code": "20993"
  },
  {
    "id": 43640,
    "name": "PABATU III",
    "zip_code": "20993"
  },
  {
    "id": 43641,
    "name": "PABATU VI",
    "zip_code": "20993"
  },
  {
    "id": 43642,
    "name": "PANGLONG",
    "zip_code": "20993"
  },
  {
    "id": 43643,
    "name": "PARETOKAN (PARITOKAN)",
    "zip_code": "20993"
  }
]