[
  {
    "id": 54682,
    "name": "ARGO MULYO",
    "zip_code": "30975"
  },
  {
    "id": 54683,
    "name": "BERINGIN AGUNG",
    "zip_code": "30975"
  },
  {
    "id": 54684,
    "name": "CENDANA",
    "zip_code": "30975"
  },
  {
    "id": 54685,
    "name": "DAYA BANGUN HARJO",
    "zip_code": "30975"
  },
  {
    "id": 54686,
    "name": "DAYA KUSUMA/KESUMA",
    "zip_code": "30975"
  },
  {
    "id": 54687,
    "name": "DAYA MURNI",
    "zip_code": "30975"
  },
  {
    "id": 54688,
    "name": "GANESHA MUKTI",
    "zip_code": "30975"
  },
  {
    "id": 54689,
    "name": "GILIRANG",
    "zip_code": "30975"
  },
  {
    "id": 54690,
    "name": "INDRAPURA",
    "zip_code": "30975"
  },
  {
    "id": 54691,
    "name": "JALUR MULYA",
    "zip_code": "30975"
  },
  {
    "id": 54692,
    "name": "JURU TARO (TAROH)",
    "zip_code": "30975"
  },
  {
    "id": 54693,
    "name": "KUALA/KUALO SUGIHAN",
    "zip_code": "30975"
  },
  {
    "id": 54694,
    "name": "MAREGA RUKUN (MARGO/MARGA RUKUN)",
    "zip_code": "30975"
  },
  {
    "id": 54695,
    "name": "MARGO MULYO 16",
    "zip_code": "30975"
  },
  {
    "id": 54696,
    "name": "MEKAR JAYA",
    "zip_code": "30975"
  },
  {
    "id": 54697,
    "name": "REJOSARI",
    "zip_code": "30975"
  },
  {
    "id": 54698,
    "name": "SIDO MAKMUR",
    "zip_code": "30975"
  },
  {
    "id": 54699,
    "name": "SUGIH WARAS",
    "zip_code": "30975"
  },
  {
    "id": 54700,
    "name": "SUMBER MULYO",
    "zip_code": "30975"
  },
  {
    "id": 54701,
    "name": "TIMBUL JAYA",
    "zip_code": "30975"
  },
  {
    "id": 54702,
    "name": "TIRTA/TIRTO MULYO",
    "zip_code": "30975"
  },
  {
    "id": 54703,
    "name": "TIRTO HARJO",
    "zip_code": "30975"
  }
]