[
  {
    "id": 82657,
    "name": "BURANA",
    "zip_code": "91372"
  },
  {
    "id": 82658,
    "name": "GANDANG DEWATA",
    "zip_code": "91372"
  },
  {
    "id": 82659,
    "name": "LAKAHANG",
    "zip_code": "91372"
  },
  {
    "id": 82660,
    "name": "LAKAHANG UTAMA",
    "zip_code": "91372"
  },
  {
    "id": 82661,
    "name": "MALATIRO",
    "zip_code": "91372"
  },
  {
    "id": 82662,
    "name": "PANGANDARAN",
    "zip_code": "91372"
  },
  {
    "id": 82663,
    "name": "PERIANGAN",
    "zip_code": "91372"
  },
  {
    "id": 82664,
    "name": "PEU",
    "zip_code": "91372"
  },
  {
    "id": 82665,
    "name": "SALUBAKKA",
    "zip_code": "91372"
  },
  {
    "id": 82666,
    "name": "SALULEANG",
    "zip_code": "91372"
  },
  {
    "id": 82667,
    "name": "TABULAHAN",
    "zip_code": "91372"
  },
  {
    "id": 82668,
    "name": "TALOPAK",
    "zip_code": "91372"
  },
  {
    "id": 82669,
    "name": "TAMPAK KURRA",
    "zip_code": "91372"
  },
  {
    "id": 82670,
    "name": "TIMORO",
    "zip_code": "91372"
  }
]