[
  {
    "id": 11279,
    "name": "AUNAN SEPAKAT",
    "zip_code": "24652"
  },
  {
    "id": 11280,
    "name": "BENER MEPAPAH",
    "zip_code": "24652"
  },
  {
    "id": 11281,
    "name": "BINTANG BENER",
    "zip_code": "24652"
  },
  {
    "id": 11282,
    "name": "BUKIT MBAKHU",
    "zip_code": "24652"
  },
  {
    "id": 11283,
    "name": "DATOK PINING",
    "zip_code": "24652"
  },
  {
    "id": 11284,
    "name": "DELENG DAMAR",
    "zip_code": "24652"
  },
  {
    "id": 11285,
    "name": "JAMBUR LAK LAK",
    "zip_code": "24652"
  },
  {
    "id": 11286,
    "name": "JATI RASA",
    "zip_code": "24652"
  },
  {
    "id": 11287,
    "name": "JONGAR",
    "zip_code": "24652"
  },
  {
    "id": 11288,
    "name": "KATI MAJU",
    "zip_code": "24652"
  },
  {
    "id": 11289,
    "name": "KAYU MENTANGUR",
    "zip_code": "24652"
  },
  {
    "id": 11290,
    "name": "KETAMBE",
    "zip_code": "24652"
  },
  {
    "id": 11291,
    "name": "LAWE AUNAN",
    "zip_code": "24652"
  },
  {
    "id": 11292,
    "name": "LAWE BEKHINGIN",
    "zip_code": "24652"
  },
  {
    "id": 11293,
    "name": "LAWE GER GER",
    "zip_code": "24652"
  },
  {
    "id": 11294,
    "name": "LAWE MENGKUDU",
    "zip_code": "24652"
  },
  {
    "id": 11295,
    "name": "LAWE PENANGGALAN",
    "zip_code": "24652"
  },
  {
    "id": 11296,
    "name": "LAWE SEMBEKAN",
    "zip_code": "24652"
  },
  {
    "id": 11297,
    "name": "LOUSER",
    "zip_code": "24652"
  },
  {
    "id": 11298,
    "name": "PENUNGKUNEN",
    "zip_code": "24652"
  },
  {
    "id": 11299,
    "name": "PENYEBERANGAN CINGKAM",
    "zip_code": "24652"
  },
  {
    "id": 11300,
    "name": "RUMAH BUNDAR",
    "zip_code": "24652"
  },
  {
    "id": 11301,
    "name": "SIMPANG III JONGAR",
    "zip_code": "24652"
  },
  {
    "id": 11302,
    "name": "SIMPUR JAYA",
    "zip_code": "24652"
  },
  {
    "id": 11303,
    "name": "SUKA RIMBUN",
    "zip_code": "24652"
  }
]