[
  {
    "id": 16842,
    "name": "CIPARAY",
    "zip_code": "45473"
  },
  {
    "id": 16843,
    "name": "HEULEUT",
    "zip_code": "45473"
  },
  {
    "id": 16844,
    "name": "KARANGASEM",
    "zip_code": "45473"
  },
  {
    "id": 16845,
    "name": "LAME",
    "zip_code": "45473"
  },
  {
    "id": 16846,
    "name": "LEUWIKUJANG",
    "zip_code": "45473"
  },
  {
    "id": 16847,
    "name": "LEUWIMUNDING",
    "zip_code": "45473"
  },
  {
    "id": 16848,
    "name": "MINDI",
    "zip_code": "45473"
  },
  {
    "id": 16849,
    "name": "MIRAT",
    "zip_code": "45473"
  },
  {
    "id": 16850,
    "name": "NANGGERANG",
    "zip_code": "45473"
  },
  {
    "id": 16851,
    "name": "PARAKAN",
    "zip_code": "45473"
  },
  {
    "id": 16852,
    "name": "PARUNGJAYA",
    "zip_code": "45473"
  },
  {
    "id": 16853,
    "name": "PATUANAN",
    "zip_code": "45473"
  },
  {
    "id": 16854,
    "name": "RAJAWANGI",
    "zip_code": "45473"
  },
  {
    "id": 16855,
    "name": "TANJUNGSARI",
    "zip_code": "45473"
  }
]