[
  {
    "id": 69387,
    "name": "BABATAN",
    "zip_code": "61173"
  },
  {
    "id": 69388,
    "name": "BALONGPANGGANG",
    "zip_code": "61173"
  },
  {
    "id": 69389,
    "name": "BANDUNGSEKARAN",
    "zip_code": "61173"
  },
  {
    "id": 69390,
    "name": "BANJARAGUNG",
    "zip_code": "61173"
  },
  {
    "id": 69391,
    "name": "BRANGKAL",
    "zip_code": "61173"
  },
  {
    "id": 69392,
    "name": "DAPET",
    "zip_code": "61173"
  },
  {
    "id": 69393,
    "name": "DOHOAGUNG",
    "zip_code": "61173"
  },
  {
    "id": 69394,
    "name": "GANGGANG",
    "zip_code": "61173"
  },
  {
    "id": 69395,
    "name": "JOMBANGDELIK",
    "zip_code": "61173"
  },
  {
    "id": 69396,
    "name": "KARANGSEMANDING",
    "zip_code": "61173"
  },
  {
    "id": 69397,
    "name": "KEDUNGPRING",
    "zip_code": "61173"
  },
  {
    "id": 69398,
    "name": "KEDUNGSUMBER",
    "zip_code": "61173"
  },
  {
    "id": 69399,
    "name": "KLOTOK",
    "zip_code": "61173"
  },
  {
    "id": 69400,
    "name": "MOJOGEDE",
    "zip_code": "61173"
  },
  {
    "id": 69401,
    "name": "NGAMPEL",
    "zip_code": "61173"
  },
  {
    "id": 69402,
    "name": "NGASIN",
    "zip_code": "61173"
  },
  {
    "id": 69403,
    "name": "PACUH",
    "zip_code": "61173"
  },
  {
    "id": 69404,
    "name": "PINGGIR",
    "zip_code": "61173"
  },
  {
    "id": 69405,
    "name": "PUCUNG",
    "zip_code": "61173"
  },
  {
    "id": 69406,
    "name": "SEKARPUTIH",
    "zip_code": "61173"
  },
  {
    "id": 69407,
    "name": "TANAHLANDEAN",
    "zip_code": "61173"
  },
  {
    "id": 69408,
    "name": "TENGGOR",
    "zip_code": "61173"
  },
  {
    "id": 69409,
    "name": "WAHAS",
    "zip_code": "61173"
  },
  {
    "id": 69410,
    "name": "WONOREJO",
    "zip_code": "61173"
  },
  {
    "id": 69411,
    "name": "WOTANSARI",
    "zip_code": "61173"
  }
]