[
  {
    "id": 34077,
    "name": "ADAN-ADAN",
    "zip_code": "64181"
  },
  {
    "id": 34078,
    "name": "BANGKOK",
    "zip_code": "64181"
  },
  {
    "id": 34079,
    "name": "BANYUANYAR",
    "zip_code": "64181"
  },
  {
    "id": 34080,
    "name": "BESUK",
    "zip_code": "64181"
  },
  {
    "id": 34081,
    "name": "BLIMBING",
    "zip_code": "64181"
  },
  {
    "id": 34082,
    "name": "BOGEM",
    "zip_code": "64181"
  },
  {
    "id": 34083,
    "name": "GABRU",
    "zip_code": "64181"
  },
  {
    "id": 34084,
    "name": "GAYAM",
    "zip_code": "64113"
  },
  {
    "id": 34085,
    "name": "GEMPOLAN",
    "zip_code": "64181"
  },
  {
    "id": 34086,
    "name": "GURAH",
    "zip_code": "64181"
  },
  {
    "id": 34087,
    "name": "KERKEP",
    "zip_code": "64181"
  },
  {
    "id": 34088,
    "name": "KRANGGAN",
    "zip_code": "64181"
  },
  {
    "id": 34089,
    "name": "NGASEM",
    "zip_code": "64181"
  },
  {
    "id": 34090,
    "name": "NGLUMBANG",
    "zip_code": "64181"
  },
  {
    "id": 34091,
    "name": "SUKOREJO",
    "zip_code": "64181"
  },
  {
    "id": 34092,
    "name": "SUMBERCANGKRING",
    "zip_code": "64181"
  },
  {
    "id": 34093,
    "name": "TAMBAKREJO",
    "zip_code": "64181"
  },
  {
    "id": 34094,
    "name": "TIRU KIDUL",
    "zip_code": "64181"
  },
  {
    "id": 34095,
    "name": "TIRU LOR",
    "zip_code": "64181"
  },
  {
    "id": 34096,
    "name": "TURUS",
    "zip_code": "64181"
  },
  {
    "id": 34097,
    "name": "WONOJOYO",
    "zip_code": "64181"
  }
]