[
  {
    "id": 25028,
    "name": "DABRA",
    "zip_code": "99377"
  },
  {
    "id": 25029,
    "name": "DOU",
    "zip_code": "99377"
  },
  {
    "id": 25030,
    "name": "FARIA",
    "zip_code": "99377"
  },
  {
    "id": 25031,
    "name": "FOKRI",
    "zip_code": "99377"
  },
  {
    "id": 25032,
    "name": "FONA",
    "zip_code": "99377"
  },
  {
    "id": 25033,
    "name": "FUAO",
    "zip_code": "99377"
  },
  {
    "id": 25034,
    "name": "HAIYA",
    "zip_code": "99377"
  },
  {
    "id": 25035,
    "name": "KALY",
    "zip_code": "99377"
  },
  {
    "id": 25036,
    "name": "PEPASENA I",
    "zip_code": "99377"
  },
  {
    "id": 25037,
    "name": "PEPASENA II",
    "zip_code": "99377"
  },
  {
    "id": 25038,
    "name": "SIKARI",
    "zip_code": "99377"
  },
  {
    "id": 25039,
    "name": "TAIYEVE",
    "zip_code": "99377"
  },
  {
    "id": 25040,
    "name": "TAYAI",
    "zip_code": "99377"
  },
  {
    "id": 25041,
    "name": "TAYALI",
    "zip_code": "99377"
  }
]