[
  {
    "id": 3299,
    "name": "BAYUR",
    "zip_code": "71471"
  },
  {
    "id": 3300,
    "name": "HAUR GADING",
    "zip_code": "71471"
  },
  {
    "id": 3301,
    "name": "JINGAH BUJUR",
    "zip_code": "71471"
  },
  {
    "id": 3302,
    "name": "KERAMAT/KARAMAT",
    "zip_code": "71471"
  },
  {
    "id": 3303,
    "name": "LOKSOGA/LOK SUGA",
    "zip_code": "71471"
  },
  {
    "id": 3304,
    "name": "PALIMBANGAN",
    "zip_code": "71471"
  },
  {
    "id": 3305,
    "name": "PALIMBANGAN GUSTI",
    "zip_code": "71471"
  },
  {
    "id": 3306,
    "name": "PALIMBANGAN SARI",
    "zip_code": "71471"
  },
  {
    "id": 3307,
    "name": "PANAWAKAN",
    "zip_code": "71471"
  },
  {
    "id": 3308,
    "name": "PIHAUNG",
    "zip_code": "71471"
  },
  {
    "id": 3309,
    "name": "PULANTANI/POLANTANI",
    "zip_code": "71471"
  },
  {
    "id": 3310,
    "name": "SEI/SUNGAI BINUANG",
    "zip_code": "71471"
  },
  {
    "id": 3311,
    "name": "SEI/SUNGAI LIMAS",
    "zip_code": "71471"
  },
  {
    "id": 3312,
    "name": "TAMBAK SARI PANJI",
    "zip_code": "71471"
  },
  {
    "id": 3313,
    "name": "TANGKAWANG",
    "zip_code": "71471"
  },
  {
    "id": 3314,
    "name": "TELUK HAUR",
    "zip_code": "71471"
  },
  {
    "id": 3315,
    "name": "TUHURAN",
    "zip_code": "71471"
  },
  {
    "id": 3316,
    "name": "WARINGIN",
    "zip_code": "71471"
  }
]