[
  {
    "id": 40423,
    "name": "BANGET",
    "zip_code": "63283"
  },
  {
    "id": 40424,
    "name": "BUDUG",
    "zip_code": "63283"
  },
  {
    "id": 40425,
    "name": "DINDEN",
    "zip_code": "63283"
  },
  {
    "id": 40426,
    "name": "JENANGAN",
    "zip_code": "63283"
  },
  {
    "id": 40427,
    "name": "KARANGSONO",
    "zip_code": "63283"
  },
  {
    "id": 40428,
    "name": "KENDUNG",
    "zip_code": "63283"
  },
  {
    "id": 40429,
    "name": "KWADUNGAN",
    "zip_code": "63283"
  },
  {
    "id": 40430,
    "name": "MOJOMANIS",
    "zip_code": "63283"
  },
  {
    "id": 40431,
    "name": "POJOK",
    "zip_code": "63283"
  },
  {
    "id": 40432,
    "name": "PURWOSARI",
    "zip_code": "63283"
  },
  {
    "id": 40433,
    "name": "SIMO",
    "zip_code": "63283"
  },
  {
    "id": 40434,
    "name": "SUMENGKO",
    "zip_code": "63283"
  },
  {
    "id": 40435,
    "name": "TIRAK",
    "zip_code": "63283"
  },
  {
    "id": 40436,
    "name": "WARUK KALONG",
    "zip_code": "63283"
  }
]