[
  {
    "id": 13492,
    "name": "ALUR CUCUR",
    "zip_code": "24474"
  },
  {
    "id": 13493,
    "name": "ALUR MANIS",
    "zip_code": "24474"
  },
  {
    "id": 13494,
    "name": "BENUA RAJA",
    "zip_code": "24474"
  },
  {
    "id": 13495,
    "name": "INGIN JAYA",
    "zip_code": "24474"
  },
  {
    "id": 13496,
    "name": "JAMUR JELATANG",
    "zip_code": "24474"
  },
  {
    "id": 13497,
    "name": "JAMUR LABU",
    "zip_code": "24474"
  },
  {
    "id": 13498,
    "name": "KAMP PERTAMINA",
    "zip_code": "24474"
  },
  {
    "id": 13499,
    "name": "KAMPUNG DURIAN",
    "zip_code": "24474"
  },
  {
    "id": 13500,
    "name": "KEBUN RANTAU",
    "zip_code": "24474"
  },
  {
    "id": 13501,
    "name": "LANDUH",
    "zip_code": "24474"
  },
  {
    "id": 13502,
    "name": "PAYA BEDI",
    "zip_code": "24474"
  },
  {
    "id": 13503,
    "name": "RANTAU PAUH",
    "zip_code": "24474"
  },
  {
    "id": 13504,
    "name": "SUKA MULIA",
    "zip_code": "24474"
  },
  {
    "id": 13505,
    "name": "SUKA RAHMAT",
    "zip_code": "24474"
  },
  {
    "id": 13506,
    "name": "SUKA RAKYAT",
    "zip_code": "24474"
  },
  {
    "id": 13507,
    "name": "SUKAJADI",
    "zip_code": "24474"
  }
]