[
  {
    "id": 52281,
    "name": "BABAUNG",
    "zip_code": "74362"
  },
  {
    "id": 52282,
    "name": "BABRIAH",
    "zip_code": "74362"
  },
  {
    "id": 52283,
    "name": "BAMADU",
    "zip_code": "74362"
  },
  {
    "id": 52284,
    "name": "BANTIAN",
    "zip_code": "74362"
  },
  {
    "id": 52285,
    "name": "BAPINANG HILIR",
    "zip_code": "74362"
  },
  {
    "id": 52286,
    "name": "BAPINANG HILIR LAUT",
    "zip_code": "74362"
  },
  {
    "id": 52287,
    "name": "BAPINANG HULU",
    "zip_code": "74362"
  },
  {
    "id": 52288,
    "name": "HANAUT",
    "zip_code": "74362"
  },
  {
    "id": 52289,
    "name": "HANTIPAN",
    "zip_code": "74362"
  },
  {
    "id": 52290,
    "name": "MAKARTI JAYA",
    "zip_code": "74362"
  },
  {
    "id": 52291,
    "name": "PENYAGUAN",
    "zip_code": "74362"
  },
  {
    "id": 52292,
    "name": "RAWA SARI",
    "zip_code": "74362"
  },
  {
    "id": 52293,
    "name": "SATIRUK",
    "zip_code": "74362"
  },
  {
    "id": 52294,
    "name": "SERAMBUT",
    "zip_code": "74362"
  }
]