[
  {
    "id": 40111,
    "name": "BELOTAN",
    "zip_code": "63384"
  },
  {
    "id": 40112,
    "name": "BENDO",
    "zip_code": "63384"
  },
  {
    "id": 40113,
    "name": "BULAK",
    "zip_code": "63384"
  },
  {
    "id": 40114,
    "name": "BULUGLEDEG",
    "zip_code": "63384"
  },
  {
    "id": 40115,
    "name": "CARIKAN",
    "zip_code": "63384"
  },
  {
    "id": 40116,
    "name": "DUKUH",
    "zip_code": "63384"
  },
  {
    "id": 40117,
    "name": "DUWET",
    "zip_code": "63384"
  },
  {
    "id": 40118,
    "name": "KINANDANG",
    "zip_code": "63384"
  },
  {
    "id": 40119,
    "name": "KLECO",
    "zip_code": "63384"
  },
  {
    "id": 40120,
    "name": "KLEDOKAN",
    "zip_code": "63384"
  },
  {
    "id": 40121,
    "name": "LEMAHBANG",
    "zip_code": "63384"
  },
  {
    "id": 40122,
    "name": "PINGKUK",
    "zip_code": "63384"
  },
  {
    "id": 40123,
    "name": "SETREN",
    "zip_code": "63384"
  },
  {
    "id": 40124,
    "name": "SOCO",
    "zip_code": "63384"
  },
  {
    "id": 40125,
    "name": "TANJUNG",
    "zip_code": "63384"
  },
  {
    "id": 40126,
    "name": "TEGALARUM",
    "zip_code": "63384"
  }
]