[
  {
    "id": 55487,
    "name": "BATU BELANG DUA",
    "zip_code": "32211"
  },
  {
    "id": 55488,
    "name": "BATU BELANG JAYA",
    "zip_code": "32211"
  },
  {
    "id": 55489,
    "name": "BUMI AGUNG",
    "zip_code": "32211"
  },
  {
    "id": 55490,
    "name": "DATAR",
    "zip_code": "32211"
  },
  {
    "id": 55491,
    "name": "GEDUNG LEPIHAN",
    "zip_code": "32211"
  },
  {
    "id": 55492,
    "name": "GUNUNG TIGA",
    "zip_code": "32211"
  },
  {
    "id": 55493,
    "name": "KISAU",
    "zip_code": "32211"
  },
  {
    "id": 55494,
    "name": "MEHANGGIN",
    "zip_code": "32211"
  },
  {
    "id": 55495,
    "name": "PANCUR PUNGAH",
    "zip_code": "32211"
  },
  {
    "id": 55496,
    "name": "PASAR MUARADUA",
    "zip_code": "32211"
  },
  {
    "id": 55497,
    "name": "PELANGKI",
    "zip_code": "32211"
  },
  {
    "id": 55498,
    "name": "PENDAGAN",
    "zip_code": "32211"
  },
  {
    "id": 55499,
    "name": "SUKA BANJAR",
    "zip_code": "32211"
  },
  {
    "id": 55500,
    "name": "SUKARAJA DUA",
    "zip_code": "32211"
  }
]