[
  {
    "id": 68095,
    "name": "BENDO",
    "zip_code": "59272"
  },
  {
    "id": 68096,
    "name": "BLIMBING",
    "zip_code": "59272"
  },
  {
    "id": 68097,
    "name": "JATISARI",
    "zip_code": "59272"
  },
  {
    "id": 68098,
    "name": "JURANGJERO",
    "zip_code": "59272"
  },
  {
    "id": 68099,
    "name": "LABUHAN KIDUL",
    "zip_code": "59272"
  },
  {
    "id": 68100,
    "name": "LANGGAR",
    "zip_code": "59272"
  },
  {
    "id": 68101,
    "name": "LERAN",
    "zip_code": "59272"
  },
  {
    "id": 68102,
    "name": "MANGGAR",
    "zip_code": "59272"
  },
  {
    "id": 68103,
    "name": "PANGKALAN",
    "zip_code": "59272"
  },
  {
    "id": 68104,
    "name": "RAKITAN",
    "zip_code": "59272"
  },
  {
    "id": 68105,
    "name": "SANETAN",
    "zip_code": "59272"
  },
  {
    "id": 68106,
    "name": "SENDANGMULYO",
    "zip_code": "59272"
  },
  {
    "id": 68107,
    "name": "SLUKE",
    "zip_code": "59272"
  },
  {
    "id": 68108,
    "name": "TRAHAN",
    "zip_code": "59272"
  }
]