[
  {
    "id": 75534,
    "name": "BANDAR DALAM",
    "zip_code": "34769"
  },
  {
    "id": 75535,
    "name": "BANDAR KASIH",
    "zip_code": "34769"
  },
  {
    "id": 75536,
    "name": "GEDUNG HARAPAN",
    "zip_code": "34769"
  },
  {
    "id": 75537,
    "name": "GEDUNG JAYA",
    "zip_code": "34769"
  },
  {
    "id": 75538,
    "name": "GEDUNG MENENG",
    "zip_code": "34769"
  },
  {
    "id": 75539,
    "name": "KALI PAPAN",
    "zip_code": "34769"
  },
  {
    "id": 75540,
    "name": "KARYA AGUNG",
    "zip_code": "34769"
  },
  {
    "id": 75541,
    "name": "KOTA BARU",
    "zip_code": "34769"
  },
  {
    "id": 75542,
    "name": "KOTABUMI WAY KANAN",
    "zip_code": "34769"
  },
  {
    "id": 75543,
    "name": "MULYA AGUNG",
    "zip_code": "34769"
  },
  {
    "id": 75544,
    "name": "MULYA SARI",
    "zip_code": "34769"
  },
  {
    "id": 75545,
    "name": "NEGERI AGUNG",
    "zip_code": "34769"
  },
  {
    "id": 75546,
    "name": "PENENGAHAN",
    "zip_code": "34769"
  },
  {
    "id": 75547,
    "name": "PULAU BATU",
    "zip_code": "34769"
  },
  {
    "id": 75548,
    "name": "REJO SARI",
    "zip_code": "34769"
  },
  {
    "id": 75549,
    "name": "SUMBER REJEKI",
    "zip_code": "34769"
  },
  {
    "id": 75550,
    "name": "SUNSANG",
    "zip_code": "34769"
  },
  {
    "id": 75551,
    "name": "TANJUNG REJO",
    "zip_code": "34769"
  },
  {
    "id": 75552,
    "name": "WAY LIMAU",
    "zip_code": "34769"
  }
]