[
  {
    "id": 66068,
    "name": "BRENGGOLO",
    "zip_code": "62152"
  },
  {
    "id": 66069,
    "name": "GREBEGAN",
    "zip_code": "62152"
  },
  {
    "id": 66070,
    "name": "KALITIDU",
    "zip_code": "62152"
  },
  {
    "id": 66071,
    "name": "LERAN",
    "zip_code": "62152"
  },
  {
    "id": 66072,
    "name": "MAYANGGENENG",
    "zip_code": "62152"
  },
  {
    "id": 66073,
    "name": "MAYANGREJO",
    "zip_code": "62152"
  },
  {
    "id": 66074,
    "name": "MLATEN",
    "zip_code": "62152"
  },
  {
    "id": 66075,
    "name": "MOJO",
    "zip_code": "62152"
  },
  {
    "id": 66076,
    "name": "MOJOSARI",
    "zip_code": "62152"
  },
  {
    "id": 66077,
    "name": "NGRINGINREJO",
    "zip_code": "62152"
  },
  {
    "id": 66078,
    "name": "NGUJO",
    "zip_code": "62152"
  },
  {
    "id": 66079,
    "name": "PANJUNAN",
    "zip_code": "62152"
  },
  {
    "id": 66080,
    "name": "PILANGSARI",
    "zip_code": "62152"
  },
  {
    "id": 66081,
    "name": "PUNGPUNGAN",
    "zip_code": "62152"
  },
  {
    "id": 66082,
    "name": "SUKOHARJO",
    "zip_code": "62152"
  },
  {
    "id": 66083,
    "name": "SUMENGKO",
    "zip_code": "62152"
  },
  {
    "id": 66084,
    "name": "TALOK",
    "zip_code": "62152"
  },
  {
    "id": 66085,
    "name": "WOTAN NGARE",
    "zip_code": "62152"
  }
]