[
  {
    "id": 66646,
    "name": "BABAD",
    "zip_code": "59583"
  },
  {
    "id": 66647,
    "name": "KEBONAGUNG",
    "zip_code": "59583"
  },
  {
    "id": 66648,
    "name": "KLAMPOK LOR",
    "zip_code": "59583"
  },
  {
    "id": 66649,
    "name": "MANGUNAN LOR",
    "zip_code": "59583"
  },
  {
    "id": 66650,
    "name": "MANGUNREJO",
    "zip_code": "59583"
  },
  {
    "id": 66651,
    "name": "MEGONTEN",
    "zip_code": "59583"
  },
  {
    "id": 66652,
    "name": "MIJEN",
    "zip_code": "59583"
  },
  {
    "id": 66653,
    "name": "PILANGWETAN",
    "zip_code": "59583"
  },
  {
    "id": 66654,
    "name": "PRIGI",
    "zip_code": "59583"
  },
  {
    "id": 66655,
    "name": "SARIMULYO",
    "zip_code": "59583"
  },
  {
    "id": 66656,
    "name": "SOKO KIDUL",
    "zip_code": "59583"
  },
  {
    "id": 66657,
    "name": "SOLOWIRE",
    "zip_code": "59583"
  },
  {
    "id": 66658,
    "name": "TLOGOSIH",
    "zip_code": "59583"
  },
  {
    "id": 66659,
    "name": "WERDOYO",
    "zip_code": "59583"
  }
]