[
  {
    "id": 74167,
    "name": "BANJAR AGUNG",
    "zip_code": "35365"
  },
  {
    "id": 74168,
    "name": "FAJAR BARU",
    "zip_code": "35365"
  },
  {
    "id": 74169,
    "name": "GEDUNG AGUNG",
    "zip_code": "35365"
  },
  {
    "id": 74170,
    "name": "GEDUNG HARAPAN",
    "zip_code": "35365"
  },
  {
    "id": 74171,
    "name": "JATIMULYO",
    "zip_code": "35365"
  },
  {
    "id": 74172,
    "name": "KARANG ANYAR",
    "zip_code": "35365"
  },
  {
    "id": 74173,
    "name": "KARANG REJO",
    "zip_code": "35365"
  },
  {
    "id": 74174,
    "name": "KARANG SARI",
    "zip_code": "35365"
  },
  {
    "id": 74175,
    "name": "MARGA KAYA",
    "zip_code": "35365"
  },
  {
    "id": 74176,
    "name": "MARGA/MARGO AGUNG",
    "zip_code": "35365"
  },
  {
    "id": 74177,
    "name": "MARGO DADI/DARI",
    "zip_code": "35365"
  },
  {
    "id": 74178,
    "name": "MARGO LESTARI",
    "zip_code": "35365"
  },
  {
    "id": 74179,
    "name": "MARGO REJO",
    "zip_code": "35365"
  },
  {
    "id": 74180,
    "name": "MARGOMULYO",
    "zip_code": "35365"
  },
  {
    "id": 74181,
    "name": "PURWOTANI",
    "zip_code": "35365"
  },
  {
    "id": 74182,
    "name": "REJOMULYO",
    "zip_code": "35365"
  },
  {
    "id": 74183,
    "name": "SIDOASRI (SIDODADI ASRI)",
    "zip_code": "35365"
  },
  {
    "id": 74184,
    "name": "SIDOHARJO",
    "zip_code": "35365"
  },
  {
    "id": 74185,
    "name": "SINAR REJEKI",
    "zip_code": "35365"
  },
  {
    "id": 74186,
    "name": "SUMBER JAYA",
    "zip_code": "35365"
  },
  {
    "id": 74187,
    "name": "WAY HUWI",
    "zip_code": "35365"
  }
]