[
  {
    "id": 43792,
    "name": "BANDAR MAGONDANG (NAGODANG)",
    "zip_code": "20984"
  },
  {
    "id": 43793,
    "name": "BANDAR NEGERI",
    "zip_code": "20984"
  },
  {
    "id": 43794,
    "name": "BANDAR PINANG KEBUN/KEBON",
    "zip_code": "20984"
  },
  {
    "id": 43795,
    "name": "BANDAR PINANG RAMBE",
    "zip_code": "20984"
  },
  {
    "id": 43796,
    "name": "BINTANG BAYU",
    "zip_code": "20984"
  },
  {
    "id": 43797,
    "name": "DAMAK TOLONG BUHO",
    "zip_code": "20984"
  },
  {
    "id": 43798,
    "name": "DOLOK MASANGO",
    "zip_code": "20984"
  },
  {
    "id": 43799,
    "name": "GUDANG GARAM",
    "zip_code": "20984"
  },
  {
    "id": 43800,
    "name": "HUTA DURIAN",
    "zip_code": "20984"
  },
  {
    "id": 43801,
    "name": "KAMPUNG KRISTEN",
    "zip_code": "20984"
  },
  {
    "id": 43802,
    "name": "MARIHAT DOLOK",
    "zip_code": "20984"
  },
  {
    "id": 43803,
    "name": "PANOMBEAN",
    "zip_code": "20984"
  },
  {
    "id": 43804,
    "name": "PERGAJAHAN/PEGAJAHAN HULU",
    "zip_code": "20984"
  },
  {
    "id": 43805,
    "name": "PERGAJAHAN/PEGAJAHAN KAHAN",
    "zip_code": "20984"
  },
  {
    "id": 43806,
    "name": "SARANG GINTING HULU",
    "zip_code": "20984"
  },
  {
    "id": 43807,
    "name": "SARANG GINTING KAHAN",
    "zip_code": "20984"
  },
  {
    "id": 43808,
    "name": "SIAHAP",
    "zip_code": "20984"
  },
  {
    "id": 43809,
    "name": "UJUNG NEGERI HULU",
    "zip_code": "20984"
  },
  {
    "id": 43810,
    "name": "UJUNG NEGERI KAHAN",
    "zip_code": "20984"
  }
]