[
  {
    "id": 37386,
    "name": "ATAWAI",
    "zip_code": "86684"
  },
  {
    "id": 37387,
    "name": "BABOKERONG",
    "zip_code": "86684"
  },
  {
    "id": 37388,
    "name": "BAOBOLAK",
    "zip_code": "86684"
  },
  {
    "id": 37389,
    "name": "BELOBAJA",
    "zip_code": "86684"
  },
  {
    "id": 37390,
    "name": "BOLI BEAN",
    "zip_code": "86684"
  },
  {
    "id": 37391,
    "name": "DUAWUTUN",
    "zip_code": "86684"
  },
  {
    "id": 37392,
    "name": "IDALOLONG",
    "zip_code": "86684"
  },
  {
    "id": 37393,
    "name": "ILEBOLI",
    "zip_code": "86684"
  },
  {
    "id": 37394,
    "name": "LABALIMUT",
    "zip_code": "86684"
  },
  {
    "id": 37395,
    "name": "LIWULAGANG",
    "zip_code": "86684"
  },
  {
    "id": 37396,
    "name": "LOLONG",
    "zip_code": "86684"
  },
  {
    "id": 37397,
    "name": "LUSIDUAWUTUN",
    "zip_code": "86684"
  },
  {
    "id": 37398,
    "name": "PASIR PUTIH",
    "zip_code": "86684"
  },
  {
    "id": 37399,
    "name": "PENIKENEK",
    "zip_code": "86684"
  },
  {
    "id": 37400,
    "name": "RIA BAO",
    "zip_code": "86684"
  },
  {
    "id": 37401,
    "name": "TEWAOWUTUNG",
    "zip_code": "86684"
  },
  {
    "id": 37402,
    "name": "WARAWATUNG",
    "zip_code": "86684"
  },
  {
    "id": 37403,
    "name": "WUAKORENG",
    "zip_code": "86684"
  }
]