[
  {
    "id": 62868,
    "name": "BANARAN",
    "zip_code": "57552"
  },
  {
    "id": 62869,
    "name": "CEMANI",
    "zip_code": "57552"
  },
  {
    "id": 62870,
    "name": "GEDANGAN",
    "zip_code": "57552"
  },
  {
    "id": 62871,
    "name": "GROGOL",
    "zip_code": "57552"
  },
  {
    "id": 62872,
    "name": "KADOKAN",
    "zip_code": "57552"
  },
  {
    "id": 62873,
    "name": "KWARASAN",
    "zip_code": "57552"
  },
  {
    "id": 62874,
    "name": "LANGENHARJO",
    "zip_code": "57552"
  },
  {
    "id": 62875,
    "name": "MADEGONDO",
    "zip_code": "57552"
  },
  {
    "id": 62876,
    "name": "MANANG",
    "zip_code": "57552"
  },
  {
    "id": 62877,
    "name": "PANDEYAN",
    "zip_code": "57552"
  },
  {
    "id": 62878,
    "name": "PARANGJORO",
    "zip_code": "57552"
  },
  {
    "id": 62879,
    "name": "PONDOK",
    "zip_code": "57552"
  },
  {
    "id": 62880,
    "name": "SANGGRAHAN",
    "zip_code": "57552"
  },
  {
    "id": 62881,
    "name": "TELUKAN",
    "zip_code": "57552"
  }
]