[
  {
    "id": 22667,
    "name": "ARSO KOTA",
    "zip_code": "99468"
  },
  {
    "id": 22668,
    "name": "ASYAMAN",
    "zip_code": "99468"
  },
  {
    "id": 22669,
    "name": "BABURIA",
    "zip_code": "99468"
  },
  {
    "id": 22670,
    "name": "BAGIA",
    "zip_code": "99468"
  },
  {
    "id": 22671,
    "name": "BILBOSI",
    "zip_code": "99468"
  },
  {
    "id": 22672,
    "name": "DUKWIA",
    "zip_code": "99468"
  },
  {
    "id": 22673,
    "name": "IFIA-FIA",
    "zip_code": "99468"
  },
  {
    "id": 22674,
    "name": "KWIMI",
    "zip_code": "99468"
  },
  {
    "id": 22675,
    "name": "SANGGARIA",
    "zip_code": "99468"
  },
  {
    "id": 22676,
    "name": "SAWABUUN",
    "zip_code": "99468"
  },
  {
    "id": 22677,
    "name": "SAWANAWA",
    "zip_code": "99468"
  },
  {
    "id": 22678,
    "name": "SAWYATAMI",
    "zip_code": "99468"
  },
  {
    "id": 22679,
    "name": "UBIYAU",
    "zip_code": "99468"
  },
  {
    "id": 22680,
    "name": "WARBO",
    "zip_code": "99468"
  },
  {
    "id": 22681,
    "name": "WORKWANA",
    "zip_code": "99468"
  },
  {
    "id": 22682,
    "name": "YAMMUA",
    "zip_code": "99468"
  },
  {
    "id": 22683,
    "name": "YAMTA",
    "zip_code": "99468"
  },
  {
    "id": 22684,
    "name": "YANAMAA",
    "zip_code": "99468"
  },
  {
    "id": 22685,
    "name": "YATU RAHARJA",
    "zip_code": "99468"
  },
  {
    "id": 22686,
    "name": "YOWONG",
    "zip_code": "99468"
  },
  {
    "id": 22687,
    "name": "YUWANAIN",
    "zip_code": "99468"
  }
]