[
  {
    "id": 13208,
    "name": "ALUE GAJAH",
    "zip_code": "23656"
  },
  {
    "id": 13209,
    "name": "ARONGAN",
    "zip_code": "23656"
  },
  {
    "id": 13210,
    "name": "BABAH DUA",
    "zip_code": "23656"
  },
  {
    "id": 13211,
    "name": "BLANG DALAM",
    "zip_code": "23656"
  },
  {
    "id": 13212,
    "name": "BLANG LUAH",
    "zip_code": "23656"
  },
  {
    "id": 13213,
    "name": "COT PANGE",
    "zip_code": "23656"
  },
  {
    "id": 13214,
    "name": "GAMPONG BARO L",
    "zip_code": "23656"
  },
  {
    "id": 13215,
    "name": "GAMPONG BARO P",
    "zip_code": "23656"
  },
  {
    "id": 13216,
    "name": "GUNUNG CUT",
    "zip_code": "23656"
  },
  {
    "id": 13217,
    "name": "KRUENG THO",
    "zip_code": "23656"
  },
  {
    "id": 13218,
    "name": "LAM TEUNGOH",
    "zip_code": "23656"
  },
  {
    "id": 13219,
    "name": "MASEN",
    "zip_code": "23656"
  },
  {
    "id": 13220,
    "name": "PAJAR",
    "zip_code": "23656"
  },
  {
    "id": 13221,
    "name": "PANTON KRUENG",
    "zip_code": "23656"
  },
  {
    "id": 13222,
    "name": "PATEK",
    "zip_code": "23656"
  },
  {
    "id": 13223,
    "name": "PAYA SANTEUT",
    "zip_code": "23656"
  },
  {
    "id": 13224,
    "name": "REUNTANG",
    "zip_code": "23656"
  },
  {
    "id": 13225,
    "name": "SAYEUNG",
    "zip_code": "23656"
  },
  {
    "id": 13226,
    "name": "UJONG RIMBA",
    "zip_code": "23656"
  }
]