[
  {
    "id": 51831,
    "name": "BAMBAN RAYA",
    "zip_code": "73516"
  },
  {
    "id": 51832,
    "name": "BANGUN HARJO",
    "zip_code": "73516"
  },
  {
    "id": 51833,
    "name": "BUDI MUFAKAT",
    "zip_code": "73516"
  },
  {
    "id": 51834,
    "name": "PULAU KUPANG",
    "zip_code": "73511"
  },
  {
    "id": 51835,
    "name": "PULAU MAMBULAU",
    "zip_code": "73516"
  },
  {
    "id": 51836,
    "name": "SEI JANGKIR",
    "zip_code": "73516"
  },
  {
    "id": 51837,
    "name": "SEI/SUNGAI LUNUK",
    "zip_code": "73516"
  },
  {
    "id": 51838,
    "name": "TAMBAN LUAR",
    "zip_code": "73516"
  },
  {
    "id": 51839,
    "name": "TERUSAN BAGUNTAN RAYA",
    "zip_code": "73516"
  },
  {
    "id": 51840,
    "name": "TERUSAN KARYA",
    "zip_code": "73516"
  },
  {
    "id": 51841,
    "name": "TERUSAN MAKMUR",
    "zip_code": "73516"
  },
  {
    "id": 51842,
    "name": "TERUSAN MULYA",
    "zip_code": "73516"
  },
  {
    "id": 51843,
    "name": "TERUSAN RAYA",
    "zip_code": "73516"
  },
  {
    "id": 51844,
    "name": "TERUSAN RAYA BARAT",
    "zip_code": "73516"
  },
  {
    "id": 51845,
    "name": "TERUSAN RAYA HILIR",
    "zip_code": "73516"
  }
]