[
  {
    "id": 3809,
    "name": "AMBUNGAN",
    "zip_code": "70815"
  },
  {
    "id": 3810,
    "name": "ANGSAU",
    "zip_code": "70814"
  },
  {
    "id": 3811,
    "name": "ATU ATU",
    "zip_code": "70815"
  },
  {
    "id": 3812,
    "name": "BUMI JAYA",
    "zip_code": "70815"
  },
  {
    "id": 3813,
    "name": "GUNTUNG BESAR",
    "zip_code": "70815"
  },
  {
    "id": 3814,
    "name": "KAMPUNG BARU",
    "zip_code": "70815"
  },
  {
    "id": 3815,
    "name": "KARANG TARUNA",
    "zip_code": "70812"
  },
  {
    "id": 3816,
    "name": "PABAHANAN",
    "zip_code": "70815"
  },
  {
    "id": 3817,
    "name": "PANGGUNG",
    "zip_code": "70815"
  },
  {
    "id": 3818,
    "name": "PANGGUNG BARU",
    "zip_code": "70815"
  },
  {
    "id": 3819,
    "name": "PANJARATAN",
    "zip_code": "70815"
  },
  {
    "id": 3820,
    "name": "PELAIHARI",
    "zip_code": "70815"
  },
  {
    "id": 3821,
    "name": "PEMUDA",
    "zip_code": "70815"
  },
  {
    "id": 3822,
    "name": "SARANG HALANG",
    "zip_code": "70815"
  },
  {
    "id": 3823,
    "name": "SEI/SUNGAI RIAM",
    "zip_code": "70815"
  },
  {
    "id": 3824,
    "name": "SUMBER MULIA",
    "zip_code": "70815"
  },
  {
    "id": 3825,
    "name": "TAMPANG",
    "zip_code": "70815"
  },
  {
    "id": 3826,
    "name": "TELAGA",
    "zip_code": "70815"
  },
  {
    "id": 3827,
    "name": "TUNGKARAN",
    "zip_code": "70815"
  },
  {
    "id": 3828,
    "name": "UJUNG BATU",
    "zip_code": "70815"
  }
]