[
  {
    "id": 19713,
    "name": "AIR LIKI",
    "zip_code": "37356"
  },
  {
    "id": 19714,
    "name": "AIR LIKI BARU",
    "zip_code": "37356"
  },
  {
    "id": 19715,
    "name": "BARU KIBUL",
    "zip_code": "37356"
  },
  {
    "id": 19716,
    "name": "BATANG KIBUL",
    "zip_code": "37356"
  },
  {
    "id": 19717,
    "name": "MUARA KIBUL",
    "zip_code": "37356"
  },
  {
    "id": 19718,
    "name": "MUARO LANGEH",
    "zip_code": "37356"
  },
  {
    "id": 19719,
    "name": "NGAOL",
    "zip_code": "37356"
  },
  {
    "id": 19720,
    "name": "NGAOL ILIR",
    "zip_code": "37356"
  },
  {
    "id": 19721,
    "name": "PULAU LEBAR",
    "zip_code": "37356"
  },
  {
    "id": 19722,
    "name": "PULAU TERBAKAR",
    "zip_code": "37356"
  },
  {
    "id": 19723,
    "name": "SUNGAI TABIR",
    "zip_code": "37356"
  },
  {
    "id": 19724,
    "name": "TANJUNG BERINGIN",
    "zip_code": "37356"
  },
  {
    "id": 19725,
    "name": "TANJUNG PUTUS",
    "zip_code": "37356"
  },
  {
    "id": 19726,
    "name": "TELENTAM",
    "zip_code": "37356"
  }
]