[
  {
    "id": 66325,
    "name": "BAKALAN",
    "zip_code": "62166"
  },
  {
    "id": 66326,
    "name": "DOLOK GEDE",
    "zip_code": "62166"
  },
  {
    "id": 66327,
    "name": "GADING",
    "zip_code": "62166"
  },
  {
    "id": 66328,
    "name": "GAMONGAN",
    "zip_code": "62166"
  },
  {
    "id": 66329,
    "name": "JATIMULYO",
    "zip_code": "62166"
  },
  {
    "id": 66330,
    "name": "JAWIK",
    "zip_code": "62166"
  },
  {
    "id": 66331,
    "name": "KACANGAN",
    "zip_code": "62166"
  },
  {
    "id": 66332,
    "name": "KALISUMBER",
    "zip_code": "62166"
  },
  {
    "id": 66333,
    "name": "MALING MATI",
    "zip_code": "62166"
  },
  {
    "id": 66334,
    "name": "MULYOREJO",
    "zip_code": "62166"
  },
  {
    "id": 66335,
    "name": "NAPIS",
    "zip_code": "62166"
  },
  {
    "id": 66336,
    "name": "NGRANCANG",
    "zip_code": "62166"
  },
  {
    "id": 66337,
    "name": "PENGKOL",
    "zip_code": "62166"
  },
  {
    "id": 66338,
    "name": "SENDANGREJO",
    "zip_code": "62166"
  },
  {
    "id": 66339,
    "name": "SUKOREJO",
    "zip_code": "62166"
  },
  {
    "id": 66340,
    "name": "TAMBAK REJO",
    "zip_code": "62166"
  },
  {
    "id": 66341,
    "name": "TANJUNG",
    "zip_code": "62166"
  },
  {
    "id": 66342,
    "name": "TURI",
    "zip_code": "62166"
  }
]