[
  {
    "id": 40741,
    "name": "BABADAN",
    "zip_code": "63491"
  },
  {
    "id": 40742,
    "name": "BARENG",
    "zip_code": "63491"
  },
  {
    "id": 40743,
    "name": "CEKOK",
    "zip_code": "63491"
  },
  {
    "id": 40744,
    "name": "GUPOLO",
    "zip_code": "63491"
  },
  {
    "id": 40745,
    "name": "JAPAN",
    "zip_code": "63491"
  },
  {
    "id": 40746,
    "name": "KADIPATEN",
    "zip_code": "63491"
  },
  {
    "id": 40747,
    "name": "KERTOSARI",
    "zip_code": "63491"
  },
  {
    "id": 40748,
    "name": "LEMBAH",
    "zip_code": "63491"
  },
  {
    "id": 40749,
    "name": "NGUNUT",
    "zip_code": "63491"
  },
  {
    "id": 40750,
    "name": "PATIHAN WETAN",
    "zip_code": "63491"
  },
  {
    "id": 40751,
    "name": "POLOREJO",
    "zip_code": "63491"
  },
  {
    "id": 40752,
    "name": "PONDOK",
    "zip_code": "63491"
  },
  {
    "id": 40753,
    "name": "PURWOSARI",
    "zip_code": "63491"
  },
  {
    "id": 40754,
    "name": "SUKOSARI",
    "zip_code": "63491"
  },
  {
    "id": 40755,
    "name": "TRISONO",
    "zip_code": "63491"
  }
]