[
  {
    "id": 71335,
    "name": "BATAAL BARAT",
    "zip_code": "69462"
  },
  {
    "id": 71336,
    "name": "BATAAL TIMUR",
    "zip_code": "69462"
  },
  {
    "id": 71337,
    "name": "BILAPORA BARAT",
    "zip_code": "69462"
  },
  {
    "id": 71338,
    "name": "BILAPORA TIMUR",
    "zip_code": "69462"
  },
  {
    "id": 71339,
    "name": "GADU BARAT",
    "zip_code": "69462"
  },
  {
    "id": 71340,
    "name": "GADU TIMUR",
    "zip_code": "69462"
  },
  {
    "id": 71341,
    "name": "GANDING",
    "zip_code": "69462"
  },
  {
    "id": 71342,
    "name": "KETAWANG DALEMAN",
    "zip_code": "69462"
  },
  {
    "id": 71343,
    "name": "KETAWANG KARAY",
    "zip_code": "69462"
  },
  {
    "id": 71344,
    "name": "KETAWANG LARANGAN",
    "zip_code": "69462"
  },
  {
    "id": 71345,
    "name": "KETAWANG PAREBAAN",
    "zip_code": "69462"
  },
  {
    "id": 71346,
    "name": "ROMBIYA BARAT",
    "zip_code": "69462"
  },
  {
    "id": 71347,
    "name": "ROMBIYA TIMUR",
    "zip_code": "69462"
  },
  {
    "id": 71348,
    "name": "TALAGA",
    "zip_code": "69462"
  }
]