[
  {
    "id": 57986,
    "name": "BANYUN SARI",
    "zip_code": "78872"
  },
  {
    "id": 57987,
    "name": "BENGARAS",
    "zip_code": "78872"
  },
  {
    "id": 57988,
    "name": "HARAPAN BARU",
    "zip_code": "78872"
  },
  {
    "id": 57989,
    "name": "KEPARI",
    "zip_code": "78872"
  },
  {
    "id": 57990,
    "name": "LANJUT MEKAR SARI",
    "zip_code": "78872"
  },
  {
    "id": 57991,
    "name": "MEKAR HARAPAN",
    "zip_code": "78872"
  },
  {
    "id": 57992,
    "name": "RANDAU LIMAT",
    "zip_code": "78872"
  },
  {
    "id": 57993,
    "name": "RIAM BUNUT",
    "zip_code": "78872"
  },
  {
    "id": 57994,
    "name": "SELANGKUT RAYA",
    "zip_code": "78872"
  },
  {
    "id": 57995,
    "name": "SEMPURNA",
    "zip_code": "78872"
  },
  {
    "id": 57996,
    "name": "SEPOTONG",
    "zip_code": "78872"
  },
  {
    "id": 57997,
    "name": "SINAR KURI",
    "zip_code": "78872"
  },
  {
    "id": 57998,
    "name": "SUKARAMAI",
    "zip_code": "78872"
  },
  {
    "id": 57999,
    "name": "SUNGAI DAKA",
    "zip_code": "78872"
  },
  {
    "id": 58000,
    "name": "TANJUNG BERINGIN",
    "zip_code": "78872"
  },
  {
    "id": 58001,
    "name": "TANJUNG MAJU",
    "zip_code": "78872"
  },
  {
    "id": 58002,
    "name": "TELUK BAYUR",
    "zip_code": "78872"
  },
  {
    "id": 58003,
    "name": "TELUK MUTIARA",
    "zip_code": "78872"
  }
]