[
  {
    "id": 44872,
    "name": "BANJARSARI",
    "zip_code": "54173"
  },
  {
    "id": 44873,
    "name": "BLENDUNG",
    "zip_code": "54173"
  },
  {
    "id": 44874,
    "name": "BONGKOT",
    "zip_code": "54173"
  },
  {
    "id": 44875,
    "name": "BRAGOLAN",
    "zip_code": "54173"
  },
  {
    "id": 44876,
    "name": "BRONDONGREJO",
    "zip_code": "54173"
  },
  {
    "id": 44877,
    "name": "BUBUTAN",
    "zip_code": "54173"
  },
  {
    "id": 44878,
    "name": "GEDANGAN",
    "zip_code": "54173"
  },
  {
    "id": 44879,
    "name": "GEPARANG",
    "zip_code": "54173"
  },
  {
    "id": 44880,
    "name": "GESING",
    "zip_code": "54173"
  },
  {
    "id": 44881,
    "name": "GUYANGAN",
    "zip_code": "54173"
  },
  {
    "id": 44882,
    "name": "JATIKONTAL",
    "zip_code": "54173"
  },
  {
    "id": 44883,
    "name": "JATIMALANG",
    "zip_code": "54173"
  },
  {
    "id": 44884,
    "name": "JENAR KIDUL",
    "zip_code": "54173"
  },
  {
    "id": 44885,
    "name": "JENAR LOR",
    "zip_code": "54173"
  },
  {
    "id": 44886,
    "name": "JENAR WETAN",
    "zip_code": "54173"
  },
  {
    "id": 44887,
    "name": "JOGOBOYO",
    "zip_code": "54173"
  },
  {
    "id": 44888,
    "name": "JOGORESAN",
    "zip_code": "54173"
  },
  {
    "id": 44889,
    "name": "KARANGANYAR",
    "zip_code": "54173"
  },
  {
    "id": 44890,
    "name": "KARANGMULYO",
    "zip_code": "54173"
  },
  {
    "id": 44891,
    "name": "KARANGSARI",
    "zip_code": "54173"
  },
  {
    "id": 44892,
    "name": "KEBONSARI",
    "zip_code": "54173"
  },
  {
    "id": 44893,
    "name": "KEDUREN",
    "zip_code": "54173"
  },
  {
    "id": 44894,
    "name": "KENTENGREJO",
    "zip_code": "54173"
  },
  {
    "id": 44895,
    "name": "KEPONGGOK",
    "zip_code": "54173"
  },
  {
    "id": 44896,
    "name": "KESUGIHAN",
    "zip_code": "54173"
  },
  {
    "id": 44897,
    "name": "KETANGI",
    "zip_code": "54173"
  },
  {
    "id": 44898,
    "name": "NAMPU",
    "zip_code": "54173"
  },
  {
    "id": 44899,
    "name": "NAMPUREJO",
    "zip_code": "54173"
  },
  {
    "id": 44900,
    "name": "PLANDI",
    "zip_code": "54173"
  },
  {
    "id": 44901,
    "name": "PUNDENSARI",
    "zip_code": "54173"
  },
  {
    "id": 44902,
    "name": "PURWODADI",
    "zip_code": "54173"
  },
  {
    "id": 44903,
    "name": "PURWOSARI",
    "zip_code": "54173"
  },
  {
    "id": 44904,
    "name": "SENDANGSARI",
    "zip_code": "54173"
  },
  {
    "id": 44905,
    "name": "SIDOHARJO",
    "zip_code": "54173"
  },
  {
    "id": 44906,
    "name": "SUKOMANAH",
    "zip_code": "54173"
  },
  {
    "id": 44907,
    "name": "SUMBEREJO",
    "zip_code": "54173"
  },
  {
    "id": 44908,
    "name": "SUMBERSARI",
    "zip_code": "54173"
  },
  {
    "id": 44909,
    "name": "TEGALAREN",
    "zip_code": "54173"
  },
  {
    "id": 44910,
    "name": "TLOGOREJO",
    "zip_code": "54173"
  },
  {
    "id": 44911,
    "name": "WATUKURO",
    "zip_code": "54173"
  }
]