[
  {
    "id": 4638,
    "name": "BARUH BAHINU DALAM",
    "zip_code": "71662"
  },
  {
    "id": 4639,
    "name": "BARUH BAHINU LUAR",
    "zip_code": "71662"
  },
  {
    "id": 4640,
    "name": "BATU PIRING",
    "zip_code": "71618"
  },
  {
    "id": 4641,
    "name": "BINJAI",
    "zip_code": "71662"
  },
  {
    "id": 4642,
    "name": "BUNGIN",
    "zip_code": "71617"
  },
  {
    "id": 4643,
    "name": "GALUMBANG (GALOMBANG)",
    "zip_code": "71662"
  },
  {
    "id": 4644,
    "name": "HALUBAU",
    "zip_code": "71662"
  },
  {
    "id": 4645,
    "name": "HALUBAU UTARA",
    "zip_code": "71662"
  },
  {
    "id": 4646,
    "name": "INAN",
    "zip_code": "71662"
  },
  {
    "id": 4647,
    "name": "LINGSIR",
    "zip_code": "71662"
  },
  {
    "id": 4648,
    "name": "MARADAP",
    "zip_code": "71662"
  },
  {
    "id": 4649,
    "name": "MURUNG ABUIN",
    "zip_code": "71662"
  },
  {
    "id": 4650,
    "name": "MURUNG JAMBU",
    "zip_code": "71662"
  },
  {
    "id": 4651,
    "name": "PANGGUNG",
    "zip_code": "71662"
  },
  {
    "id": 4652,
    "name": "TARANGAN",
    "zip_code": "71662"
  },
  {
    "id": 4653,
    "name": "TELAGA PURUN",
    "zip_code": "71662"
  }
]