[
  {
    "id": 885,
    "name": "ARAB KENANGAN",
    "zip_code": "84455"
  },
  {
    "id": 886,
    "name": "BANJAR",
    "zip_code": "84455"
  },
  {
    "id": 887,
    "name": "BATU PUTIH",
    "zip_code": "84455"
  },
  {
    "id": 888,
    "name": "BUGIS",
    "zip_code": "84455"
  },
  {
    "id": 889,
    "name": "DALAM",
    "zip_code": "84455"
  },
  {
    "id": 890,
    "name": "KERTASARI (LABUAN KERTASARI)",
    "zip_code": "84455"
  },
  {
    "id": 891,
    "name": "KUANG",
    "zip_code": "84455"
  },
  {
    "id": 892,
    "name": "LABUAN LALAR",
    "zip_code": "84455"
  },
  {
    "id": 893,
    "name": "LALANG LIANG (LALAR LIANG)",
    "zip_code": "84455"
  },
  {
    "id": 894,
    "name": "MENALA",
    "zip_code": "84455"
  },
  {
    "id": 895,
    "name": "SAMPIR",
    "zip_code": "84455"
  },
  {
    "id": 896,
    "name": "SELOTO",
    "zip_code": "84455"
  },
  {
    "id": 897,
    "name": "SERMONG",
    "zip_code": "84455"
  },
  {
    "id": 898,
    "name": "TAMEKAN",
    "zip_code": "84455"
  },
  {
    "id": 899,
    "name": "TELAGA BERTONG",
    "zip_code": "84455"
  }
]