[
  {
    "id": 60359,
    "name": "CIANTING",
    "zip_code": "41167"
  },
  {
    "id": 60360,
    "name": "CIANTING UTARA",
    "zip_code": "41167"
  },
  {
    "id": 60361,
    "name": "CIBODAS",
    "zip_code": "41167"
  },
  {
    "id": 60362,
    "name": "CIJANTUNG",
    "zip_code": "41167"
  },
  {
    "id": 60363,
    "name": "CILALAWI",
    "zip_code": "41167"
  },
  {
    "id": 60364,
    "name": "CIPICUNG",
    "zip_code": "41167"
  },
  {
    "id": 60365,
    "name": "MALANGNENGAH",
    "zip_code": "41167"
  },
  {
    "id": 60366,
    "name": "PANYINDANGAN",
    "zip_code": "41167"
  },
  {
    "id": 60367,
    "name": "PASIRMUNJUL",
    "zip_code": "41167"
  },
  {
    "id": 60368,
    "name": "SINDANGLAYA",
    "zip_code": "41167"
  },
  {
    "id": 60369,
    "name": "SUKAJAYA",
    "zip_code": "41167"
  },
  {
    "id": 60370,
    "name": "SUKAMAJU",
    "zip_code": "41167"
  },
  {
    "id": 60371,
    "name": "SUKATANI",
    "zip_code": "41167"
  },
  {
    "id": 60372,
    "name": "TAJURSINDANG",
    "zip_code": "41167"
  }
]