[
  {
    "id": 67840,
    "name": "DAPURNO",
    "zip_code": "58192"
  },
  {
    "id": 67841,
    "name": "DOKORO",
    "zip_code": "58192"
  },
  {
    "id": 67842,
    "name": "GEDANGAN",
    "zip_code": "58192"
  },
  {
    "id": 67843,
    "name": "KALIREJO",
    "zip_code": "58192"
  },
  {
    "id": 67844,
    "name": "KARANGASEM",
    "zip_code": "58192"
  },
  {
    "id": 67845,
    "name": "KROPAK",
    "zip_code": "58192"
  },
  {
    "id": 67846,
    "name": "KUNDEN",
    "zip_code": "58192"
  },
  {
    "id": 67847,
    "name": "MOJOREBO",
    "zip_code": "58192"
  },
  {
    "id": 67848,
    "name": "SAMBIREJO",
    "zip_code": "58192"
  },
  {
    "id": 67849,
    "name": "TAMBAHREJO",
    "zip_code": "58192"
  },
  {
    "id": 67850,
    "name": "TAMBAKSELO",
    "zip_code": "58192"
  },
  {
    "id": 67851,
    "name": "TANJUNGREJO",
    "zip_code": "58192"
  },
  {
    "id": 67852,
    "name": "TEGALREJO",
    "zip_code": "58192"
  },
  {
    "id": 67853,
    "name": "WIROSARI",
    "zip_code": "58192"
  }
]