[
  {
    "id": 12841,
    "name": "BATEE MEUCANANG",
    "zip_code": "23757"
  },
  {
    "id": 12842,
    "name": "BLANG BARU",
    "zip_code": "23757"
  },
  {
    "id": 12843,
    "name": "BLANG POROH",
    "zip_code": "23757"
  },
  {
    "id": 12844,
    "name": "IKU LHUNG",
    "zip_code": "23757"
  },
  {
    "id": 12845,
    "name": "KUTA LBOH/IBOH",
    "zip_code": "23757"
  },
  {
    "id": 12846,
    "name": "KUTA TRIENG",
    "zip_code": "23757"
  },
  {
    "id": 12847,
    "name": "PANTE GEULIMA",
    "zip_code": "23757"
  },
  {
    "id": 12848,
    "name": "PANTON PAWOH",
    "zip_code": "23757"
  },
  {
    "id": 12849,
    "name": "PANTON RUBEK",
    "zip_code": "23757"
  },
  {
    "id": 12850,
    "name": "PEULOKAN",
    "zip_code": "23757"
  },
  {
    "id": 12851,
    "name": "PULO IE",
    "zip_code": "23757"
  },
  {
    "id": 12852,
    "name": "SUAK LOKAN",
    "zip_code": "23757"
  },
  {
    "id": 12853,
    "name": "TENGAH LBOH/IBOH",
    "zip_code": "23757"
  },
  {
    "id": 12854,
    "name": "TUTONG",
    "zip_code": "23757"
  },
  {
    "id": 12855,
    "name": "UJUNG PADANG",
    "zip_code": "23757"
  }
]