[
  {
    "id": 55137,
    "name": "PENYANDINGAN",
    "zip_code": "30661"
  },
  {
    "id": 55138,
    "name": "PINANG JAYA",
    "zip_code": "30661"
  },
  {
    "id": 55139,
    "name": "PINANG MAS",
    "zip_code": "30661"
  },
  {
    "id": 55140,
    "name": "SERIJABO",
    "zip_code": "30661"
  },
  {
    "id": 55141,
    "name": "SERIJABO BARU",
    "zip_code": "30661"
  },
  {
    "id": 55142,
    "name": "SUNGAI PINANG",
    "zip_code": "30661"
  },
  {
    "id": 55143,
    "name": "SUNGAI PINANG I",
    "zip_code": "30661"
  },
  {
    "id": 55144,
    "name": "SUNGAI PINANG II",
    "zip_code": "30661"
  },
  {
    "id": 55145,
    "name": "SUNGAI PINANG III",
    "zip_code": "30661"
  },
  {
    "id": 55146,
    "name": "SUNGAI PINANG LAGATI",
    "zip_code": "30661"
  },
  {
    "id": 55147,
    "name": "SUNGAI PINANG NIBUNG",
    "zip_code": "30661"
  },
  {
    "id": 55148,
    "name": "TAJUNG SERIAN",
    "zip_code": "30661"
  },
  {
    "id": 55149,
    "name": "TALANG DUKUN",
    "zip_code": "30661"
  }
]