[
    {
        "id": 26157,
        "label": "TAMAN BALI, BANGLI, BANGLI, BALI, 80614",
        "province_name": "BALI",
        "city_name": "BANGLI",
        "district_name": "BANGLI",
        "subdistrict_name": "TAMAN BALI",
        "zip_code": "80614"
    },
    {
        "id": 26525,
        "label": "BANJAR BALI, BULELENG, BULELENG, BALI, 81113",
        "province_name": "BALI",
        "city_name": "BULELENG",
        "district_name": "BULELENG",
        "subdistrict_name": "BANJAR BALI",
        "zip_code": "81113"
    },
    {
        "id": 91,
        "label": "BALI, DOMPU, DOMPU, NUSA TENGGARA BARAT (NTB), 84213",
        "province_name": "NUSA TENGGARA BARAT (NTB)",
        "city_name": "DOMPU",
        "district_name": "DOMPU",
        "subdistrict_name": "BALI",
        "zip_code": "84213"
    },
    {
        "id": 2860,
        "label": "SEI/SUNGAI BALI, PULAU SEBUKU, KOTABARU, KALIMANTAN SELATAN, 72155",
        "province_name": "KALIMANTAN SELATAN",
        "city_name": "KOTABARU",
        "district_name": "PULAU SEBUKU",
        "subdistrict_name": "SEI/SUNGAI BALI",
        "zip_code": "72155"
    },
    {
        "id": 5211,
        "label": "ALAMENDAH, RANCA BALI, BANDUNG, JAWA BARAT, 40973",
        "province_name": "JAWA BARAT",
        "city_name": "BANDUNG",
        "district_name": "RANCA BALI",
        "subdistrict_name": "ALAMENDAH",
        "zip_code": "40973"
    },
    {
        "id": 5212,
        "label": "CIPELAH, RANCA BALI, BANDUNG, JAWA BARAT, 40973",
        "province_name": "JAWA BARAT",
        "city_name": "BANDUNG",
        "district_name": "RANCA BALI",
        "subdistrict_name": "CIPELAH",
        "zip_code": "40973"
    },
    {
        "id": 5213,
        "label": "INDRAGIRI, RANCA BALI, BANDUNG, JAWA BARAT, 40973",
        "province_name": "JAWA BARAT",
        "city_name": "BANDUNG",
        "district_name": "RANCA BALI",
        "subdistrict_name": "INDRAGIRI",
        "zip_code": "40973"
    },
    {
        "id": 5214,
        "label": "PATENGAN, RANCA BALI, BANDUNG, JAWA BARAT, 40973",
        "province_name": "JAWA BARAT",
        "city_name": "BANDUNG",
        "district_name": "RANCA BALI",
        "subdistrict_name": "PATENGAN",
        "zip_code": "40973"
    },
    {
        "id": 5215,
        "label": "SUKARESMI, RANCA BALI, BANDUNG, JAWA BARAT, 40973",
        "province_name": "JAWA BARAT",
        "city_name": "BANDUNG",
        "district_name": "RANCA BALI",
        "subdistrict_name": "SUKARESMI",
        "zip_code": "40973"
    },
    {
        "id": 6650,
        "label": "KAMPUNG BALI, TELUK SEGARA, BENGKULU, BENGKULU, 38119",
        "province_name": "BENGKULU",
        "city_name": "BENGKULU",
        "district_name": "TELUK SEGARA",
        "subdistrict_name": "KAMPUNG BALI",
        "zip_code": "38119"
    },
    {
        "id": 7604,
        "label": "SURO BALI, UJAN MAS, KEPAHIANG, BENGKULU, 39371",
        "province_name": "BENGKULU",
        "city_name": "KEPAHIANG",
        "district_name": "UJAN MAS",
        "subdistrict_name": "SURO BALI",
        "zip_code": "39371"
    },
    {
        "id": 17635,
        "label": "KAMPUNG BALI, TANAH ABANG, JAKARTA PUSAT, DKI JAKARTA, 10250",
        "province_name": "DKI JAKARTA",
        "city_name": "JAKARTA PUSAT",
        "district_name": "TANAH ABANG",
        "subdistrict_name": "KAMPUNG BALI",
        "zip_code": "10250"
    },
    {
        "id": 17700,
        "label": "BALI MESTER, JATINEGARA, JAKARTA TIMUR, DKI JAKARTA, 13310",
        "province_name": "DKI JAKARTA",
        "city_name": "JAKARTA TIMUR",
        "district_name": "JATINEGARA",
        "subdistrict_name": "BALI MESTER",
        "zip_code": "13310"
    },
    {
        "id": 26027,
        "label": "DAUH PURI, DENPASAR BARAT, DENPASAR, BALI, 80113",
        "province_name": "BALI",
        "city_name": "DENPASAR",
        "district_name": "DENPASAR BARAT",
        "subdistrict_name": "DAUH PURI",
        "zip_code": "80113"
    },
    {
        "id": 26028,
        "label": "DAUH PURI KANGIN, DENPASAR BARAT, DENPASAR, BALI, 80112",
        "province_name": "BALI",
        "city_name": "DENPASAR",
        "district_name": "DENPASAR BARAT",
        "subdistrict_name": "DAUH PURI KANGIN",
        "zip_code": "80112"
    },
    {
        "id": 26029,
        "label": "DAUH PURI KAUH, DENPASAR BARAT, DENPASAR, BALI, 80113",
        "province_name": "BALI",
        "city_name": "DENPASAR",
        "district_name": "DENPASAR BARAT",
        "subdistrict_name": "DAUH PURI KAUH",
        "zip_code": "80113"
    },
    {
        "id": 26030,
        "label": "DAUH PURI KLOD/KELOD, DENPASAR BARAT, DENPASAR, BALI, 80114",
        "province_name": "BALI",
        "city_name": "DENPASAR",
        "district_name": "DENPASAR BARAT",
        "subdistrict_name": "DAUH PURI KLOD/KELOD",
        "zip_code": "80114"
    },
    {
        "id": 26031,
        "label": "PADANGSAMBIAN, DENPASAR BARAT, DENPASAR, BALI, 80117",
        "province_name": "BALI",
        "city_name": "DENPASAR",
        "district_name": "DENPASAR BARAT",
        "subdistrict_name": "PADANGSAMBIAN",
        "zip_code": "80117"
    },
    {
        "id": 26032,
        "label": "PADANGSAMBIAN KAJA, DENPASAR BARAT, DENPASAR, BALI, 80117",
        "province_name": "BALI",
        "city_name": "DENPASAR",
        "district_name": "DENPASAR BARAT",
        "subdistrict_name": "PADANGSAMBIAN KAJA",
        "zip_code": "80117"
    },
    {
        "id": 26033,
        "label": "PADANGSAMBIAN KLOD/KELOD, DENPASAR BARAT, DENPASAR, BALI, 80117",
        "province_name": "BALI",
        "city_name": "DENPASAR",
        "district_name": "DENPASAR BARAT",
        "subdistrict_name": "PADANGSAMBIAN KLOD/KELOD",
        "zip_code": "80117"
    },
    {
        "id": 26034,
        "label": "PEMECUTAN, DENPASAR BARAT, DENPASAR, BALI, 80119",
        "province_name": "BALI",
        "city_name": "DENPASAR",
        "district_name": "DENPASAR BARAT",
        "subdistrict_name": "PEMECUTAN",
        "zip_code": "80119"
    },
    {
        "id": 26035,
        "label": "PEMECUTAN KLOD/KELOD, DENPASAR BARAT, DENPASAR, BALI, 80119",
        "province_name": "BALI",
        "city_name": "DENPASAR",
        "district_name": "DENPASAR BARAT",
        "subdistrict_name": "PEMECUTAN KLOD/KELOD",
        "zip_code": "80119"
    },
    {
        "id": 26036,
        "label": "TEGAL HARUM, DENPASAR BARAT, DENPASAR, BALI, 80119",
        "province_name": "BALI",
        "city_name": "DENPASAR",
        "district_name": "DENPASAR BARAT",
        "subdistrict_name": "TEGAL HARUM",
        "zip_code": "80119"
    },
    {
        "id": 26037,
        "label": "TEGAL KERTHA, DENPASAR BARAT, DENPASAR, BALI, 80119",
        "province_name": "BALI",
        "city_name": "DENPASAR",
        "district_name": "DENPASAR BARAT",
        "subdistrict_name": "TEGAL KERTHA",
        "zip_code": "80119"
    },
    {
        "id": 26038,
        "label": "PANJER, DENPASAR SELATAN, DENPASAR, BALI, 80225",
        "province_name": "BALI",
        "city_name": "DENPASAR",
        "district_name": "DENPASAR SELATAN",
        "subdistrict_name": "PANJER",
        "zip_code": "80225"
    },
    {
        "id": 26039,
        "label": "PEDUNGAN, DENPASAR SELATAN, DENPASAR, BALI, 80222",
        "province_name": "BALI",
        "city_name": "DENPASAR",
        "district_name": "DENPASAR SELATAN",
        "subdistrict_name": "PEDUNGAN",
        "zip_code": "80222"
    },
    {
        "id": 26040,
        "label": "PEMOGAN, DENPASAR SELATAN, DENPASAR, BALI, 80221",
        "province_name": "BALI",
        "city_name": "DENPASAR",
        "district_name": "DENPASAR SELATAN",
        "subdistrict_name": "PEMOGAN",
        "zip_code": "80221"
    },
    {
        "id": 26041,
        "label": "RENON, DENPASAR SELATAN, DENPASAR, BALI, 80226",
        "province_name": "BALI",
        "city_name": "DENPASAR",
        "district_name": "DENPASAR SELATAN",
        "subdistrict_name": "RENON",
        "zip_code": "80226"
    },
    {
        "id": 26042,
        "label": "SANUR, DENPASAR SELATAN, DENPASAR, BALI, 80228",
        "province_name": "BALI",
        "city_name": "DENPASAR",
        "district_name": "DENPASAR SELATAN",
        "subdistrict_name": "SANUR",
        "zip_code": "80228"
    },
    {
        "id": 26043,
        "label": "SANUR KAJA, DENPASAR SELATAN, DENPASAR, BALI, 80227",
        "province_name": "BALI",
        "city_name": "DENPASAR",
        "district_name": "DENPASAR SELATAN",
        "subdistrict_name": "SANUR KAJA",
        "zip_code": "80227"
    },
    {
        "id": 26044,
        "label": "SANUR KAUH, DENPASAR SELATAN, DENPASAR, BALI, 80227",
        "province_name": "BALI",
        "city_name": "DENPASAR",
        "district_name": "DENPASAR SELATAN",
        "subdistrict_name": "SANUR KAUH",
        "zip_code": "80227"
    },
    {
        "id": 26045,
        "label": "SERANGAN, DENPASAR SELATAN, DENPASAR, BALI, 80229",
        "province_name": "BALI",
        "city_name": "DENPASAR",
        "district_name": "DENPASAR SELATAN",
        "subdistrict_name": "SERANGAN",
        "zip_code": "80229"
    },
    {
        "id": 26046,
        "label": "SESETAN, DENPASAR SELATAN, DENPASAR, BALI, 80223",
        "province_name": "BALI",
        "city_name": "DENPASAR",
        "district_name": "DENPASAR SELATAN",
        "subdistrict_name": "SESETAN",
        "zip_code": "80223"
    },
    {
        "id": 26047,
        "label": "SIDAKARYA, DENPASAR SELATAN, DENPASAR, BALI, 80224",
        "province_name": "BALI",
        "city_name": "DENPASAR",
        "district_name": "DENPASAR SELATAN",
        "subdistrict_name": "SIDAKARYA",
        "zip_code": "80224"
    },
    {
        "id": 26048,
        "label": "DANGIN PURI, DENPASAR TIMUR, DENPASAR, BALI, 80232",
        "province_name": "BALI",
        "city_name": "DENPASAR",
        "district_name": "DENPASAR TIMUR",
        "subdistrict_name": "DANGIN PURI",
        "zip_code": "80232"
    },
    {
        "id": 26049,
        "label": "DANGIN PURI KLOD, DENPASAR TIMUR, DENPASAR, BALI, 80234",
        "province_name": "BALI",
        "city_name": "DENPASAR",
        "district_name": "DENPASAR TIMUR",
        "subdistrict_name": "DANGIN PURI KLOD",
        "zip_code": "80234"
    },
    {
        "id": 26050,
        "label": "KESIMAN, DENPASAR TIMUR, DENPASAR, BALI, 80237",
        "province_name": "BALI",
        "city_name": "DENPASAR",
        "district_name": "DENPASAR TIMUR",
        "subdistrict_name": "KESIMAN",
        "zip_code": "80237"
    },
    {
        "id": 26051,
        "label": "KESIMAN KERTALANGU, DENPASAR TIMUR, DENPASAR, BALI, 80237",
        "province_name": "BALI",
        "city_name": "DENPASAR",
        "district_name": "DENPASAR TIMUR",
        "subdistrict_name": "KESIMAN KERTALANGU",
        "zip_code": "80237"
    },
    {
        "id": 26052,
        "label": "KESIMAN PETILAN, DENPASAR TIMUR, DENPASAR, BALI, 80237",
        "province_name": "BALI",
        "city_name": "DENPASAR",
        "district_name": "DENPASAR TIMUR",
        "subdistrict_name": "KESIMAN PETILAN",
        "zip_code": "80237"
    },
    {
        "id": 26053,
        "label": "PENATIH, DENPASAR TIMUR, DENPASAR, BALI, 80238",
        "province_name": "BALI",
        "city_name": "DENPASAR",
        "district_name": "DENPASAR TIMUR",
        "subdistrict_name": "PENATIH",
        "zip_code": "80238"
    },
    {
        "id": 26054,
        "label": "PENATIH DANGIN PURI, DENPASAR TIMUR, DENPASAR, BALI, 80238",
        "province_name": "BALI",
        "city_name": "DENPASAR",
        "district_name": "DENPASAR TIMUR",
        "subdistrict_name": "PENATIH DANGIN PURI",
        "zip_code": "80238"
    },
    {
        "id": 26055,
        "label": "SUMERTA, DENPASAR TIMUR, DENPASAR, BALI, 80235",
        "province_name": "BALI",
        "city_name": "DENPASAR",
        "district_name": "DENPASAR TIMUR",
        "subdistrict_name": "SUMERTA",
        "zip_code": "80235"
    },
    {
        "id": 26056,
        "label": "SUMERTA KAJA, DENPASAR TIMUR, DENPASAR, BALI, 80236",
        "province_name": "BALI",
        "city_name": "DENPASAR",
        "district_name": "DENPASAR TIMUR",
        "subdistrict_name": "SUMERTA KAJA",
        "zip_code": "80236"
    },
    {
        "id": 26057,
        "label": "SUMERTA KAUH, DENPASAR TIMUR, DENPASAR, BALI, 80236",
        "province_name": "BALI",
        "city_name": "DENPASAR",
        "district_name": "DENPASAR TIMUR",
        "subdistrict_name": "SUMERTA KAUH",
        "zip_code": "80236"
    },
    {
        "id": 26058,
        "label": "SUMERTA KELOD/KLOD, DENPASAR TIMUR, DENPASAR, BALI, 80239",
        "province_name": "BALI",
        "city_name": "DENPASAR",
        "district_name": "DENPASAR TIMUR",
        "subdistrict_name": "SUMERTA KELOD/KLOD",
        "zip_code": "80239"
    },
    {
        "id": 26059,
        "label": "DANGIN PURI KAJA, DENPASAR UTARA, DENPASAR, BALI, 80231",
        "province_name": "BALI",
        "city_name": "DENPASAR",
        "district_name": "DENPASAR UTARA",
        "subdistrict_name": "DANGIN PURI KAJA",
        "zip_code": "80231"
    },
    {
        "id": 26060,
        "label": "DANGIN PURI KANGIN, DENPASAR UTARA, DENPASAR, BALI, 80233",
        "province_name": "BALI",
        "city_name": "DENPASAR",
        "district_name": "DENPASAR UTARA",
        "subdistrict_name": "DANGIN PURI KANGIN",
        "zip_code": "80233"
    },
    {
        "id": 26061,
        "label": "DANGIN PURI KAUH, DENPASAR UTARA, DENPASAR, BALI, 80231",
        "province_name": "BALI",
        "city_name": "DENPASAR",
        "district_name": "DENPASAR UTARA",
        "subdistrict_name": "DANGIN PURI KAUH",
        "zip_code": "80231"
    },
    {
        "id": 26062,
        "label": "DAUH PURI KAJA, DENPASAR UTARA, DENPASAR, BALI, 80111",
        "province_name": "BALI",
        "city_name": "DENPASAR",
        "district_name": "DENPASAR UTARA",
        "subdistrict_name": "DAUH PURI KAJA",
        "zip_code": "80111"
    },
    {
        "id": 26063,
        "label": "PEGUYANGAN, DENPASAR UTARA, DENPASAR, BALI, 80115",
        "province_name": "BALI",
        "city_name": "DENPASAR",
        "district_name": "DENPASAR UTARA",
        "subdistrict_name": "PEGUYANGAN",
        "zip_code": "80115"
    },
    {
        "id": 26064,
        "label": "PEGUYANGAN KAJA, DENPASAR UTARA, DENPASAR, BALI, 80115",
        "province_name": "BALI",
        "city_name": "DENPASAR",
        "district_name": "DENPASAR UTARA",
        "subdistrict_name": "PEGUYANGAN KAJA",
        "zip_code": "80115"
    },
    {
        "id": 26065,
        "label": "PEGUYANGAN KANGIN, DENPASAR UTARA, DENPASAR, BALI, 80115",
        "province_name": "BALI",
        "city_name": "DENPASAR",
        "district_name": "DENPASAR UTARA",
        "subdistrict_name": "PEGUYANGAN KANGIN",
        "zip_code": "80115"
    },
    {
        "id": 26066,
        "label": "PEMECUTAN KAJA, DENPASAR UTARA, DENPASAR, BALI, 80118",
        "province_name": "BALI",
        "city_name": "DENPASAR",
        "district_name": "DENPASAR UTARA",
        "subdistrict_name": "PEMECUTAN KAJA",
        "zip_code": "80118"
    },
    {
        "id": 26067,
        "label": "TONJA, DENPASAR UTARA, DENPASAR, BALI, 80239",
        "province_name": "BALI",
        "city_name": "DENPASAR",
        "district_name": "DENPASAR UTARA",
        "subdistrict_name": "TONJA",
        "zip_code": "80239"
    },
    {
        "id": 26068,
        "label": "UBUNG, DENPASAR UTARA, DENPASAR, BALI, 80116",
        "province_name": "BALI",
        "city_name": "DENPASAR",
        "district_name": "DENPASAR UTARA",
        "subdistrict_name": "UBUNG",
        "zip_code": "80116"
    },
    {
        "id": 26069,
        "label": "UBUNG KAJA, DENPASAR UTARA, DENPASAR, BALI, 80116",
        "province_name": "BALI",
        "city_name": "DENPASAR",
        "district_name": "DENPASAR UTARA",
        "subdistrict_name": "UBUNG KAJA",
        "zip_code": "80116"
    },
    {
        "id": 26071,
        "label": "ABABI, ABANG, KARANGASEM, BALI, 80852",
        "province_name": "BALI",
        "city_name": "KARANGASEM",
        "district_name": "ABANG",
        "subdistrict_name": "ABABI",
        "zip_code": "80852"
    },
    {
        "id": 26072,
        "label": "ABANG, ABANG, KARANGASEM, BALI, 80852",
        "province_name": "BALI",
        "city_name": "KARANGASEM",
        "district_name": "ABANG",
        "subdistrict_name": "ABANG",
        "zip_code": "80852"
    },
    {
        "id": 26073,
        "label": "BUNUTAN, ABANG, KARANGASEM, BALI, 80852",
        "province_name": "BALI",
        "city_name": "KARANGASEM",
        "district_name": "ABANG",
        "subdistrict_name": "BUNUTAN",
        "zip_code": "80852"
    },
    {
        "id": 26074,
        "label": "CULIK, ABANG, KARANGASEM, BALI, 80852",
        "province_name": "BALI",
        "city_name": "KARANGASEM",
        "district_name": "ABANG",
        "subdistrict_name": "CULIK",
        "zip_code": "80852"
    },
    {
        "id": 26075,
        "label": "DATAH, ABANG, KARANGASEM, BALI, 80852",
        "province_name": "BALI",
        "city_name": "KARANGASEM",
        "district_name": "ABANG",
        "subdistrict_name": "DATAH",
        "zip_code": "80852"
    },
    {
        "id": 26076,
        "label": "KERTA MANDALA, ABANG, KARANGASEM, BALI, 80852",
        "province_name": "BALI",
        "city_name": "KARANGASEM",
        "district_name": "ABANG",
        "subdistrict_name": "KERTA MANDALA",
        "zip_code": "80852"
    },
    {
        "id": 26077,
        "label": "KESIMPAR, ABANG, KARANGASEM, BALI, 80852",
        "province_name": "BALI",
        "city_name": "KARANGASEM",
        "district_name": "ABANG",
        "subdistrict_name": "KESIMPAR",
        "zip_code": "80852"
    },
    {
        "id": 26078,
        "label": "LABA SARI, ABANG, KARANGASEM, BALI, 80852",
        "province_name": "BALI",
        "city_name": "KARANGASEM",
        "district_name": "ABANG",
        "subdistrict_name": "LABA SARI",
        "zip_code": "80852"
    },
    {
        "id": 26079,
        "label": "NAWAKERTI, ABANG, KARANGASEM, BALI, 80852",
        "province_name": "BALI",
        "city_name": "KARANGASEM",
        "district_name": "ABANG",
        "subdistrict_name": "NAWAKERTI",
        "zip_code": "80852"
    },
    {
        "id": 26080,
        "label": "PIDPID, ABANG, KARANGASEM, BALI, 80852",
        "province_name": "BALI",
        "city_name": "KARANGASEM",
        "district_name": "ABANG",
        "subdistrict_name": "PIDPID",
        "zip_code": "80852"
    },
    {
        "id": 26081,
        "label": "PURWAKERTI, ABANG, KARANGASEM, BALI, 80852",
        "province_name": "BALI",
        "city_name": "KARANGASEM",
        "district_name": "ABANG",
        "subdistrict_name": "PURWAKERTI",
        "zip_code": "80852"
    },
    {
        "id": 26082,
        "label": "TISTA, ABANG, KARANGASEM, BALI, 80852",
        "province_name": "BALI",
        "city_name": "KARANGASEM",
        "district_name": "ABANG",
        "subdistrict_name": "TISTA",
        "zip_code": "80852"
    },
    {
        "id": 26083,
        "label": "TIYINGTALI, ABANG, KARANGASEM, BALI, 80852",
        "province_name": "BALI",
        "city_name": "KARANGASEM",
        "district_name": "ABANG",
        "subdistrict_name": "TIYINGTALI",
        "zip_code": "80852"
    },
    {
        "id": 26084,
        "label": "TRI BUANA, ABANG, KARANGASEM, BALI, 80852",
        "province_name": "BALI",
        "city_name": "KARANGASEM",
        "district_name": "ABANG",
        "subdistrict_name": "TRI BUANA",
        "zip_code": "80852"
    },
    {
        "id": 26085,
        "label": "BEBANDEM, BEBANDEM, KARANGASEM, BALI, 80861",
        "province_name": "BALI",
        "city_name": "KARANGASEM",
        "district_name": "BEBANDEM",
        "subdistrict_name": "BEBANDEM",
        "zip_code": "80861"
    },
    {
        "id": 26086,
        "label": "BUANA GIRI, BEBANDEM, KARANGASEM, BALI, 80861",
        "province_name": "BALI",
        "city_name": "KARANGASEM",
        "district_name": "BEBANDEM",
        "subdistrict_name": "BUANA GIRI",
        "zip_code": "80861"
    },
    {
        "id": 26087,
        "label": "BUDAKELING (BUDE KELING), BEBANDEM, KARANGASEM, BALI, 80861",
        "province_name": "BALI",
        "city_name": "KARANGASEM",
        "district_name": "BEBANDEM",
        "subdistrict_name": "BUDAKELING (BUDE KELING)",
        "zip_code": "80861"
    },
    {
        "id": 26088,
        "label": "BUNGAYA (BUNGAYA KAUH), BEBANDEM, KARANGASEM, BALI, 80861",
        "province_name": "BALI",
        "city_name": "KARANGASEM",
        "district_name": "BEBANDEM",
        "subdistrict_name": "BUNGAYA (BUNGAYA KAUH)",
        "zip_code": "80861"
    },
    {
        "id": 26089,
        "label": "BUNGAYA KANGIN, BEBANDEM, KARANGASEM, BALI, 80861",
        "province_name": "BALI",
        "city_name": "KARANGASEM",
        "district_name": "BEBANDEM",
        "subdistrict_name": "BUNGAYA KANGIN",
        "zip_code": "80861"
    },
    {
        "id": 26090,
        "label": "JUNGUTAN, BEBANDEM, KARANGASEM, BALI, 80861",
        "province_name": "BALI",
        "city_name": "KARANGASEM",
        "district_name": "BEBANDEM",
        "subdistrict_name": "JUNGUTAN",
        "zip_code": "80861"
    },
    {
        "id": 26091,
        "label": "MACANG, BEBANDEM, KARANGASEM, BALI, 80861",
        "province_name": "BALI",
        "city_name": "KARANGASEM",
        "district_name": "BEBANDEM",
        "subdistrict_name": "MACANG",
        "zip_code": "80861"
    },
    {
        "id": 26092,
        "label": "SIBETAN, BEBANDEM, KARANGASEM, BALI, 80861",
        "province_name": "BALI",
        "city_name": "KARANGASEM",
        "district_name": "BEBANDEM",
        "subdistrict_name": "SIBETAN",
        "zip_code": "80861"
    },
    {
        "id": 26093,
        "label": "BAN, KUBU, KARANGASEM, BALI, 80853",
        "province_name": "BALI",
        "city_name": "KARANGASEM",
        "district_name": "KUBU",
        "subdistrict_name": "BAN",
        "zip_code": "80853"
    },
    {
        "id": 26094,
        "label": "BATU RINGGIT, KUBU, KARANGASEM, BALI, 80853",
        "province_name": "BALI",
        "city_name": "KARANGASEM",
        "district_name": "KUBU",
        "subdistrict_name": "BATU RINGGIT",
        "zip_code": "80853"
    },
    {
        "id": 26095,
        "label": "DUKUH, KUBU, KARANGASEM, BALI, 80853",
        "province_name": "BALI",
        "city_name": "KARANGASEM",
        "district_name": "KUBU",
        "subdistrict_name": "DUKUH",
        "zip_code": "80853"
    },
    {
        "id": 26096,
        "label": "KUBU, KUBU, KARANGASEM, BALI, 80853",
        "province_name": "BALI",
        "city_name": "KARANGASEM",
        "district_name": "KUBU",
        "subdistrict_name": "KUBU",
        "zip_code": "80853"
    },
    {
        "id": 26097,
        "label": "SUKADANA, KUBU, KARANGASEM, BALI, 80853",
        "province_name": "BALI",
        "city_name": "KARANGASEM",
        "district_name": "KUBU",
        "subdistrict_name": "SUKADANA",
        "zip_code": "80853"
    },
    {
        "id": 26098,
        "label": "TIANYAR BARAT, KUBU, KARANGASEM, BALI, 80853",
        "province_name": "BALI",
        "city_name": "KARANGASEM",
        "district_name": "KUBU",
        "subdistrict_name": "TIANYAR BARAT",
        "zip_code": "80853"
    },
    {
        "id": 26099,
        "label": "TIANYAR TENGAH, KUBU, KARANGASEM, BALI, 80853",
        "province_name": "BALI",
        "city_name": "KARANGASEM",
        "district_name": "KUBU",
        "subdistrict_name": "TIANYAR TENGAH",
        "zip_code": "80853"
    },
    {
        "id": 26100,
        "label": "TIANYAR TIMUR, KUBU, KARANGASEM, BALI, 80853",
        "province_name": "BALI",
        "city_name": "KARANGASEM",
        "district_name": "KUBU",
        "subdistrict_name": "TIANYAR TIMUR",
        "zip_code": "80853"
    },
    {
        "id": 26101,
        "label": "TULAMBEN, KUBU, KARANGASEM, BALI, 80853",
        "province_name": "BALI",
        "city_name": "KARANGASEM",
        "district_name": "KUBU",
        "subdistrict_name": "TULAMBEN",
        "zip_code": "80853"
    },
    {
        "id": 26102,
        "label": "ANTIGA, MANGGIS, KARANGASEM, BALI, 80871",
        "province_name": "BALI",
        "city_name": "KARANGASEM",
        "district_name": "MANGGIS",
        "subdistrict_name": "ANTIGA",
        "zip_code": "80871"
    },
    {
        "id": 26103,
        "label": "ANTIGA KELOD, MANGGIS, KARANGASEM, BALI, 80871",
        "province_name": "BALI",
        "city_name": "KARANGASEM",
        "district_name": "MANGGIS",
        "subdistrict_name": "ANTIGA KELOD",
        "zip_code": "80871"
    },
    {
        "id": 26104,
        "label": "GEGELANG, MANGGIS, KARANGASEM, BALI, 80871",
        "province_name": "BALI",
        "city_name": "KARANGASEM",
        "district_name": "MANGGIS",
        "subdistrict_name": "GEGELANG",
        "zip_code": "80871"
    },
    {
        "id": 26105,
        "label": "MANGGIS, MANGGIS, KARANGASEM, BALI, 80871",
        "province_name": "BALI",
        "city_name": "KARANGASEM",
        "district_name": "MANGGIS",
        "subdistrict_name": "MANGGIS",
        "zip_code": "80871"
    },
    {
        "id": 26106,
        "label": "NGIS, MANGGIS, KARANGASEM, BALI, 80871",
        "province_name": "BALI",
        "city_name": "KARANGASEM",
        "district_name": "MANGGIS",
        "subdistrict_name": "NGIS",
        "zip_code": "80871"
    },
    {
        "id": 26107,
        "label": "NYUH TEBEL, MANGGIS, KARANGASEM, BALI, 80871",
        "province_name": "BALI",
        "city_name": "KARANGASEM",
        "district_name": "MANGGIS",
        "subdistrict_name": "NYUH TEBEL",
        "zip_code": "80871"
    },
    {
        "id": 26108,
        "label": "PADANGBAI, MANGGIS, KARANGASEM, BALI, 80871",
        "province_name": "BALI",
        "city_name": "KARANGASEM",
        "district_name": "MANGGIS",
        "subdistrict_name": "PADANGBAI",
        "zip_code": "80871"
    },
    {
        "id": 26109,
        "label": "PESEDAHAN, MANGGIS, KARANGASEM, BALI, 80871",
        "province_name": "BALI",
        "city_name": "KARANGASEM",
        "district_name": "MANGGIS",
        "subdistrict_name": "PESEDAHAN",
        "zip_code": "80871"
    },
    {
        "id": 26110,
        "label": "SELUMBUNG, MANGGIS, KARANGASEM, BALI, 80871",
        "province_name": "BALI",
        "city_name": "KARANGASEM",
        "district_name": "MANGGIS",
        "subdistrict_name": "SELUMBUNG",
        "zip_code": "80871"
    },
    {
        "id": 26111,
        "label": "SENGKIDU, MANGGIS, KARANGASEM, BALI, 80871",
        "province_name": "BALI",
        "city_name": "KARANGASEM",
        "district_name": "MANGGIS",
        "subdistrict_name": "SENGKIDU",
        "zip_code": "80871"
    },
    {
        "id": 26112,
        "label": "TENGANAN, MANGGIS, KARANGASEM, BALI, 80871",
        "province_name": "BALI",
        "city_name": "KARANGASEM",
        "district_name": "MANGGIS",
        "subdistrict_name": "TENGANAN",
        "zip_code": "80871"
    },
    {
        "id": 26113,
        "label": "ULAKAN, MANGGIS, KARANGASEM, BALI, 80871",
        "province_name": "BALI",
        "city_name": "KARANGASEM",
        "district_name": "MANGGIS",
        "subdistrict_name": "ULAKAN",
        "zip_code": "80871"
    },
    {
        "id": 26114,
        "label": "BESAKIH, RENDANG, KARANGASEM, BALI, 80863",
        "province_name": "BALI",
        "city_name": "KARANGASEM",
        "district_name": "RENDANG",
        "subdistrict_name": "BESAKIH",
        "zip_code": "80863"
    },
    {
        "id": 26115,
        "label": "MENANGA, RENDANG, KARANGASEM, BALI, 80863",
        "province_name": "BALI",
        "city_name": "KARANGASEM",
        "district_name": "RENDANG",
        "subdistrict_name": "MENANGA",
        "zip_code": "80863"
    },
    {
        "id": 26116,
        "label": "NONGAN, RENDANG, KARANGASEM, BALI, 80863",
        "province_name": "BALI",
        "city_name": "KARANGASEM",
        "district_name": "RENDANG",
        "subdistrict_name": "NONGAN",
        "zip_code": "80863"
    },
    {
        "id": 26117,
        "label": "PEMPATAN, RENDANG, KARANGASEM, BALI, 80863",
        "province_name": "BALI",
        "city_name": "KARANGASEM",
        "district_name": "RENDANG",
        "subdistrict_name": "PEMPATAN",
        "zip_code": "80863"
    },
    {
        "id": 26118,
        "label": "PESABAN, RENDANG, KARANGASEM, BALI, 80863",
        "province_name": "BALI",
        "city_name": "KARANGASEM",
        "district_name": "RENDANG",
        "subdistrict_name": "PESABAN",
        "zip_code": "80863"
    },
    {
        "id": 26119,
        "label": "RENDANG, RENDANG, KARANGASEM, BALI, 80863",
        "province_name": "BALI",
        "city_name": "KARANGASEM",
        "district_name": "RENDANG",
        "subdistrict_name": "RENDANG",
        "zip_code": "80863"
    },
    {
        "id": 26120,
        "label": "AMERTA BHUANA, SELAT, KARANGASEM, BALI, 80862",
        "province_name": "BALI",
        "city_name": "KARANGASEM",
        "district_name": "SELAT",
        "subdistrict_name": "AMERTA BHUANA",
        "zip_code": "80862"
    },
    {
        "id": 26121,
        "label": "DUDA, SELAT, KARANGASEM, BALI, 80862",
        "province_name": "BALI",
        "city_name": "KARANGASEM",
        "district_name": "SELAT",
        "subdistrict_name": "DUDA",
        "zip_code": "80862"
    },
    {
        "id": 26122,
        "label": "DUDA TIMUR, SELAT, KARANGASEM, BALI, 80862",
        "province_name": "BALI",
        "city_name": "KARANGASEM",
        "district_name": "SELAT",
        "subdistrict_name": "DUDA TIMUR",
        "zip_code": "80862"
    },
    {
        "id": 26123,
        "label": "DUDA UTARA, SELAT, KARANGASEM, BALI, 80862",
        "province_name": "BALI",
        "city_name": "KARANGASEM",
        "district_name": "SELAT",
        "subdistrict_name": "DUDA UTARA",
        "zip_code": "80862"
    },
    {
        "id": 26124,
        "label": "MUNCAN, SELAT, KARANGASEM, BALI, 80862",
        "province_name": "BALI",
        "city_name": "KARANGASEM",
        "district_name": "SELAT",
        "subdistrict_name": "MUNCAN",
        "zip_code": "80862"
    },
    {
        "id": 26125,
        "label": "PERING SARI, SELAT, KARANGASEM, BALI, 80862",
        "province_name": "BALI",
        "city_name": "KARANGASEM",
        "district_name": "SELAT",
        "subdistrict_name": "PERING SARI",
        "zip_code": "80862"
    },
    {
        "id": 26126,
        "label": "SEBUDI, SELAT, KARANGASEM, BALI, 80862",
        "province_name": "BALI",
        "city_name": "KARANGASEM",
        "district_name": "SELAT",
        "subdistrict_name": "SEBUDI",
        "zip_code": "80862"
    },
    {
        "id": 26127,
        "label": "SELAT, SELAT, KARANGASEM, BALI, 80862",
        "province_name": "BALI",
        "city_name": "KARANGASEM",
        "district_name": "SELAT",
        "subdistrict_name": "SELAT",
        "zip_code": "80862"
    },
    {
        "id": 26128,
        "label": "KERTHA BUANA, SIDEMEN, KARANGASEM, BALI, 80864",
        "province_name": "BALI",
        "city_name": "KARANGASEM",
        "district_name": "SIDEMEN",
        "subdistrict_name": "KERTHA BUANA",
        "zip_code": "80864"
    },
    {
        "id": 26129,
        "label": "LOKASARI, SIDEMEN, KARANGASEM, BALI, 80864",
        "province_name": "BALI",
        "city_name": "KARANGASEM",
        "district_name": "SIDEMEN",
        "subdistrict_name": "LOKASARI",
        "zip_code": "80864"
    },
    {
        "id": 26130,
        "label": "SANGKAN GUNUNG, SIDEMEN, KARANGASEM, BALI, 80864",
        "province_name": "BALI",
        "city_name": "KARANGASEM",
        "district_name": "SIDEMEN",
        "subdistrict_name": "SANGKAN GUNUNG",
        "zip_code": "80864"
    },
    {
        "id": 26131,
        "label": "SIDEMEN, SIDEMEN, KARANGASEM, BALI, 80864",
        "province_name": "BALI",
        "city_name": "KARANGASEM",
        "district_name": "SIDEMEN",
        "subdistrict_name": "SIDEMEN",
        "zip_code": "80864"
    },
    {
        "id": 26132,
        "label": "SINDU WATI, SIDEMEN, KARANGASEM, BALI, 80864",
        "province_name": "BALI",
        "city_name": "KARANGASEM",
        "district_name": "SIDEMEN",
        "subdistrict_name": "SINDU WATI",
        "zip_code": "80864"
    },
    {
        "id": 26133,
        "label": "TALIBENG, SIDEMEN, KARANGASEM, BALI, 80864",
        "province_name": "BALI",
        "city_name": "KARANGASEM",
        "district_name": "SIDEMEN",
        "subdistrict_name": "TALIBENG",
        "zip_code": "80864"
    },
    {
        "id": 26134,
        "label": "TANGKUP, SIDEMEN, KARANGASEM, BALI, 80864",
        "province_name": "BALI",
        "city_name": "KARANGASEM",
        "district_name": "SIDEMEN",
        "subdistrict_name": "TANGKUP",
        "zip_code": "80864"
    },
    {
        "id": 26135,
        "label": "TELAGA TAWANG, SIDEMEN, KARANGASEM, BALI, 80864",
        "province_name": "BALI",
        "city_name": "KARANGASEM",
        "district_name": "SIDEMEN",
        "subdistrict_name": "TELAGA TAWANG",
        "zip_code": "80864"
    },
    {
        "id": 26136,
        "label": "TRI EKA BUANA, SIDEMEN, KARANGASEM, BALI, 80864",
        "province_name": "BALI",
        "city_name": "KARANGASEM",
        "district_name": "SIDEMEN",
        "subdistrict_name": "TRI EKA BUANA",
        "zip_code": "80864"
    },
    {
        "id": 26137,
        "label": "WISMA KERTA, SIDEMEN, KARANGASEM, BALI, 80864",
        "province_name": "BALI",
        "city_name": "KARANGASEM",
        "district_name": "SIDEMEN",
        "subdistrict_name": "WISMA KERTA",
        "zip_code": "80864"
    },
    {
        "id": 26138,
        "label": "BUGBUG, KARANG ASEM, KARANGASEM, BALI, 80811",
        "province_name": "BALI",
        "city_name": "KARANGASEM",
        "district_name": "KARANG ASEM",
        "subdistrict_name": "BUGBUG",
        "zip_code": "80811"
    },
    {
        "id": 26139,
        "label": "BUKIT, KARANG ASEM, KARANGASEM, BALI, 80811",
        "province_name": "BALI",
        "city_name": "KARANGASEM",
        "district_name": "KARANG ASEM",
        "subdistrict_name": "BUKIT",
        "zip_code": "80811"
    },
    {
        "id": 26140,
        "label": "KARANGASEM, KARANG ASEM, KARANGASEM, BALI, 80811",
        "province_name": "BALI",
        "city_name": "KARANGASEM",
        "district_name": "KARANG ASEM",
        "subdistrict_name": "KARANGASEM",
        "zip_code": "80811"
    },
    {
        "id": 26141,
        "label": "PADANG KERTA, KARANG ASEM, KARANGASEM, BALI, 80811",
        "province_name": "BALI",
        "city_name": "KARANGASEM",
        "district_name": "KARANG ASEM",
        "subdistrict_name": "PADANG KERTA",
        "zip_code": "80811"
    },
    {
        "id": 26142,
        "label": "PERTIMA, KARANG ASEM, KARANGASEM, BALI, 80811",
        "province_name": "BALI",
        "city_name": "KARANGASEM",
        "district_name": "KARANG ASEM",
        "subdistrict_name": "PERTIMA",
        "zip_code": "80811"
    },
    {
        "id": 26143,
        "label": "SERAYA BARAT, KARANG ASEM, KARANGASEM, BALI, 80811",
        "province_name": "BALI",
        "city_name": "KARANGASEM",
        "district_name": "KARANG ASEM",
        "subdistrict_name": "SERAYA BARAT",
        "zip_code": "80811"
    },
    {
        "id": 26144,
        "label": "SERAYA TENGAH, KARANG ASEM, KARANGASEM, BALI, 80811",
        "province_name": "BALI",
        "city_name": "KARANGASEM",
        "district_name": "KARANG ASEM",
        "subdistrict_name": "SERAYA TENGAH",
        "zip_code": "80811"
    },
    {
        "id": 26145,
        "label": "SERAYA TIMUR, KARANG ASEM, KARANGASEM, BALI, 80811",
        "province_name": "BALI",
        "city_name": "KARANGASEM",
        "district_name": "KARANG ASEM",
        "subdistrict_name": "SERAYA TIMUR",
        "zip_code": "80811"
    },
    {
        "id": 26146,
        "label": "SUBAGAN, KARANG ASEM, KARANGASEM, BALI, 80813",
        "province_name": "BALI",
        "city_name": "KARANGASEM",
        "district_name": "KARANG ASEM",
        "subdistrict_name": "SUBAGAN",
        "zip_code": "80813"
    },
    {
        "id": 26147,
        "label": "TEGALLINGGAH, KARANG ASEM, KARANGASEM, BALI, 80811",
        "province_name": "BALI",
        "city_name": "KARANGASEM",
        "district_name": "KARANG ASEM",
        "subdistrict_name": "TEGALLINGGAH",
        "zip_code": "80811"
    },
    {
        "id": 26148,
        "label": "TUMBU, KARANG ASEM, KARANGASEM, BALI, 80811",
        "province_name": "BALI",
        "city_name": "KARANGASEM",
        "district_name": "KARANG ASEM",
        "subdistrict_name": "TUMBU",
        "zip_code": "80811"
    },
    {
        "id": 26149,
        "label": "BEBALANG, BANGLI, BANGLI, BALI, 80614",
        "province_name": "BALI",
        "city_name": "BANGLI",
        "district_name": "BANGLI",
        "subdistrict_name": "BEBALANG",
        "zip_code": "80614"
    },
    {
        "id": 26150,
        "label": "BUNUTIN, BANGLI, BANGLI, BALI, 80614",
        "province_name": "BALI",
        "city_name": "BANGLI",
        "district_name": "BANGLI",
        "subdistrict_name": "BUNUTIN",
        "zip_code": "80614"
    },
    {
        "id": 26151,
        "label": "CEMPAGA, BANGLI, BANGLI, BALI, 80612",
        "province_name": "BALI",
        "city_name": "BANGLI",
        "district_name": "BANGLI",
        "subdistrict_name": "CEMPAGA",
        "zip_code": "80612"
    },
    {
        "id": 26152,
        "label": "KAWAN, BANGLI, BANGLI, BALI, 80613",
        "province_name": "BALI",
        "city_name": "BANGLI",
        "district_name": "BANGLI",
        "subdistrict_name": "KAWAN",
        "zip_code": "80613"
    },
    {
        "id": 26153,
        "label": "KAYUBIHI, BANGLI, BANGLI, BALI, 80614",
        "province_name": "BALI",
        "city_name": "BANGLI",
        "district_name": "BANGLI",
        "subdistrict_name": "KAYUBIHI",
        "zip_code": "80614"
    },
    {
        "id": 26154,
        "label": "KUBU, BANGLI, BANGLI, BALI, 80611",
        "province_name": "BALI",
        "city_name": "BANGLI",
        "district_name": "BANGLI",
        "subdistrict_name": "KUBU",
        "zip_code": "80611"
    },
    {
        "id": 26155,
        "label": "LANDIH, BANGLI, BANGLI, BALI, 80611",
        "province_name": "BALI",
        "city_name": "BANGLI",
        "district_name": "BANGLI",
        "subdistrict_name": "LANDIH",
        "zip_code": "80611"
    },
    {
        "id": 26156,
        "label": "PENGOTAN, BANGLI, BANGLI, BALI, 80614",
        "province_name": "BALI",
        "city_name": "BANGLI",
        "district_name": "BANGLI",
        "subdistrict_name": "PENGOTAN",
        "zip_code": "80614"
    },
    {
        "id": 26158,
        "label": "ABANG SONGAN, KINTAMANI, BANGLI, BALI, 80652",
        "province_name": "BALI",
        "city_name": "BANGLI",
        "district_name": "KINTAMANI",
        "subdistrict_name": "ABANG SONGAN",
        "zip_code": "80652"
    },
    {
        "id": 26159,
        "label": "ABUAN, KINTAMANI, BANGLI, BALI, 80652",
        "province_name": "BALI",
        "city_name": "BANGLI",
        "district_name": "KINTAMANI",
        "subdistrict_name": "ABUAN",
        "zip_code": "80652"
    },
    {
        "id": 26160,
        "label": "AWAN, KINTAMANI, BANGLI, BALI, 80652",
        "province_name": "BALI",
        "city_name": "BANGLI",
        "district_name": "KINTAMANI",
        "subdistrict_name": "AWAN",
        "zip_code": "80652"
    },
    {
        "id": 26161,
        "label": "BANTANG, KINTAMANI, BANGLI, BALI, 80652",
        "province_name": "BALI",
        "city_name": "BANGLI",
        "district_name": "KINTAMANI",
        "subdistrict_name": "BANTANG",
        "zip_code": "80652"
    },
    {
        "id": 26162,
        "label": "BANUA, KINTAMANI, BANGLI, BALI, 80652",
        "province_name": "BALI",
        "city_name": "BANGLI",
        "district_name": "KINTAMANI",
        "subdistrict_name": "BANUA",
        "zip_code": "80652"
    },
    {
        "id": 26163,
        "label": "BATU DINDING, KINTAMANI, BANGLI, BALI, 80652",
        "province_name": "BALI",
        "city_name": "BANGLI",
        "district_name": "KINTAMANI",
        "subdistrict_name": "BATU DINDING",
        "zip_code": "80652"
    },
    {
        "id": 26164,
        "label": "BATUKAANG, KINTAMANI, BANGLI, BALI, 80652",
        "province_name": "BALI",
        "city_name": "BANGLI",
        "district_name": "KINTAMANI",
        "subdistrict_name": "BATUKAANG",
        "zip_code": "80652"
    },
    {
        "id": 26165,
        "label": "BATUR SELATAN, KINTAMANI, BANGLI, BALI, 80652",
        "province_name": "BALI",
        "city_name": "BANGLI",
        "district_name": "KINTAMANI",
        "subdistrict_name": "BATUR SELATAN",
        "zip_code": "80652"
    },
    {
        "id": 26166,
        "label": "BATUR TENGAH, KINTAMANI, BANGLI, BALI, 80652",
        "province_name": "BALI",
        "city_name": "BANGLI",
        "district_name": "KINTAMANI",
        "subdistrict_name": "BATUR TENGAH",
        "zip_code": "80652"
    },
    {
        "id": 26167,
        "label": "BATUR UTARA, KINTAMANI, BANGLI, BALI, 80652",
        "province_name": "BALI",
        "city_name": "BANGLI",
        "district_name": "KINTAMANI",
        "subdistrict_name": "BATUR UTARA",
        "zip_code": "80652"
    },
    {
        "id": 26168,
        "label": "BAYUNGCERIK, KINTAMANI, BANGLI, BALI, 80652",
        "province_name": "BALI",
        "city_name": "BANGLI",
        "district_name": "KINTAMANI",
        "subdistrict_name": "BAYUNGCERIK",
        "zip_code": "80652"
    },
    {
        "id": 26169,
        "label": "BAYUNGGEDE, KINTAMANI, BANGLI, BALI, 80652",
        "province_name": "BALI",
        "city_name": "BANGLI",
        "district_name": "KINTAMANI",
        "subdistrict_name": "BAYUNGGEDE",
        "zip_code": "80652"
    },
    {
        "id": 26170,
        "label": "BELANCAN, KINTAMANI, BANGLI, BALI, 80652",
        "province_name": "BALI",
        "city_name": "BANGLI",
        "district_name": "KINTAMANI",
        "subdistrict_name": "BELANCAN",
        "zip_code": "80652"
    },
    {
        "id": 26171,
        "label": "BELANDINGAN, KINTAMANI, BANGLI, BALI, 80652",
        "province_name": "BALI",
        "city_name": "BANGLI",
        "district_name": "KINTAMANI",
        "subdistrict_name": "BELANDINGAN",
        "zip_code": "80652"
    },
    {
        "id": 26172,
        "label": "BELANGA, KINTAMANI, BANGLI, BALI, 80652",
        "province_name": "BALI",
        "city_name": "BANGLI",
        "district_name": "KINTAMANI",
        "subdistrict_name": "BELANGA",
        "zip_code": "80652"
    },
    {
        "id": 26173,
        "label": "BELANTIH, KINTAMANI, BANGLI, BALI, 80652",
        "province_name": "BALI",
        "city_name": "BANGLI",
        "district_name": "KINTAMANI",
        "subdistrict_name": "BELANTIH",
        "zip_code": "80652"
    },
    {
        "id": 26174,
        "label": "BINYAN, KINTAMANI, BANGLI, BALI, 80652",
        "province_name": "BALI",
        "city_name": "BANGLI",
        "district_name": "KINTAMANI",
        "subdistrict_name": "BINYAN",
        "zip_code": "80652"
    },
    {
        "id": 26175,
        "label": "BONYOH, KINTAMANI, BANGLI, BALI, 80652",
        "province_name": "BALI",
        "city_name": "BANGLI",
        "district_name": "KINTAMANI",
        "subdistrict_name": "BONYOH",
        "zip_code": "80652"
    },
    {
        "id": 26176,
        "label": "BUAHAN, KINTAMANI, BANGLI, BALI, 80652",
        "province_name": "BALI",
        "city_name": "BANGLI",
        "district_name": "KINTAMANI",
        "subdistrict_name": "BUAHAN",
        "zip_code": "80652"
    },
    {
        "id": 26177,
        "label": "BUNUTIN, KINTAMANI, BANGLI, BALI, 80652",
        "province_name": "BALI",
        "city_name": "BANGLI",
        "district_name": "KINTAMANI",
        "subdistrict_name": "BUNUTIN",
        "zip_code": "80652"
    },
    {
        "id": 26178,
        "label": "CATUR, KINTAMANI, BANGLI, BALI, 80652",
        "province_name": "BALI",
        "city_name": "BANGLI",
        "district_name": "KINTAMANI",
        "subdistrict_name": "CATUR",
        "zip_code": "80652"
    },
    {
        "id": 26179,
        "label": "DAUP, KINTAMANI, BANGLI, BALI, 80652",
        "province_name": "BALI",
        "city_name": "BANGLI",
        "district_name": "KINTAMANI",
        "subdistrict_name": "DAUP",
        "zip_code": "80652"
    },
    {
        "id": 26180,
        "label": "DAUSA, KINTAMANI, BANGLI, BALI, 80652",
        "province_name": "BALI",
        "city_name": "BANGLI",
        "district_name": "KINTAMANI",
        "subdistrict_name": "DAUSA",
        "zip_code": "80652"
    },
    {
        "id": 26181,
        "label": "GUNUNGBAU, KINTAMANI, BANGLI, BALI, 80652",
        "province_name": "BALI",
        "city_name": "BANGLI",
        "district_name": "KINTAMANI",
        "subdistrict_name": "GUNUNGBAU",
        "zip_code": "80652"
    },
    {
        "id": 26182,
        "label": "KATUNG, KINTAMANI, BANGLI, BALI, 80652",
        "province_name": "BALI",
        "city_name": "BANGLI",
        "district_name": "KINTAMANI",
        "subdistrict_name": "KATUNG",
        "zip_code": "80652"
    },
    {
        "id": 26183,
        "label": "KEDISAN, KINTAMANI, BANGLI, BALI, 80652",
        "province_name": "BALI",
        "city_name": "BANGLI",
        "district_name": "KINTAMANI",
        "subdistrict_name": "KEDISAN",
        "zip_code": "80652"
    },
    {
        "id": 26184,
        "label": "KINTAMANI, KINTAMANI, BANGLI, BALI, 80652",
        "province_name": "BALI",
        "city_name": "BANGLI",
        "district_name": "KINTAMANI",
        "subdistrict_name": "KINTAMANI",
        "zip_code": "80652"
    },
    {
        "id": 26185,
        "label": "KUTUH, KINTAMANI, BANGLI, BALI, 80652",
        "province_name": "BALI",
        "city_name": "BANGLI",
        "district_name": "KINTAMANI",
        "subdistrict_name": "KUTUH",
        "zip_code": "80652"
    },
    {
        "id": 26186,
        "label": "LANGGAHAN, KINTAMANI, BANGLI, BALI, 80652",
        "province_name": "BALI",
        "city_name": "BANGLI",
        "district_name": "KINTAMANI",
        "subdistrict_name": "LANGGAHAN",
        "zip_code": "80652"
    },
    {
        "id": 26187,
        "label": "LEMBEAN, KINTAMANI, BANGLI, BALI, 80652",
        "province_name": "BALI",
        "city_name": "BANGLI",
        "district_name": "KINTAMANI",
        "subdistrict_name": "LEMBEAN",
        "zip_code": "80652"
    },
    {
        "id": 26188,
        "label": "MANGGUH, KINTAMANI, BANGLI, BALI, 80652",
        "province_name": "BALI",
        "city_name": "BANGLI",
        "district_name": "KINTAMANI",
        "subdistrict_name": "MANGGUH",
        "zip_code": "80652"
    },
    {
        "id": 26189,
        "label": "MANIKLIYU, KINTAMANI, BANGLI, BALI, 80652",
        "province_name": "BALI",
        "city_name": "BANGLI",
        "district_name": "KINTAMANI",
        "subdistrict_name": "MANIKLIYU",
        "zip_code": "80652"
    },
    {
        "id": 26190,
        "label": "MENGANI, KINTAMANI, BANGLI, BALI, 80652",
        "province_name": "BALI",
        "city_name": "BANGLI",
        "district_name": "KINTAMANI",
        "subdistrict_name": "MENGANI",
        "zip_code": "80652"
    },
    {
        "id": 26191,
        "label": "PENGEJARAN, KINTAMANI, BANGLI, BALI, 80652",
        "province_name": "BALI",
        "city_name": "BANGLI",
        "district_name": "KINTAMANI",
        "subdistrict_name": "PENGEJARAN",
        "zip_code": "80652"
    },
    {
        "id": 26192,
        "label": "PINGGAN, KINTAMANI, BANGLI, BALI, 80652",
        "province_name": "BALI",
        "city_name": "BANGLI",
        "district_name": "KINTAMANI",
        "subdistrict_name": "PINGGAN",
        "zip_code": "80652"
    },
    {
        "id": 26193,
        "label": "SATRA, KINTAMANI, BANGLI, BALI, 80652",
        "province_name": "BALI",
        "city_name": "BANGLI",
        "district_name": "KINTAMANI",
        "subdistrict_name": "SATRA",
        "zip_code": "80652"
    },
    {
        "id": 26194,
        "label": "SEKAAN, KINTAMANI, BANGLI, BALI, 80652",
        "province_name": "BALI",
        "city_name": "BANGLI",
        "district_name": "KINTAMANI",
        "subdistrict_name": "SEKAAN",
        "zip_code": "80652"
    },
    {
        "id": 26195,
        "label": "SEKARDADI, KINTAMANI, BANGLI, BALI, 80652",
        "province_name": "BALI",
        "city_name": "BANGLI",
        "district_name": "KINTAMANI",
        "subdistrict_name": "SEKARDADI",
        "zip_code": "80652"
    },
    {
        "id": 26196,
        "label": "SELULUNG, KINTAMANI, BANGLI, BALI, 80652",
        "province_name": "BALI",
        "city_name": "BANGLI",
        "district_name": "KINTAMANI",
        "subdistrict_name": "SELULUNG",
        "zip_code": "80652"
    },
    {
        "id": 26197,
        "label": "SERAHI, KINTAMANI, BANGLI, BALI, 80652",
        "province_name": "BALI",
        "city_name": "BANGLI",
        "district_name": "KINTAMANI",
        "subdistrict_name": "SERAHI",
        "zip_code": "80652"
    },
    {
        "id": 26198,
        "label": "SIYAKIN, KINTAMANI, BANGLI, BALI, 80652",
        "province_name": "BALI",
        "city_name": "BANGLI",
        "district_name": "KINTAMANI",
        "subdistrict_name": "SIYAKIN",
        "zip_code": "80652"
    },
    {
        "id": 26199,
        "label": "SONGAN A, KINTAMANI, BANGLI, BALI, 80652",
        "province_name": "BALI",
        "city_name": "BANGLI",
        "district_name": "KINTAMANI",
        "subdistrict_name": "SONGAN A",
        "zip_code": "80652"
    },
    {
        "id": 26200,
        "label": "SONGAN B, KINTAMANI, BANGLI, BALI, 80652",
        "province_name": "BALI",
        "city_name": "BANGLI",
        "district_name": "KINTAMANI",
        "subdistrict_name": "SONGAN B",
        "zip_code": "80652"
    },
    {
        "id": 26201,
        "label": "SUBAYA, KINTAMANI, BANGLI, BALI, 80652",
        "province_name": "BALI",
        "city_name": "BANGLI",
        "district_name": "KINTAMANI",
        "subdistrict_name": "SUBAYA",
        "zip_code": "80652"
    },
    {
        "id": 26202,
        "label": "SUKAWANA, KINTAMANI, BANGLI, BALI, 80652",
        "province_name": "BALI",
        "city_name": "BANGLI",
        "district_name": "KINTAMANI",
        "subdistrict_name": "SUKAWANA",
        "zip_code": "80652"
    },
    {
        "id": 26203,
        "label": "SUTER, KINTAMANI, BANGLI, BALI, 80652",
        "province_name": "BALI",
        "city_name": "BANGLI",
        "district_name": "KINTAMANI",
        "subdistrict_name": "SUTER",
        "zip_code": "80652"
    },
    {
        "id": 26204,
        "label": "TERUNYAN, KINTAMANI, BANGLI, BALI, 80652",
        "province_name": "BALI",
        "city_name": "BANGLI",
        "district_name": "KINTAMANI",
        "subdistrict_name": "TERUNYAN",
        "zip_code": "80652"
    },
    {
        "id": 26205,
        "label": "ULIAN, KINTAMANI, BANGLI, BALI, 80652",
        "province_name": "BALI",
        "city_name": "BANGLI",
        "district_name": "KINTAMANI",
        "subdistrict_name": "ULIAN",
        "zip_code": "80652"
    },
    {
        "id": 26206,
        "label": "ABUAN, SUSUT, BANGLI, BALI, 80661",
        "province_name": "BALI",
        "city_name": "BANGLI",
        "district_name": "SUSUT",
        "subdistrict_name": "ABUAN",
        "zip_code": "80661"
    },
    {
        "id": 26207,
        "label": "APUAN, SUSUT, BANGLI, BALI, 80661",
        "province_name": "BALI",
        "city_name": "BANGLI",
        "district_name": "SUSUT",
        "subdistrict_name": "APUAN",
        "zip_code": "80661"
    },
    {
        "id": 26208,
        "label": "DEMULIH, SUSUT, BANGLI, BALI, 80661",
        "province_name": "BALI",
        "city_name": "BANGLI",
        "district_name": "SUSUT",
        "subdistrict_name": "DEMULIH",
        "zip_code": "80661"
    },
    {
        "id": 26209,
        "label": "PENGIANGAN, SUSUT, BANGLI, BALI, 80661",
        "province_name": "BALI",
        "city_name": "BANGLI",
        "district_name": "SUSUT",
        "subdistrict_name": "PENGIANGAN",
        "zip_code": "80661"
    },
    {
        "id": 26210,
        "label": "PENGLUMBARAN, SUSUT, BANGLI, BALI, 80661",
        "province_name": "BALI",
        "city_name": "BANGLI",
        "district_name": "SUSUT",
        "subdistrict_name": "PENGLUMBARAN",
        "zip_code": "80661"
    },
    {
        "id": 26211,
        "label": "SELAT, SUSUT, BANGLI, BALI, 80661",
        "province_name": "BALI",
        "city_name": "BANGLI",
        "district_name": "SUSUT",
        "subdistrict_name": "SELAT",
        "zip_code": "80661"
    },
    {
        "id": 26212,
        "label": "SULAHAN, SUSUT, BANGLI, BALI, 80661",
        "province_name": "BALI",
        "city_name": "BANGLI",
        "district_name": "SUSUT",
        "subdistrict_name": "SULAHAN",
        "zip_code": "80661"
    },
    {
        "id": 26213,
        "label": "SUSUT, SUSUT, BANGLI, BALI, 80661",
        "province_name": "BALI",
        "city_name": "BANGLI",
        "district_name": "SUSUT",
        "subdistrict_name": "SUSUT",
        "zip_code": "80661"
    },
    {
        "id": 26214,
        "label": "TIGA, SUSUT, BANGLI, BALI, 80661",
        "province_name": "BALI",
        "city_name": "BANGLI",
        "district_name": "SUSUT",
        "subdistrict_name": "TIGA",
        "zip_code": "80661"
    },
    {
        "id": 26215,
        "label": "BANGBANG, TEMBUKU, BANGLI, BALI, 80671",
        "province_name": "BALI",
        "city_name": "BANGLI",
        "district_name": "TEMBUKU",
        "subdistrict_name": "BANGBANG",
        "zip_code": "80671"
    },
    {
        "id": 26216,
        "label": "JEHEM, TEMBUKU, BANGLI, BALI, 80671",
        "province_name": "BALI",
        "city_name": "BANGLI",
        "district_name": "TEMBUKU",
        "subdistrict_name": "JEHEM",
        "zip_code": "80671"
    },
    {
        "id": 26217,
        "label": "PENINJOAN, TEMBUKU, BANGLI, BALI, 80671",
        "province_name": "BALI",
        "city_name": "BANGLI",
        "district_name": "TEMBUKU",
        "subdistrict_name": "PENINJOAN",
        "zip_code": "80671"
    },
    {
        "id": 26218,
        "label": "TEMBUKU, TEMBUKU, BANGLI, BALI, 80671",
        "province_name": "BALI",
        "city_name": "BANGLI",
        "district_name": "TEMBUKU",
        "subdistrict_name": "TEMBUKU",
        "zip_code": "80671"
    },
    {
        "id": 26219,
        "label": "UNDISAN, TEMBUKU, BANGLI, BALI, 80671",
        "province_name": "BALI",
        "city_name": "BANGLI",
        "district_name": "TEMBUKU",
        "subdistrict_name": "UNDISAN",
        "zip_code": "80671"
    },
    {
        "id": 26220,
        "label": "YANGAPI, TEMBUKU, BANGLI, BALI, 80671",
        "province_name": "BALI",
        "city_name": "BANGLI",
        "district_name": "TEMBUKU",
        "subdistrict_name": "YANGAPI",
        "zip_code": "80671"
    },
    {
        "id": 26221,
        "label": "ABIANBASE, GIANYAR, GIANYAR, BALI, 80515",
        "province_name": "BALI",
        "city_name": "GIANYAR",
        "district_name": "GIANYAR",
        "subdistrict_name": "ABIANBASE",
        "zip_code": "80515"
    },
    {
        "id": 26222,
        "label": "BAKBAKAN, GIANYAR, GIANYAR, BALI, 80515",
        "province_name": "BALI",
        "city_name": "GIANYAR",
        "district_name": "GIANYAR",
        "subdistrict_name": "BAKBAKAN",
        "zip_code": "80515"
    },
    {
        "id": 26223,
        "label": "BENG, GIANYAR, GIANYAR, BALI, 80513",
        "province_name": "BALI",
        "city_name": "GIANYAR",
        "district_name": "GIANYAR",
        "subdistrict_name": "BENG",
        "zip_code": "80513"
    },
    {
        "id": 26224,
        "label": "BITERA, GIANYAR, GIANYAR, BALI, 80515",
        "province_name": "BALI",
        "city_name": "GIANYAR",
        "district_name": "GIANYAR",
        "subdistrict_name": "BITERA",
        "zip_code": "80515"
    },
    {
        "id": 26225,
        "label": "GIANYAR, GIANYAR, GIANYAR, BALI, 80511",
        "province_name": "BALI",
        "city_name": "GIANYAR",
        "district_name": "GIANYAR",
        "subdistrict_name": "GIANYAR",
        "zip_code": "80511"
    },
    {
        "id": 26226,
        "label": "LEBIH, GIANYAR, GIANYAR, BALI, 80515",
        "province_name": "BALI",
        "city_name": "GIANYAR",
        "district_name": "GIANYAR",
        "subdistrict_name": "LEBIH",
        "zip_code": "80515"
    },
    {
        "id": 26227,
        "label": "PETAK, GIANYAR, GIANYAR, BALI, 80515",
        "province_name": "BALI",
        "city_name": "GIANYAR",
        "district_name": "GIANYAR",
        "subdistrict_name": "PETAK",
        "zip_code": "80515"
    },
    {
        "id": 26228,
        "label": "PETAK KAJA, GIANYAR, GIANYAR, BALI, 80515",
        "province_name": "BALI",
        "city_name": "GIANYAR",
        "district_name": "GIANYAR",
        "subdistrict_name": "PETAK KAJA",
        "zip_code": "80515"
    },
    {
        "id": 26229,
        "label": "SAMPLANGAN, GIANYAR, GIANYAR, BALI, 80512",
        "province_name": "BALI",
        "city_name": "GIANYAR",
        "district_name": "GIANYAR",
        "subdistrict_name": "SAMPLANGAN",
        "zip_code": "80512"
    },
    {
        "id": 26230,
        "label": "SERONGGA, GIANYAR, GIANYAR, BALI, 80515",
        "province_name": "BALI",
        "city_name": "GIANYAR",
        "district_name": "GIANYAR",
        "subdistrict_name": "SERONGGA",
        "zip_code": "80515"
    },
    {
        "id": 26231,
        "label": "SIANGAN, GIANYAR, GIANYAR, BALI, 80515",
        "province_name": "BALI",
        "city_name": "GIANYAR",
        "district_name": "GIANYAR",
        "subdistrict_name": "SIANGAN",
        "zip_code": "80515"
    },
    {
        "id": 26232,
        "label": "SIDAN, GIANYAR, GIANYAR, BALI, 80515",
        "province_name": "BALI",
        "city_name": "GIANYAR",
        "district_name": "GIANYAR",
        "subdistrict_name": "SIDAN",
        "zip_code": "80515"
    },
    {
        "id": 26233,
        "label": "SUMITA, GIANYAR, GIANYAR, BALI, 80515",
        "province_name": "BALI",
        "city_name": "GIANYAR",
        "district_name": "GIANYAR",
        "subdistrict_name": "SUMITA",
        "zip_code": "80515"
    },
    {
        "id": 26234,
        "label": "SUWAT, GIANYAR, GIANYAR, BALI, 80515",
        "province_name": "BALI",
        "city_name": "GIANYAR",
        "district_name": "GIANYAR",
        "subdistrict_name": "SUWAT",
        "zip_code": "80515"
    },
    {
        "id": 26235,
        "label": "TEGAL TUGU, GIANYAR, GIANYAR, BALI, 80515",
        "province_name": "BALI",
        "city_name": "GIANYAR",
        "district_name": "GIANYAR",
        "subdistrict_name": "TEGAL TUGU",
        "zip_code": "80515"
    },
    {
        "id": 26236,
        "label": "TEMESI, GIANYAR, GIANYAR, BALI, 80515",
        "province_name": "BALI",
        "city_name": "GIANYAR",
        "district_name": "GIANYAR",
        "subdistrict_name": "TEMESI",
        "zip_code": "80515"
    },
    {
        "id": 26237,
        "label": "TULIKUP, GIANYAR, GIANYAR, BALI, 80515",
        "province_name": "BALI",
        "city_name": "GIANYAR",
        "district_name": "GIANYAR",
        "subdistrict_name": "TULIKUP",
        "zip_code": "80515"
    },
    {
        "id": 26238,
        "label": "BEDULU, BELAH BATUH (BLAHBATUH), GIANYAR, BALI, 80581",
        "province_name": "BALI",
        "city_name": "GIANYAR",
        "district_name": "BELAH BATUH (BLAHBATUH)",
        "subdistrict_name": "BEDULU",
        "zip_code": "80581"
    },
    {
        "id": 26239,
        "label": "BELEGA, BELAH BATUH (BLAHBATUH), GIANYAR, BALI, 80581",
        "province_name": "BALI",
        "city_name": "GIANYAR",
        "district_name": "BELAH BATUH (BLAHBATUH)",
        "subdistrict_name": "BELEGA",
        "zip_code": "80581"
    },
    {
        "id": 26240,
        "label": "BLAHBATUH, BELAH BATUH (BLAHBATUH), GIANYAR, BALI, 80581",
        "province_name": "BALI",
        "city_name": "GIANYAR",
        "district_name": "BELAH BATUH (BLAHBATUH)",
        "subdistrict_name": "BLAHBATUH",
        "zip_code": "80581"
    },
    {
        "id": 26241,
        "label": "BONA, BELAH BATUH (BLAHBATUH), GIANYAR, BALI, 80581",
        "province_name": "BALI",
        "city_name": "GIANYAR",
        "district_name": "BELAH BATUH (BLAHBATUH)",
        "subdistrict_name": "BONA",
        "zip_code": "80581"
    },
    {
        "id": 26242,
        "label": "BURUAN, BELAH BATUH (BLAHBATUH), GIANYAR, BALI, 80581",
        "province_name": "BALI",
        "city_name": "GIANYAR",
        "district_name": "BELAH BATUH (BLAHBATUH)",
        "subdistrict_name": "BURUAN",
        "zip_code": "80581"
    },
    {
        "id": 26243,
        "label": "KERAMAS, BELAH BATUH (BLAHBATUH), GIANYAR, BALI, 80581",
        "province_name": "BALI",
        "city_name": "GIANYAR",
        "district_name": "BELAH BATUH (BLAHBATUH)",
        "subdistrict_name": "KERAMAS",
        "zip_code": "80581"
    },
    {
        "id": 26244,
        "label": "MEDAHAN, BELAH BATUH (BLAHBATUH), GIANYAR, BALI, 80581",
        "province_name": "BALI",
        "city_name": "GIANYAR",
        "district_name": "BELAH BATUH (BLAHBATUH)",
        "subdistrict_name": "MEDAHAN",
        "zip_code": "80581"
    },
    {
        "id": 26245,
        "label": "PERING, BELAH BATUH (BLAHBATUH), GIANYAR, BALI, 80581",
        "province_name": "BALI",
        "city_name": "GIANYAR",
        "district_name": "BELAH BATUH (BLAHBATUH)",
        "subdistrict_name": "PERING",
        "zip_code": "80581"
    },
    {
        "id": 26246,
        "label": "SABA, BELAH BATUH (BLAHBATUH), GIANYAR, BALI, 80581",
        "province_name": "BALI",
        "city_name": "GIANYAR",
        "district_name": "BELAH BATUH (BLAHBATUH)",
        "subdistrict_name": "SABA",
        "zip_code": "80581"
    },
    {
        "id": 26247,
        "label": "BRESELA (BERESELA), PAYANGAN, GIANYAR, BALI, 80572",
        "province_name": "BALI",
        "city_name": "GIANYAR",
        "district_name": "PAYANGAN",
        "subdistrict_name": "BRESELA (BERESELA)",
        "zip_code": "80572"
    },
    {
        "id": 26248,
        "label": "BUAHAN, PAYANGAN, GIANYAR, BALI, 80572",
        "province_name": "BALI",
        "city_name": "GIANYAR",
        "district_name": "PAYANGAN",
        "subdistrict_name": "BUAHAN",
        "zip_code": "80572"
    },
    {
        "id": 26249,
        "label": "BUAHAN KAJA, PAYANGAN, GIANYAR, BALI, 80572",
        "province_name": "BALI",
        "city_name": "GIANYAR",
        "district_name": "PAYANGAN",
        "subdistrict_name": "BUAHAN KAJA",
        "zip_code": "80572"
    },
    {
        "id": 26250,
        "label": "BUKIAN, PAYANGAN, GIANYAR, BALI, 80572",
        "province_name": "BALI",
        "city_name": "GIANYAR",
        "district_name": "PAYANGAN",
        "subdistrict_name": "BUKIAN",
        "zip_code": "80572"
    },
    {
        "id": 26251,
        "label": "KELUSA, PAYANGAN, GIANYAR, BALI, 80572",
        "province_name": "BALI",
        "city_name": "GIANYAR",
        "district_name": "PAYANGAN",
        "subdistrict_name": "KELUSA",
        "zip_code": "80572"
    },
    {
        "id": 26252,
        "label": "KERTA, PAYANGAN, GIANYAR, BALI, 80572",
        "province_name": "BALI",
        "city_name": "GIANYAR",
        "district_name": "PAYANGAN",
        "subdistrict_name": "KERTA",
        "zip_code": "80572"
    },
    {
        "id": 26253,
        "label": "MELINGGIH, PAYANGAN, GIANYAR, BALI, 80572",
        "province_name": "BALI",
        "city_name": "GIANYAR",
        "district_name": "PAYANGAN",
        "subdistrict_name": "MELINGGIH",
        "zip_code": "80572"
    },
    {
        "id": 26254,
        "label": "MELINGGIH KELOD, PAYANGAN, GIANYAR, BALI, 80572",
        "province_name": "BALI",
        "city_name": "GIANYAR",
        "district_name": "PAYANGAN",
        "subdistrict_name": "MELINGGIH KELOD",
        "zip_code": "80572"
    },
    {
        "id": 26255,
        "label": "PUHU, PAYANGAN, GIANYAR, BALI, 80572",
        "province_name": "BALI",
        "city_name": "GIANYAR",
        "district_name": "PAYANGAN",
        "subdistrict_name": "PUHU",
        "zip_code": "80572"
    },
    {
        "id": 26256,
        "label": "BATUAN, SUKAWATI, GIANYAR, BALI, 80582",
        "province_name": "BALI",
        "city_name": "GIANYAR",
        "district_name": "SUKAWATI",
        "subdistrict_name": "BATUAN",
        "zip_code": "80582"
    },
    {
        "id": 26257,
        "label": "BATUAN KALER, SUKAWATI, GIANYAR, BALI, 80582",
        "province_name": "BALI",
        "city_name": "GIANYAR",
        "district_name": "SUKAWATI",
        "subdistrict_name": "BATUAN KALER",
        "zip_code": "80582"
    },
    {
        "id": 26258,
        "label": "BATUBULAN, SUKAWATI, GIANYAR, BALI, 80582",
        "province_name": "BALI",
        "city_name": "GIANYAR",
        "district_name": "SUKAWATI",
        "subdistrict_name": "BATUBULAN",
        "zip_code": "80582"
    },
    {
        "id": 26259,
        "label": "BATUBULAN KANGIN, SUKAWATI, GIANYAR, BALI, 80582",
        "province_name": "BALI",
        "city_name": "GIANYAR",
        "district_name": "SUKAWATI",
        "subdistrict_name": "BATUBULAN KANGIN",
        "zip_code": "80582"
    },
    {
        "id": 26260,
        "label": "CELUK, SUKAWATI, GIANYAR, BALI, 80582",
        "province_name": "BALI",
        "city_name": "GIANYAR",
        "district_name": "SUKAWATI",
        "subdistrict_name": "CELUK",
        "zip_code": "80582"
    },
    {
        "id": 26261,
        "label": "GUWANG, SUKAWATI, GIANYAR, BALI, 80582",
        "province_name": "BALI",
        "city_name": "GIANYAR",
        "district_name": "SUKAWATI",
        "subdistrict_name": "GUWANG",
        "zip_code": "80582"
    },
    {
        "id": 26262,
        "label": "KEMENUH, SUKAWATI, GIANYAR, BALI, 80582",
        "province_name": "BALI",
        "city_name": "GIANYAR",
        "district_name": "SUKAWATI",
        "subdistrict_name": "KEMENUH",
        "zip_code": "80582"
    },
    {
        "id": 26263,
        "label": "KETEWEL, SUKAWATI, GIANYAR, BALI, 80582",
        "province_name": "BALI",
        "city_name": "GIANYAR",
        "district_name": "SUKAWATI",
        "subdistrict_name": "KETEWEL",
        "zip_code": "80582"
    },
    {
        "id": 26264,
        "label": "SINGAPADU, SUKAWATI, GIANYAR, BALI, 80582",
        "province_name": "BALI",
        "city_name": "GIANYAR",
        "district_name": "SUKAWATI",
        "subdistrict_name": "SINGAPADU",
        "zip_code": "80582"
    },
    {
        "id": 26265,
        "label": "SINGAPADU KALER, SUKAWATI, GIANYAR, BALI, 80582",
        "province_name": "BALI",
        "city_name": "GIANYAR",
        "district_name": "SUKAWATI",
        "subdistrict_name": "SINGAPADU KALER",
        "zip_code": "80582"
    },
    {
        "id": 26266,
        "label": "SINGAPADU TENGAH, SUKAWATI, GIANYAR, BALI, 80582",
        "province_name": "BALI",
        "city_name": "GIANYAR",
        "district_name": "SUKAWATI",
        "subdistrict_name": "SINGAPADU TENGAH",
        "zip_code": "80582"
    },
    {
        "id": 26267,
        "label": "SUKAWATI, SUKAWATI, GIANYAR, BALI, 80582",
        "province_name": "BALI",
        "city_name": "GIANYAR",
        "district_name": "SUKAWATI",
        "subdistrict_name": "SUKAWATI",
        "zip_code": "80582"
    },
    {
        "id": 26268,
        "label": "MANUKAYA, TAMPAK SIRING, GIANYAR, BALI, 80552",
        "province_name": "BALI",
        "city_name": "GIANYAR",
        "district_name": "TAMPAK SIRING",
        "subdistrict_name": "MANUKAYA",
        "zip_code": "80552"
    },
    {
        "id": 26269,
        "label": "PEJENG, TAMPAK SIRING, GIANYAR, BALI, 80552",
        "province_name": "BALI",
        "city_name": "GIANYAR",
        "district_name": "TAMPAK SIRING",
        "subdistrict_name": "PEJENG",
        "zip_code": "80552"
    },
    {
        "id": 26270,
        "label": "PEJENG KAJA, TAMPAK SIRING, GIANYAR, BALI, 80552",
        "province_name": "BALI",
        "city_name": "GIANYAR",
        "district_name": "TAMPAK SIRING",
        "subdistrict_name": "PEJENG KAJA",
        "zip_code": "80552"
    },
    {
        "id": 26271,
        "label": "PEJENG KANGIN, TAMPAK SIRING, GIANYAR, BALI, 80552",
        "province_name": "BALI",
        "city_name": "GIANYAR",
        "district_name": "TAMPAK SIRING",
        "subdistrict_name": "PEJENG KANGIN",
        "zip_code": "80552"
    },
    {
        "id": 26272,
        "label": "PEJENG KAWAN, TAMPAK SIRING, GIANYAR, BALI, 80552",
        "province_name": "BALI",
        "city_name": "GIANYAR",
        "district_name": "TAMPAK SIRING",
        "subdistrict_name": "PEJENG KAWAN",
        "zip_code": "80552"
    },
    {
        "id": 26273,
        "label": "PEJENG KLOD (KELOD), TAMPAK SIRING, GIANYAR, BALI, 80552",
        "province_name": "BALI",
        "city_name": "GIANYAR",
        "district_name": "TAMPAK SIRING",
        "subdistrict_name": "PEJENG KLOD (KELOD)",
        "zip_code": "80552"
    },
    {
        "id": 26274,
        "label": "SANDING, TAMPAK SIRING, GIANYAR, BALI, 80552",
        "province_name": "BALI",
        "city_name": "GIANYAR",
        "district_name": "TAMPAK SIRING",
        "subdistrict_name": "SANDING",
        "zip_code": "80552"
    },
    {
        "id": 26275,
        "label": "TAMPAKSIRING, TAMPAK SIRING, GIANYAR, BALI, 80552",
        "province_name": "BALI",
        "city_name": "GIANYAR",
        "district_name": "TAMPAK SIRING",
        "subdistrict_name": "TAMPAKSIRING",
        "zip_code": "80552"
    },
    {
        "id": 26276,
        "label": "KEDISAN, TEGALLALANG, GIANYAR, BALI, 80561",
        "province_name": "BALI",
        "city_name": "GIANYAR",
        "district_name": "TEGALLALANG",
        "subdistrict_name": "KEDISAN",
        "zip_code": "80561"
    },
    {
        "id": 26277,
        "label": "KELIKI, TEGALLALANG, GIANYAR, BALI, 80561",
        "province_name": "BALI",
        "city_name": "GIANYAR",
        "district_name": "TEGALLALANG",
        "subdistrict_name": "KELIKI",
        "zip_code": "80561"
    },
    {
        "id": 26278,
        "label": "KENDERAN, TEGALLALANG, GIANYAR, BALI, 80561",
        "province_name": "BALI",
        "city_name": "GIANYAR",
        "district_name": "TEGALLALANG",
        "subdistrict_name": "KENDERAN",
        "zip_code": "80561"
    },
    {
        "id": 26279,
        "label": "PUPUAN, TEGALLALANG, GIANYAR, BALI, 80561",
        "province_name": "BALI",
        "city_name": "GIANYAR",
        "district_name": "TEGALLALANG",
        "subdistrict_name": "PUPUAN",
        "zip_code": "80561"
    },
    {
        "id": 26280,
        "label": "SEBATU, TEGALLALANG, GIANYAR, BALI, 80561",
        "province_name": "BALI",
        "city_name": "GIANYAR",
        "district_name": "TEGALLALANG",
        "subdistrict_name": "SEBATU",
        "zip_code": "80561"
    },
    {
        "id": 26281,
        "label": "TARO, TEGALLALANG, GIANYAR, BALI, 80561",
        "province_name": "BALI",
        "city_name": "GIANYAR",
        "district_name": "TEGALLALANG",
        "subdistrict_name": "TARO",
        "zip_code": "80561"
    },
    {
        "id": 26282,
        "label": "TEGALLALANG, TEGALLALANG, GIANYAR, BALI, 80561",
        "province_name": "BALI",
        "city_name": "GIANYAR",
        "district_name": "TEGALLALANG",
        "subdistrict_name": "TEGALLALANG",
        "zip_code": "80561"
    },
    {
        "id": 26283,
        "label": "KEDEWATAN, UBUD, GIANYAR, BALI, 80571",
        "province_name": "BALI",
        "city_name": "GIANYAR",
        "district_name": "UBUD",
        "subdistrict_name": "KEDEWATAN",
        "zip_code": "80571"
    },
    {
        "id": 26284,
        "label": "LODTUNDUH, UBUD, GIANYAR, BALI, 80571",
        "province_name": "BALI",
        "city_name": "GIANYAR",
        "district_name": "UBUD",
        "subdistrict_name": "LODTUNDUH",
        "zip_code": "80571"
    },
    {
        "id": 26285,
        "label": "MAS, UBUD, GIANYAR, BALI, 80571",
        "province_name": "BALI",
        "city_name": "GIANYAR",
        "district_name": "UBUD",
        "subdistrict_name": "MAS",
        "zip_code": "80571"
    },
    {
        "id": 26286,
        "label": "PELIATAN, UBUD, GIANYAR, BALI, 80571",
        "province_name": "BALI",
        "city_name": "GIANYAR",
        "district_name": "UBUD",
        "subdistrict_name": "PELIATAN",
        "zip_code": "80571"
    },
    {
        "id": 26287,
        "label": "PETULU, UBUD, GIANYAR, BALI, 80571",
        "province_name": "BALI",
        "city_name": "GIANYAR",
        "district_name": "UBUD",
        "subdistrict_name": "PETULU",
        "zip_code": "80571"
    },
    {
        "id": 26288,
        "label": "SAYAN, UBUD, GIANYAR, BALI, 80571",
        "province_name": "BALI",
        "city_name": "GIANYAR",
        "district_name": "UBUD",
        "subdistrict_name": "SAYAN",
        "zip_code": "80571"
    },
    {
        "id": 26289,
        "label": "SINGAKERTA (SINGEKERTA), UBUD, GIANYAR, BALI, 80571",
        "province_name": "BALI",
        "city_name": "GIANYAR",
        "district_name": "UBUD",
        "subdistrict_name": "SINGAKERTA (SINGEKERTA)",
        "zip_code": "80571"
    },
    {
        "id": 26290,
        "label": "UBUD, UBUD, GIANYAR, BALI, 80571",
        "province_name": "BALI",
        "city_name": "GIANYAR",
        "district_name": "UBUD",
        "subdistrict_name": "UBUD",
        "zip_code": "80571"
    },
    {
        "id": 26291,
        "label": "BALER BALE AGUNG, NEGARA, JEMBRANA, BALI, 82212",
        "province_name": "BALI",
        "city_name": "JEMBRANA",
        "district_name": "NEGARA",
        "subdistrict_name": "BALER BALE AGUNG",
        "zip_code": "82212"
    },
    {
        "id": 26292,
        "label": "BALUK, NEGARA, JEMBRANA, BALI, 82218",
        "province_name": "BALI",
        "city_name": "JEMBRANA",
        "district_name": "NEGARA",
        "subdistrict_name": "BALUK",
        "zip_code": "82218"
    },
    {
        "id": 26293,
        "label": "BANJAR TENGAH, NEGARA, JEMBRANA, BALI, 82213",
        "province_name": "BALI",
        "city_name": "JEMBRANA",
        "district_name": "NEGARA",
        "subdistrict_name": "BANJAR TENGAH",
        "zip_code": "82213"
    },
    {
        "id": 26294,
        "label": "BANYUBIRU, NEGARA, JEMBRANA, BALI, 82218",
        "province_name": "BALI",
        "city_name": "JEMBRANA",
        "district_name": "NEGARA",
        "subdistrict_name": "BANYUBIRU",
        "zip_code": "82218"
    },
    {
        "id": 26295,
        "label": "BERANGBANG, NEGARA, JEMBRANA, BALI, 82218",
        "province_name": "BALI",
        "city_name": "JEMBRANA",
        "district_name": "NEGARA",
        "subdistrict_name": "BERANGBANG",
        "zip_code": "82218"
    },
    {
        "id": 26296,
        "label": "CUPEL, NEGARA, JEMBRANA, BALI, 82218",
        "province_name": "BALI",
        "city_name": "JEMBRANA",
        "district_name": "NEGARA",
        "subdistrict_name": "CUPEL",
        "zip_code": "82218"
    },
    {
        "id": 26297,
        "label": "KALIAKAH, NEGARA, JEMBRANA, BALI, 82218",
        "province_name": "BALI",
        "city_name": "JEMBRANA",
        "district_name": "NEGARA",
        "subdistrict_name": "KALIAKAH",
        "zip_code": "82218"
    },
    {
        "id": 26298,
        "label": "LELATENG, NEGARA, JEMBRANA, BALI, 82214",
        "province_name": "BALI",
        "city_name": "JEMBRANA",
        "district_name": "NEGARA",
        "subdistrict_name": "LELATENG",
        "zip_code": "82214"
    },
    {
        "id": 26299,
        "label": "LOLOAN BARAT, NEGARA, JEMBRANA, BALI, 82215",
        "province_name": "BALI",
        "city_name": "JEMBRANA",
        "district_name": "NEGARA",
        "subdistrict_name": "LOLOAN BARAT",
        "zip_code": "82215"
    },
    {
        "id": 26300,
        "label": "PENGAMBENGAN, NEGARA, JEMBRANA, BALI, 82218",
        "province_name": "BALI",
        "city_name": "JEMBRANA",
        "district_name": "NEGARA",
        "subdistrict_name": "PENGAMBENGAN",
        "zip_code": "82218"
    },
    {
        "id": 26301,
        "label": "TEGAL BADENG BARAT, NEGARA, JEMBRANA, BALI, 82218",
        "province_name": "BALI",
        "city_name": "JEMBRANA",
        "district_name": "NEGARA",
        "subdistrict_name": "TEGAL BADENG BARAT",
        "zip_code": "82218"
    },
    {
        "id": 26302,
        "label": "TEGAL BADENG TIMUR, NEGARA, JEMBRANA, BALI, 82218",
        "province_name": "BALI",
        "city_name": "JEMBRANA",
        "district_name": "NEGARA",
        "subdistrict_name": "TEGAL BADENG TIMUR",
        "zip_code": "82218"
    },
    {
        "id": 26303,
        "label": "BLIMBINGSARI (BELIMBINGSARI), MELAYA, JEMBRANA, BALI, 82252",
        "province_name": "BALI",
        "city_name": "JEMBRANA",
        "district_name": "MELAYA",
        "subdistrict_name": "BLIMBINGSARI (BELIMBINGSARI)",
        "zip_code": "82252"
    },
    {
        "id": 26304,
        "label": "CANDIKUSUMA, MELAYA, JEMBRANA, BALI, 82252",
        "province_name": "BALI",
        "city_name": "JEMBRANA",
        "district_name": "MELAYA",
        "subdistrict_name": "CANDIKUSUMA",
        "zip_code": "82252"
    },
    {
        "id": 26305,
        "label": "EKASARI, MELAYA, JEMBRANA, BALI, 82252",
        "province_name": "BALI",
        "city_name": "JEMBRANA",
        "district_name": "MELAYA",
        "subdistrict_name": "EKASARI",
        "zip_code": "82252"
    },
    {
        "id": 26306,
        "label": "GILIMANUK, MELAYA, JEMBRANA, BALI, 82252",
        "province_name": "BALI",
        "city_name": "JEMBRANA",
        "district_name": "MELAYA",
        "subdistrict_name": "GILIMANUK",
        "zip_code": "82252"
    },
    {
        "id": 26307,
        "label": "MANISTUTU, MELAYA, JEMBRANA, BALI, 82252",
        "province_name": "BALI",
        "city_name": "JEMBRANA",
        "district_name": "MELAYA",
        "subdistrict_name": "MANISTUTU",
        "zip_code": "82252"
    },
    {
        "id": 26308,
        "label": "MELAYA, MELAYA, JEMBRANA, BALI, 82252",
        "province_name": "BALI",
        "city_name": "JEMBRANA",
        "district_name": "MELAYA",
        "subdistrict_name": "MELAYA",
        "zip_code": "82252"
    },
    {
        "id": 26309,
        "label": "NUSA SARI, MELAYA, JEMBRANA, BALI, 82252",
        "province_name": "BALI",
        "city_name": "JEMBRANA",
        "district_name": "MELAYA",
        "subdistrict_name": "NUSA SARI",
        "zip_code": "82252"
    },
    {
        "id": 26310,
        "label": "TUKADAYA, MELAYA, JEMBRANA, BALI, 82252",
        "province_name": "BALI",
        "city_name": "JEMBRANA",
        "district_name": "MELAYA",
        "subdistrict_name": "TUKADAYA",
        "zip_code": "82252"
    },
    {
        "id": 26311,
        "label": "TUWED, MELAYA, JEMBRANA, BALI, 82252",
        "province_name": "BALI",
        "city_name": "JEMBRANA",
        "district_name": "MELAYA",
        "subdistrict_name": "TUWED",
        "zip_code": "82252"
    },
    {
        "id": 26312,
        "label": "WARNASARI, MELAYA, JEMBRANA, BALI, 82252",
        "province_name": "BALI",
        "city_name": "JEMBRANA",
        "district_name": "MELAYA",
        "subdistrict_name": "WARNASARI",
        "zip_code": "82252"
    },
    {
        "id": 26313,
        "label": "DELOD BERAWAH, MENDOYO, JEMBRANA, BALI, 82261",
        "province_name": "BALI",
        "city_name": "JEMBRANA",
        "district_name": "MENDOYO",
        "subdistrict_name": "DELOD BERAWAH",
        "zip_code": "82261"
    },
    {
        "id": 26314,
        "label": "MENDOYO DANGIN TUKAD, MENDOYO, JEMBRANA, BALI, 82261",
        "province_name": "BALI",
        "city_name": "JEMBRANA",
        "district_name": "MENDOYO",
        "subdistrict_name": "MENDOYO DANGIN TUKAD",
        "zip_code": "82261"
    },
    {
        "id": 26315,
        "label": "MENDOYO DAUH TUKAD, MENDOYO, JEMBRANA, BALI, 82261",
        "province_name": "BALI",
        "city_name": "JEMBRANA",
        "district_name": "MENDOYO",
        "subdistrict_name": "MENDOYO DAUH TUKAD",
        "zip_code": "82261"
    },
    {
        "id": 26316,
        "label": "PENYARINGAN, MENDOYO, JEMBRANA, BALI, 82261",
        "province_name": "BALI",
        "city_name": "JEMBRANA",
        "district_name": "MENDOYO",
        "subdistrict_name": "PENYARINGAN",
        "zip_code": "82261"
    },
    {
        "id": 26317,
        "label": "PERGUNG, MENDOYO, JEMBRANA, BALI, 82261",
        "province_name": "BALI",
        "city_name": "JEMBRANA",
        "district_name": "MENDOYO",
        "subdistrict_name": "PERGUNG",
        "zip_code": "82261"
    },
    {
        "id": 26318,
        "label": "POHSANTEN, MENDOYO, JEMBRANA, BALI, 82261",
        "province_name": "BALI",
        "city_name": "JEMBRANA",
        "district_name": "MENDOYO",
        "subdistrict_name": "POHSANTEN",
        "zip_code": "82261"
    },
    {
        "id": 26319,
        "label": "TEGAL CANGKRING, MENDOYO, JEMBRANA, BALI, 82261",
        "province_name": "BALI",
        "city_name": "JEMBRANA",
        "district_name": "MENDOYO",
        "subdistrict_name": "TEGAL CANGKRING",
        "zip_code": "82261"
    },
    {
        "id": 26320,
        "label": "YEH EMBANG, MENDOYO, JEMBRANA, BALI, 82261",
        "province_name": "BALI",
        "city_name": "JEMBRANA",
        "district_name": "MENDOYO",
        "subdistrict_name": "YEH EMBANG",
        "zip_code": "82261"
    },
    {
        "id": 26321,
        "label": "YEH EMBANG KANGIN, MENDOYO, JEMBRANA, BALI, 82261",
        "province_name": "BALI",
        "city_name": "JEMBRANA",
        "district_name": "MENDOYO",
        "subdistrict_name": "YEH EMBANG KANGIN",
        "zip_code": "82261"
    },
    {
        "id": 26322,
        "label": "YEH EMBANG KAUH, MENDOYO, JEMBRANA, BALI, 82261",
        "province_name": "BALI",
        "city_name": "JEMBRANA",
        "district_name": "MENDOYO",
        "subdistrict_name": "YEH EMBANG KAUH",
        "zip_code": "82261"
    },
    {
        "id": 26323,
        "label": "YEH SUMBUL, MENDOYO, JEMBRANA, BALI, 82261",
        "province_name": "BALI",
        "city_name": "JEMBRANA",
        "district_name": "MENDOYO",
        "subdistrict_name": "YEH SUMBUL",
        "zip_code": "82261"
    },
    {
        "id": 26324,
        "label": "ASAHDUREN, PEKUTATAN, JEMBRANA, BALI, 82262",
        "province_name": "BALI",
        "city_name": "JEMBRANA",
        "district_name": "PEKUTATAN",
        "subdistrict_name": "ASAHDUREN",
        "zip_code": "82262"
    },
    {
        "id": 26325,
        "label": "GUMBRIH, PEKUTATAN, JEMBRANA, BALI, 82262",
        "province_name": "BALI",
        "city_name": "JEMBRANA",
        "district_name": "PEKUTATAN",
        "subdistrict_name": "GUMBRIH",
        "zip_code": "82262"
    },
    {
        "id": 26326,
        "label": "MANGGISSARI, PEKUTATAN, JEMBRANA, BALI, 82262",
        "province_name": "BALI",
        "city_name": "JEMBRANA",
        "district_name": "PEKUTATAN",
        "subdistrict_name": "MANGGISSARI",
        "zip_code": "82262"
    },
    {
        "id": 26327,
        "label": "MEDEWI, PEKUTATAN, JEMBRANA, BALI, 82262",
        "province_name": "BALI",
        "city_name": "JEMBRANA",
        "district_name": "PEKUTATAN",
        "subdistrict_name": "MEDEWI",
        "zip_code": "82262"
    },
    {
        "id": 26328,
        "label": "PANGYANGAN, PEKUTATAN, JEMBRANA, BALI, 82262",
        "province_name": "BALI",
        "city_name": "JEMBRANA",
        "district_name": "PEKUTATAN",
        "subdistrict_name": "PANGYANGAN",
        "zip_code": "82262"
    },
    {
        "id": 26329,
        "label": "PEKUTATAN, PEKUTATAN, JEMBRANA, BALI, 82262",
        "province_name": "BALI",
        "city_name": "JEMBRANA",
        "district_name": "PEKUTATAN",
        "subdistrict_name": "PEKUTATAN",
        "zip_code": "82262"
    },
    {
        "id": 26330,
        "label": "PENGERAGOAN (PENGRAGOAN), PEKUTATAN, JEMBRANA, BALI, 82262",
        "province_name": "BALI",
        "city_name": "JEMBRANA",
        "district_name": "PEKUTATAN",
        "subdistrict_name": "PENGERAGOAN (PENGRAGOAN)",
        "zip_code": "82262"
    },
    {
        "id": 26331,
        "label": "PULUKAN, PEKUTATAN, JEMBRANA, BALI, 82262",
        "province_name": "BALI",
        "city_name": "JEMBRANA",
        "district_name": "PEKUTATAN",
        "subdistrict_name": "PULUKAN",
        "zip_code": "82262"
    },
    {
        "id": 26332,
        "label": "AIR KUNING, JEMBRANA, JEMBRANA, BALI, 82218",
        "province_name": "BALI",
        "city_name": "JEMBRANA",
        "district_name": "JEMBRANA",
        "subdistrict_name": "AIR KUNING",
        "zip_code": "82218"
    },
    {
        "id": 26333,
        "label": "BATUAGUNG, JEMBRANA, JEMBRANA, BALI, 82218",
        "province_name": "BALI",
        "city_name": "JEMBRANA",
        "district_name": "JEMBRANA",
        "subdistrict_name": "BATUAGUNG",
        "zip_code": "82218"
    },
    {
        "id": 26334,
        "label": "BUDENG, JEMBRANA, JEMBRANA, BALI, 82218",
        "province_name": "BALI",
        "city_name": "JEMBRANA",
        "district_name": "JEMBRANA",
        "subdistrict_name": "BUDENG",
        "zip_code": "82218"
    },
    {
        "id": 26335,
        "label": "DANGIN TUKADAYA, JEMBRANA, JEMBRANA, BALI, 82218",
        "province_name": "BALI",
        "city_name": "JEMBRANA",
        "district_name": "JEMBRANA",
        "subdistrict_name": "DANGIN TUKADAYA",
        "zip_code": "82218"
    },
    {
        "id": 26336,
        "label": "DAUHWARU, JEMBRANA, JEMBRANA, BALI, 82218",
        "province_name": "BALI",
        "city_name": "JEMBRANA",
        "district_name": "JEMBRANA",
        "subdistrict_name": "DAUHWARU",
        "zip_code": "82218"
    },
    {
        "id": 26337,
        "label": "LOLOAN TIMUR, JEMBRANA, JEMBRANA, BALI, 82216",
        "province_name": "BALI",
        "city_name": "JEMBRANA",
        "district_name": "JEMBRANA",
        "subdistrict_name": "LOLOAN TIMUR",
        "zip_code": "82216"
    },
    {
        "id": 26338,
        "label": "PENDEM, JEMBRANA, JEMBRANA, BALI, 82211",
        "province_name": "BALI",
        "city_name": "JEMBRANA",
        "district_name": "JEMBRANA",
        "subdistrict_name": "PENDEM",
        "zip_code": "82211"
    },
    {
        "id": 26339,
        "label": "PERANCAK, JEMBRANA, JEMBRANA, BALI, 82218",
        "province_name": "BALI",
        "city_name": "JEMBRANA",
        "district_name": "JEMBRANA",
        "subdistrict_name": "PERANCAK",
        "zip_code": "82218"
    },
    {
        "id": 26340,
        "label": "SANGKARAGUNG, JEMBRANA, JEMBRANA, BALI, 82218",
        "province_name": "BALI",
        "city_name": "JEMBRANA",
        "district_name": "JEMBRANA",
        "subdistrict_name": "SANGKARAGUNG",
        "zip_code": "82218"
    },
    {
        "id": 26341,
        "label": "YEH KUNING, JEMBRANA, JEMBRANA, BALI, 82218",
        "province_name": "BALI",
        "city_name": "JEMBRANA",
        "district_name": "JEMBRANA",
        "subdistrict_name": "YEH KUNING",
        "zip_code": "82218"
    },
    {
        "id": 26343,
        "label": "BESAN, DAWAN, KLUNGKUNG, BALI, 80761",
        "province_name": "BALI",
        "city_name": "KLUNGKUNG",
        "district_name": "DAWAN",
        "subdistrict_name": "BESAN",
        "zip_code": "80761"
    },
    {
        "id": 26344,
        "label": "DAWAN KALER, DAWAN, KLUNGKUNG, BALI, 80761",
        "province_name": "BALI",
        "city_name": "KLUNGKUNG",
        "district_name": "DAWAN",
        "subdistrict_name": "DAWAN KALER",
        "zip_code": "80761"
    },
    {
        "id": 26345,
        "label": "DAWAN KLOD, DAWAN, KLUNGKUNG, BALI, 80761",
        "province_name": "BALI",
        "city_name": "KLUNGKUNG",
        "district_name": "DAWAN",
        "subdistrict_name": "DAWAN KLOD",
        "zip_code": "80761"
    },
    {
        "id": 26346,
        "label": "GUNAKSA, DAWAN, KLUNGKUNG, BALI, 80761",
        "province_name": "BALI",
        "city_name": "KLUNGKUNG",
        "district_name": "DAWAN",
        "subdistrict_name": "GUNAKSA",
        "zip_code": "80761"
    },
    {
        "id": 26347,
        "label": "KAMPUNG KUSAMBA, DAWAN, KLUNGKUNG, BALI, 80761",
        "province_name": "BALI",
        "city_name": "KLUNGKUNG",
        "district_name": "DAWAN",
        "subdistrict_name": "KAMPUNG KUSAMBA",
        "zip_code": "80761"
    },
    {
        "id": 26348,
        "label": "KUSAMBA, DAWAN, KLUNGKUNG, BALI, 80761",
        "province_name": "BALI",
        "city_name": "KLUNGKUNG",
        "district_name": "DAWAN",
        "subdistrict_name": "KUSAMBA",
        "zip_code": "80761"
    },
    {
        "id": 26349,
        "label": "PAKSEBALI, DAWAN, KLUNGKUNG, BALI, 80761",
        "province_name": "BALI",
        "city_name": "KLUNGKUNG",
        "district_name": "DAWAN",
        "subdistrict_name": "PAKSEBALI",
        "zip_code": "80761"
    },
    {
        "id": 26350,
        "label": "PESINGGAHAN, DAWAN, KLUNGKUNG, BALI, 80761",
        "province_name": "BALI",
        "city_name": "KLUNGKUNG",
        "district_name": "DAWAN",
        "subdistrict_name": "PESINGGAHAN",
        "zip_code": "80761"
    },
    {
        "id": 26351,
        "label": "PIKAT, DAWAN, KLUNGKUNG, BALI, 80761",
        "province_name": "BALI",
        "city_name": "KLUNGKUNG",
        "district_name": "DAWAN",
        "subdistrict_name": "PIKAT",
        "zip_code": "80761"
    },
    {
        "id": 26352,
        "label": "SAMPALAN KLOD, DAWAN, KLUNGKUNG, BALI, 80761",
        "province_name": "BALI",
        "city_name": "KLUNGKUNG",
        "district_name": "DAWAN",
        "subdistrict_name": "SAMPALAN KLOD",
        "zip_code": "80761"
    },
    {
        "id": 26353,
        "label": "SAMPALAN TENGAH, DAWAN, KLUNGKUNG, BALI, 80761",
        "province_name": "BALI",
        "city_name": "KLUNGKUNG",
        "district_name": "DAWAN",
        "subdistrict_name": "SAMPALAN TENGAH",
        "zip_code": "80761"
    },
    {
        "id": 26354,
        "label": "SULANG, DAWAN, KLUNGKUNG, BALI, 80761",
        "province_name": "BALI",
        "city_name": "KLUNGKUNG",
        "district_name": "DAWAN",
        "subdistrict_name": "SULANG",
        "zip_code": "80761"
    },
    {
        "id": 26355,
        "label": "AKAH, KLUNGKUNG, KLUNGKUNG, BALI, 80716",
        "province_name": "BALI",
        "city_name": "KLUNGKUNG",
        "district_name": "KLUNGKUNG",
        "subdistrict_name": "AKAH",
        "zip_code": "80716"
    },
    {
        "id": 26356,
        "label": "GELGEL, KLUNGKUNG, KLUNGKUNG, BALI, 80716",
        "province_name": "BALI",
        "city_name": "KLUNGKUNG",
        "district_name": "KLUNGKUNG",
        "subdistrict_name": "GELGEL",
        "zip_code": "80716"
    },
    {
        "id": 26357,
        "label": "JUMPAI, KLUNGKUNG, KLUNGKUNG, BALI, 80716",
        "province_name": "BALI",
        "city_name": "KLUNGKUNG",
        "district_name": "KLUNGKUNG",
        "subdistrict_name": "JUMPAI",
        "zip_code": "80716"
    },
    {
        "id": 26358,
        "label": "KAMASAN, KLUNGKUNG, KLUNGKUNG, BALI, 80716",
        "province_name": "BALI",
        "city_name": "KLUNGKUNG",
        "district_name": "KLUNGKUNG",
        "subdistrict_name": "KAMASAN",
        "zip_code": "80716"
    },
    {
        "id": 26359,
        "label": "KAMPUNG GELGEL, KLUNGKUNG, KLUNGKUNG, BALI, 80716",
        "province_name": "BALI",
        "city_name": "KLUNGKUNG",
        "district_name": "KLUNGKUNG",
        "subdistrict_name": "KAMPUNG GELGEL",
        "zip_code": "80716"
    },
    {
        "id": 26360,
        "label": "MANDUANG, KLUNGKUNG, KLUNGKUNG, BALI, 80716",
        "province_name": "BALI",
        "city_name": "KLUNGKUNG",
        "district_name": "KLUNGKUNG",
        "subdistrict_name": "MANDUANG",
        "zip_code": "80716"
    },
    {
        "id": 26361,
        "label": "SATRA, KLUNGKUNG, KLUNGKUNG, BALI, 80716",
        "province_name": "BALI",
        "city_name": "KLUNGKUNG",
        "district_name": "KLUNGKUNG",
        "subdistrict_name": "SATRA",
        "zip_code": "80716"
    },
    {
        "id": 26362,
        "label": "SELAT, KLUNGKUNG, KLUNGKUNG, BALI, 80716",
        "province_name": "BALI",
        "city_name": "KLUNGKUNG",
        "district_name": "KLUNGKUNG",
        "subdistrict_name": "SELAT",
        "zip_code": "80716"
    },
    {
        "id": 26363,
        "label": "SELISIHAN, KLUNGKUNG, KLUNGKUNG, BALI, 80716",
        "province_name": "BALI",
        "city_name": "KLUNGKUNG",
        "district_name": "KLUNGKUNG",
        "subdistrict_name": "SELISIHAN",
        "zip_code": "80716"
    },
    {
        "id": 26364,
        "label": "SEMARAPURA KAJA, KLUNGKUNG, KLUNGKUNG, BALI, 80712",
        "province_name": "BALI",
        "city_name": "KLUNGKUNG",
        "district_name": "KLUNGKUNG",
        "subdistrict_name": "SEMARAPURA KAJA",
        "zip_code": "80712"
    },
    {
        "id": 26365,
        "label": "SEMARAPURA KANGIN, KLUNGKUNG, KLUNGKUNG, BALI, 80716",
        "province_name": "BALI",
        "city_name": "KLUNGKUNG",
        "district_name": "KLUNGKUNG",
        "subdistrict_name": "SEMARAPURA KANGIN",
        "zip_code": "80716"
    },
    {
        "id": 26366,
        "label": "SEMARAPURA KAUH, KLUNGKUNG, KLUNGKUNG, BALI, 80713",
        "province_name": "BALI",
        "city_name": "KLUNGKUNG",
        "district_name": "KLUNGKUNG",
        "subdistrict_name": "SEMARAPURA KAUH",
        "zip_code": "80713"
    },
    {
        "id": 26367,
        "label": "SEMARAPURA KLOD KANGIN, KLUNGKUNG, KLUNGKUNG, BALI, 80716",
        "province_name": "BALI",
        "city_name": "KLUNGKUNG",
        "district_name": "KLUNGKUNG",
        "subdistrict_name": "SEMARAPURA KLOD KANGIN",
        "zip_code": "80716"
    },
    {
        "id": 26368,
        "label": "SEMARAPURA KLOD/KELOD, KLUNGKUNG, KLUNGKUNG, BALI, 80716",
        "province_name": "BALI",
        "city_name": "KLUNGKUNG",
        "district_name": "KLUNGKUNG",
        "subdistrict_name": "SEMARAPURA KLOD/KELOD",
        "zip_code": "80716"
    },
    {
        "id": 26369,
        "label": "SEMARAPURA TENGAH, KLUNGKUNG, KLUNGKUNG, BALI, 80711",
        "province_name": "BALI",
        "city_name": "KLUNGKUNG",
        "district_name": "KLUNGKUNG",
        "subdistrict_name": "SEMARAPURA TENGAH",
        "zip_code": "80711"
    },
    {
        "id": 26370,
        "label": "TANGKAS, KLUNGKUNG, KLUNGKUNG, BALI, 80716",
        "province_name": "BALI",
        "city_name": "KLUNGKUNG",
        "district_name": "KLUNGKUNG",
        "subdistrict_name": "TANGKAS",
        "zip_code": "80716"
    },
    {
        "id": 26371,
        "label": "TEGAK, KLUNGKUNG, KLUNGKUNG, BALI, 80716",
        "province_name": "BALI",
        "city_name": "KLUNGKUNG",
        "district_name": "KLUNGKUNG",
        "subdistrict_name": "TEGAK",
        "zip_code": "80716"
    },
    {
        "id": 26372,
        "label": "TOJAN, KLUNGKUNG, KLUNGKUNG, BALI, 80716",
        "province_name": "BALI",
        "city_name": "KLUNGKUNG",
        "district_name": "KLUNGKUNG",
        "subdistrict_name": "TOJAN",
        "zip_code": "80716"
    },
    {
        "id": 26373,
        "label": "BATUKANDIK, NUSAPENIDA, KLUNGKUNG, BALI, 80771",
        "province_name": "BALI",
        "city_name": "KLUNGKUNG",
        "district_name": "NUSAPENIDA",
        "subdistrict_name": "BATUKANDIK",
        "zip_code": "80771"
    },
    {
        "id": 26374,
        "label": "BATUMADEG, NUSAPENIDA, KLUNGKUNG, BALI, 80771",
        "province_name": "BALI",
        "city_name": "KLUNGKUNG",
        "district_name": "NUSAPENIDA",
        "subdistrict_name": "BATUMADEG",
        "zip_code": "80771"
    },
    {
        "id": 26375,
        "label": "BATUNUNGGUL, NUSAPENIDA, KLUNGKUNG, BALI, 80771",
        "province_name": "BALI",
        "city_name": "KLUNGKUNG",
        "district_name": "NUSAPENIDA",
        "subdistrict_name": "BATUNUNGGUL",
        "zip_code": "80771"
    },
    {
        "id": 26376,
        "label": "BUNGA MEKAR, NUSAPENIDA, KLUNGKUNG, BALI, 80771",
        "province_name": "BALI",
        "city_name": "KLUNGKUNG",
        "district_name": "NUSAPENIDA",
        "subdistrict_name": "BUNGA MEKAR",
        "zip_code": "80771"
    },
    {
        "id": 26377,
        "label": "JUNGUTBATU, NUSAPENIDA, KLUNGKUNG, BALI, 80771",
        "province_name": "BALI",
        "city_name": "KLUNGKUNG",
        "district_name": "NUSAPENIDA",
        "subdistrict_name": "JUNGUTBATU",
        "zip_code": "80771"
    },
    {
        "id": 26378,
        "label": "KAMPUNG TOYAPAKEH, NUSAPENIDA, KLUNGKUNG, BALI, 80771",
        "province_name": "BALI",
        "city_name": "KLUNGKUNG",
        "district_name": "NUSAPENIDA",
        "subdistrict_name": "KAMPUNG TOYAPAKEH",
        "zip_code": "80771"
    },
    {
        "id": 26379,
        "label": "KLUMPU, NUSAPENIDA, KLUNGKUNG, BALI, 80771",
        "province_name": "BALI",
        "city_name": "KLUNGKUNG",
        "district_name": "NUSAPENIDA",
        "subdistrict_name": "KLUMPU",
        "zip_code": "80771"
    },
    {
        "id": 26380,
        "label": "KUTAMPI, NUSAPENIDA, KLUNGKUNG, BALI, 80771",
        "province_name": "BALI",
        "city_name": "KLUNGKUNG",
        "district_name": "NUSAPENIDA",
        "subdistrict_name": "KUTAMPI",
        "zip_code": "80771"
    },
    {
        "id": 26381,
        "label": "KUTAMPI KALER, NUSAPENIDA, KLUNGKUNG, BALI, 80771",
        "province_name": "BALI",
        "city_name": "KLUNGKUNG",
        "district_name": "NUSAPENIDA",
        "subdistrict_name": "KUTAMPI KALER",
        "zip_code": "80771"
    },
    {
        "id": 26382,
        "label": "LEMBONGAN, NUSAPENIDA, KLUNGKUNG, BALI, 80771",
        "province_name": "BALI",
        "city_name": "KLUNGKUNG",
        "district_name": "NUSAPENIDA",
        "subdistrict_name": "LEMBONGAN",
        "zip_code": "80771"
    },
    {
        "id": 26383,
        "label": "PED, NUSAPENIDA, KLUNGKUNG, BALI, 80771",
        "province_name": "BALI",
        "city_name": "KLUNGKUNG",
        "district_name": "NUSAPENIDA",
        "subdistrict_name": "PED",
        "zip_code": "80771"
    },
    {
        "id": 26384,
        "label": "PEJUKUTAN, NUSAPENIDA, KLUNGKUNG, BALI, 80771",
        "province_name": "BALI",
        "city_name": "KLUNGKUNG",
        "district_name": "NUSAPENIDA",
        "subdistrict_name": "PEJUKUTAN",
        "zip_code": "80771"
    },
    {
        "id": 26385,
        "label": "SAKTI, NUSAPENIDA, KLUNGKUNG, BALI, 80771",
        "province_name": "BALI",
        "city_name": "KLUNGKUNG",
        "district_name": "NUSAPENIDA",
        "subdistrict_name": "SAKTI",
        "zip_code": "80771"
    },
    {
        "id": 26386,
        "label": "SEKARTAJI, NUSAPENIDA, KLUNGKUNG, BALI, 80771",
        "province_name": "BALI",
        "city_name": "KLUNGKUNG",
        "district_name": "NUSAPENIDA",
        "subdistrict_name": "SEKARTAJI",
        "zip_code": "80771"
    },
    {
        "id": 26387,
        "label": "SUANA, NUSAPENIDA, KLUNGKUNG, BALI, 80771",
        "province_name": "BALI",
        "city_name": "KLUNGKUNG",
        "district_name": "NUSAPENIDA",
        "subdistrict_name": "SUANA",
        "zip_code": "80771"
    },
    {
        "id": 26388,
        "label": "TANGLAD, NUSAPENIDA, KLUNGKUNG, BALI, 80771",
        "province_name": "BALI",
        "city_name": "KLUNGKUNG",
        "district_name": "NUSAPENIDA",
        "subdistrict_name": "TANGLAD",
        "zip_code": "80771"
    },
    {
        "id": 26389,
        "label": "AAN, BANJARANGKAN, KLUNGKUNG, BALI, 80752",
        "province_name": "BALI",
        "city_name": "KLUNGKUNG",
        "district_name": "BANJARANGKAN",
        "subdistrict_name": "AAN",
        "zip_code": "80752"
    },
    {
        "id": 26390,
        "label": "BAKAS, BANJARANGKAN, KLUNGKUNG, BALI, 80752",
        "province_name": "BALI",
        "city_name": "KLUNGKUNG",
        "district_name": "BANJARANGKAN",
        "subdistrict_name": "BAKAS",
        "zip_code": "80752"
    },
    {
        "id": 26391,
        "label": "BANJARANGKAN, BANJARANGKAN, KLUNGKUNG, BALI, 80752",
        "province_name": "BALI",
        "city_name": "KLUNGKUNG",
        "district_name": "BANJARANGKAN",
        "subdistrict_name": "BANJARANGKAN",
        "zip_code": "80752"
    },
    {
        "id": 26392,
        "label": "BUNGBUNGAN, BANJARANGKAN, KLUNGKUNG, BALI, 80752",
        "province_name": "BALI",
        "city_name": "KLUNGKUNG",
        "district_name": "BANJARANGKAN",
        "subdistrict_name": "BUNGBUNGAN",
        "zip_code": "80752"
    },
    {
        "id": 26393,
        "label": "GETAKAN, BANJARANGKAN, KLUNGKUNG, BALI, 80752",
        "province_name": "BALI",
        "city_name": "KLUNGKUNG",
        "district_name": "BANJARANGKAN",
        "subdistrict_name": "GETAKAN",
        "zip_code": "80752"
    },
    {
        "id": 26394,
        "label": "NEGARI, BANJARANGKAN, KLUNGKUNG, BALI, 80752",
        "province_name": "BALI",
        "city_name": "KLUNGKUNG",
        "district_name": "BANJARANGKAN",
        "subdistrict_name": "NEGARI",
        "zip_code": "80752"
    },
    {
        "id": 26395,
        "label": "NYALIAN, BANJARANGKAN, KLUNGKUNG, BALI, 80752",
        "province_name": "BALI",
        "city_name": "KLUNGKUNG",
        "district_name": "BANJARANGKAN",
        "subdistrict_name": "NYALIAN",
        "zip_code": "80752"
    },
    {
        "id": 26396,
        "label": "NYANGLAN, BANJARANGKAN, KLUNGKUNG, BALI, 80752",
        "province_name": "BALI",
        "city_name": "KLUNGKUNG",
        "district_name": "BANJARANGKAN",
        "subdistrict_name": "NYANGLAN",
        "zip_code": "80752"
    },
    {
        "id": 26397,
        "label": "TAKMUNG, BANJARANGKAN, KLUNGKUNG, BALI, 80752",
        "province_name": "BALI",
        "city_name": "KLUNGKUNG",
        "district_name": "BANJARANGKAN",
        "subdistrict_name": "TAKMUNG",
        "zip_code": "80752"
    },
    {
        "id": 26398,
        "label": "TIHINGAN, BANJARANGKAN, KLUNGKUNG, BALI, 80752",
        "province_name": "BALI",
        "city_name": "KLUNGKUNG",
        "district_name": "BANJARANGKAN",
        "subdistrict_name": "TIHINGAN",
        "zip_code": "80752"
    },
    {
        "id": 26399,
        "label": "TIMUHUN, BANJARANGKAN, KLUNGKUNG, BALI, 80752",
        "province_name": "BALI",
        "city_name": "KLUNGKUNG",
        "district_name": "BANJARANGKAN",
        "subdistrict_name": "TIMUHUN",
        "zip_code": "80752"
    },
    {
        "id": 26400,
        "label": "TOHPATI, BANJARANGKAN, KLUNGKUNG, BALI, 80752",
        "province_name": "BALI",
        "city_name": "KLUNGKUNG",
        "district_name": "BANJARANGKAN",
        "subdistrict_name": "TOHPATI",
        "zip_code": "80752"
    },
    {
        "id": 26401,
        "label": "TUSAN, BANJARANGKAN, KLUNGKUNG, BALI, 80752",
        "province_name": "BALI",
        "city_name": "KLUNGKUNG",
        "district_name": "BANJARANGKAN",
        "subdistrict_name": "TUSAN",
        "zip_code": "80752"
    },
    {
        "id": 26403,
        "label": "BANJAR, BANJAR, BULELENG, BALI, 81152",
        "province_name": "BALI",
        "city_name": "BULELENG",
        "district_name": "BANJAR",
        "subdistrict_name": "BANJAR",
        "zip_code": "81152"
    },
    {
        "id": 26404,
        "label": "BANJAR TEGEHA, BANJAR, BULELENG, BALI, 81152",
        "province_name": "BALI",
        "city_name": "BULELENG",
        "district_name": "BANJAR",
        "subdistrict_name": "BANJAR TEGEHA",
        "zip_code": "81152"
    },
    {
        "id": 26405,
        "label": "BANYUATIS, BANJAR, BULELENG, BALI, 81152",
        "province_name": "BALI",
        "city_name": "BULELENG",
        "district_name": "BANJAR",
        "subdistrict_name": "BANYUATIS",
        "zip_code": "81152"
    },
    {
        "id": 26406,
        "label": "BANYUSRI, BANJAR, BULELENG, BALI, 81152",
        "province_name": "BALI",
        "city_name": "BULELENG",
        "district_name": "BANJAR",
        "subdistrict_name": "BANYUSRI",
        "zip_code": "81152"
    },
    {
        "id": 26407,
        "label": "CEMPAGA, BANJAR, BULELENG, BALI, 81152",
        "province_name": "BALI",
        "city_name": "BULELENG",
        "district_name": "BANJAR",
        "subdistrict_name": "CEMPAGA",
        "zip_code": "81152"
    },
    {
        "id": 26408,
        "label": "DENCARIK, BANJAR, BULELENG, BALI, 81152",
        "province_name": "BALI",
        "city_name": "BULELENG",
        "district_name": "BANJAR",
        "subdistrict_name": "DENCARIK",
        "zip_code": "81152"
    },
    {
        "id": 26409,
        "label": "GESING, BANJAR, BULELENG, BALI, 81152",
        "province_name": "BALI",
        "city_name": "BULELENG",
        "district_name": "BANJAR",
        "subdistrict_name": "GESING",
        "zip_code": "81152"
    },
    {
        "id": 26410,
        "label": "GOBLEG, BANJAR, BULELENG, BALI, 81152",
        "province_name": "BALI",
        "city_name": "BULELENG",
        "district_name": "BANJAR",
        "subdistrict_name": "GOBLEG",
        "zip_code": "81152"
    },
    {
        "id": 26411,
        "label": "KALIASEM, BANJAR, BULELENG, BALI, 81152",
        "province_name": "BALI",
        "city_name": "BULELENG",
        "district_name": "BANJAR",
        "subdistrict_name": "KALIASEM",
        "zip_code": "81152"
    },
    {
        "id": 26412,
        "label": "KAYUPUTIH, BANJAR, BULELENG, BALI, 81152",
        "province_name": "BALI",
        "city_name": "BULELENG",
        "district_name": "BANJAR",
        "subdistrict_name": "KAYUPUTIH",
        "zip_code": "81152"
    },
    {
        "id": 26413,
        "label": "MUNDUK, BANJAR, BULELENG, BALI, 81152",
        "province_name": "BALI",
        "city_name": "BULELENG",
        "district_name": "BANJAR",
        "subdistrict_name": "MUNDUK",
        "zip_code": "81152"
    },
    {
        "id": 26414,
        "label": "PEDAWA, BANJAR, BULELENG, BALI, 81152",
        "province_name": "BALI",
        "city_name": "BULELENG",
        "district_name": "BANJAR",
        "subdistrict_name": "PEDAWA",
        "zip_code": "81152"
    },
    {
        "id": 26415,
        "label": "SIDETAPA, BANJAR, BULELENG, BALI, 81152",
        "province_name": "BALI",
        "city_name": "BULELENG",
        "district_name": "BANJAR",
        "subdistrict_name": "SIDETAPA",
        "zip_code": "81152"
    },
    {
        "id": 26416,
        "label": "TAMPEKAN, BANJAR, BULELENG, BALI, 81152",
        "province_name": "BALI",
        "city_name": "BULELENG",
        "district_name": "BANJAR",
        "subdistrict_name": "TAMPEKAN",
        "zip_code": "81152"
    },
    {
        "id": 26417,
        "label": "TEMUKUS, BANJAR, BULELENG, BALI, 81152",
        "province_name": "BALI",
        "city_name": "BULELENG",
        "district_name": "BANJAR",
        "subdistrict_name": "TEMUKUS",
        "zip_code": "81152"
    },
    {
        "id": 26418,
        "label": "TIGAWASA, BANJAR, BULELENG, BALI, 81152",
        "province_name": "BALI",
        "city_name": "BULELENG",
        "district_name": "BANJAR",
        "subdistrict_name": "TIGAWASA",
        "zip_code": "81152"
    },
    {
        "id": 26419,
        "label": "TIRTASARI, BANJAR, BULELENG, BALI, 81152",
        "province_name": "BALI",
        "city_name": "BULELENG",
        "district_name": "BANJAR",
        "subdistrict_name": "TIRTASARI",
        "zip_code": "81152"
    },
    {
        "id": 26420,
        "label": "BENGKEL, BUSUNGBIU, BULELENG, BALI, 81154",
        "province_name": "BALI",
        "city_name": "BULELENG",
        "district_name": "BUSUNGBIU",
        "subdistrict_name": "BENGKEL",
        "zip_code": "81154"
    },
    {
        "id": 26421,
        "label": "BONGANCINA, BUSUNGBIU, BULELENG, BALI, 81154",
        "province_name": "BALI",
        "city_name": "BULELENG",
        "district_name": "BUSUNGBIU",
        "subdistrict_name": "BONGANCINA",
        "zip_code": "81154"
    },
    {
        "id": 26422,
        "label": "BUSUNGBIU, BUSUNGBIU, BULELENG, BALI, 81154",
        "province_name": "BALI",
        "city_name": "BULELENG",
        "district_name": "BUSUNGBIU",
        "subdistrict_name": "BUSUNGBIU",
        "zip_code": "81154"
    },
    {
        "id": 26423,
        "label": "KEDIA (KEDIS), BUSUNGBIU, BULELENG, BALI, 81154",
        "province_name": "BALI",
        "city_name": "BULELENG",
        "district_name": "BUSUNGBIU",
        "subdistrict_name": "KEDIA (KEDIS)",
        "zip_code": "81154"
    },
    {
        "id": 26424,
        "label": "KEKERAN, BUSUNGBIU, BULELENG, BALI, 81154",
        "province_name": "BALI",
        "city_name": "BULELENG",
        "district_name": "BUSUNGBIU",
        "subdistrict_name": "KEKERAN",
        "zip_code": "81154"
    },
    {
        "id": 26425,
        "label": "PELAPUAN, BUSUNGBIU, BULELENG, BALI, 81154",
        "province_name": "BALI",
        "city_name": "BULELENG",
        "district_name": "BUSUNGBIU",
        "subdistrict_name": "PELAPUAN",
        "zip_code": "81154"
    },
    {
        "id": 26426,
        "label": "PUCAKSARI, BUSUNGBIU, BULELENG, BALI, 81154",
        "province_name": "BALI",
        "city_name": "BULELENG",
        "district_name": "BUSUNGBIU",
        "subdistrict_name": "PUCAKSARI",
        "zip_code": "81154"
    },
    {
        "id": 26427,
        "label": "SEPANG, BUSUNGBIU, BULELENG, BALI, 81154",
        "province_name": "BALI",
        "city_name": "BULELENG",
        "district_name": "BUSUNGBIU",
        "subdistrict_name": "SEPANG",
        "zip_code": "81154"
    },
    {
        "id": 26428,
        "label": "SEPANG KELOD, BUSUNGBIU, BULELENG, BALI, 81154",
        "province_name": "BALI",
        "city_name": "BULELENG",
        "district_name": "BUSUNGBIU",
        "subdistrict_name": "SEPANG KELOD",
        "zip_code": "81154"
    },
    {
        "id": 26429,
        "label": "SUBUK, BUSUNGBIU, BULELENG, BALI, 81154",
        "province_name": "BALI",
        "city_name": "BULELENG",
        "district_name": "BUSUNGBIU",
        "subdistrict_name": "SUBUK",
        "zip_code": "81154"
    },
    {
        "id": 26430,
        "label": "TELAGA, BUSUNGBIU, BULELENG, BALI, 81154",
        "province_name": "BALI",
        "city_name": "BULELENG",
        "district_name": "BUSUNGBIU",
        "subdistrict_name": "TELAGA",
        "zip_code": "81154"
    },
    {
        "id": 26431,
        "label": "TINGGARSARI, BUSUNGBIU, BULELENG, BALI, 81154",
        "province_name": "BALI",
        "city_name": "BULELENG",
        "district_name": "BUSUNGBIU",
        "subdistrict_name": "TINGGARSARI",
        "zip_code": "81154"
    },
    {
        "id": 26432,
        "label": "TISTA, BUSUNGBIU, BULELENG, BALI, 81154",
        "province_name": "BALI",
        "city_name": "BULELENG",
        "district_name": "BUSUNGBIU",
        "subdistrict_name": "TISTA",
        "zip_code": "81154"
    },
    {
        "id": 26433,
        "label": "TITAB, BUSUNGBIU, BULELENG, BALI, 81154",
        "province_name": "BALI",
        "city_name": "BULELENG",
        "district_name": "BUSUNGBIU",
        "subdistrict_name": "TITAB",
        "zip_code": "81154"
    },
    {
        "id": 26434,
        "label": "UMEJERO, BUSUNGBIU, BULELENG, BALI, 81154",
        "province_name": "BALI",
        "city_name": "BULELENG",
        "district_name": "BUSUNGBIU",
        "subdistrict_name": "UMEJERO",
        "zip_code": "81154"
    },
    {
        "id": 26435,
        "label": "BANYUPOH, GEROKGAK, BULELENG, BALI, 81155",
        "province_name": "BALI",
        "city_name": "BULELENG",
        "district_name": "GEROKGAK",
        "subdistrict_name": "BANYUPOH",
        "zip_code": "81155"
    },
    {
        "id": 26436,
        "label": "CELUKAN BAWANG, GEROKGAK, BULELENG, BALI, 81155",
        "province_name": "BALI",
        "city_name": "BULELENG",
        "district_name": "GEROKGAK",
        "subdistrict_name": "CELUKAN BAWANG",
        "zip_code": "81155"
    },
    {
        "id": 26437,
        "label": "GEROKGAK, GEROKGAK, BULELENG, BALI, 81155",
        "province_name": "BALI",
        "city_name": "BULELENG",
        "district_name": "GEROKGAK",
        "subdistrict_name": "GEROKGAK",
        "zip_code": "81155"
    },
    {
        "id": 26438,
        "label": "MUSI, GEROKGAK, BULELENG, BALI, 81155",
        "province_name": "BALI",
        "city_name": "BULELENG",
        "district_name": "GEROKGAK",
        "subdistrict_name": "MUSI",
        "zip_code": "81155"
    },
    {
        "id": 26439,
        "label": "PATAS, GEROKGAK, BULELENG, BALI, 81155",
        "province_name": "BALI",
        "city_name": "BULELENG",
        "district_name": "GEROKGAK",
        "subdistrict_name": "PATAS",
        "zip_code": "81155"
    },
    {
        "id": 26440,
        "label": "PEJARAKAN, GEROKGAK, BULELENG, BALI, 81155",
        "province_name": "BALI",
        "city_name": "BULELENG",
        "district_name": "GEROKGAK",
        "subdistrict_name": "PEJARAKAN",
        "zip_code": "81155"
    },
    {
        "id": 26441,
        "label": "PEMUTERAN, GEROKGAK, BULELENG, BALI, 81155",
        "province_name": "BALI",
        "city_name": "BULELENG",
        "district_name": "GEROKGAK",
        "subdistrict_name": "PEMUTERAN",
        "zip_code": "81155"
    },
    {
        "id": 26442,
        "label": "PENGULON, GEROKGAK, BULELENG, BALI, 81155",
        "province_name": "BALI",
        "city_name": "BULELENG",
        "district_name": "GEROKGAK",
        "subdistrict_name": "PENGULON",
        "zip_code": "81155"
    },
    {
        "id": 26443,
        "label": "PENYABANGAN, GEROKGAK, BULELENG, BALI, 81155",
        "province_name": "BALI",
        "city_name": "BULELENG",
        "district_name": "GEROKGAK",
        "subdistrict_name": "PENYABANGAN",
        "zip_code": "81155"
    },
    {
        "id": 26444,
        "label": "SANGGALANGIT, GEROKGAK, BULELENG, BALI, 81155",
        "province_name": "BALI",
        "city_name": "BULELENG",
        "district_name": "GEROKGAK",
        "subdistrict_name": "SANGGALANGIT",
        "zip_code": "81155"
    },
    {
        "id": 26445,
        "label": "SUMBER KLAMPOK, GEROKGAK, BULELENG, BALI, 81155",
        "province_name": "BALI",
        "city_name": "BULELENG",
        "district_name": "GEROKGAK",
        "subdistrict_name": "SUMBER KLAMPOK",
        "zip_code": "81155"
    },
    {
        "id": 26446,
        "label": "SUMBERKIMA, GEROKGAK, BULELENG, BALI, 81155",
        "province_name": "BALI",
        "city_name": "BULELENG",
        "district_name": "GEROKGAK",
        "subdistrict_name": "SUMBERKIMA",
        "zip_code": "81155"
    },
    {
        "id": 26447,
        "label": "TINGA TINGA, GEROKGAK, BULELENG, BALI, 81155",
        "province_name": "BALI",
        "city_name": "BULELENG",
        "district_name": "GEROKGAK",
        "subdistrict_name": "TINGA TINGA",
        "zip_code": "81155"
    },
    {
        "id": 26448,
        "label": "TUKAD SUMAGA, GEROKGAK, BULELENG, BALI, 81155",
        "province_name": "BALI",
        "city_name": "BULELENG",
        "district_name": "GEROKGAK",
        "subdistrict_name": "TUKAD SUMAGA",
        "zip_code": "81155"
    },
    {
        "id": 26449,
        "label": "BENGKALA, KUBUTAMBAHAN, BULELENG, BALI, 81172",
        "province_name": "BALI",
        "city_name": "BULELENG",
        "district_name": "KUBUTAMBAHAN",
        "subdistrict_name": "BENGKALA",
        "zip_code": "81172"
    },
    {
        "id": 26450,
        "label": "BILA, KUBUTAMBAHAN, BULELENG, BALI, 81172",
        "province_name": "BALI",
        "city_name": "BULELENG",
        "district_name": "KUBUTAMBAHAN",
        "subdistrict_name": "BILA",
        "zip_code": "81172"
    },
    {
        "id": 26451,
        "label": "BONTIHING, KUBUTAMBAHAN, BULELENG, BALI, 81172",
        "province_name": "BALI",
        "city_name": "BULELENG",
        "district_name": "KUBUTAMBAHAN",
        "subdistrict_name": "BONTIHING",
        "zip_code": "81172"
    },
    {
        "id": 26452,
        "label": "BUKTI, KUBUTAMBAHAN, BULELENG, BALI, 81172",
        "province_name": "BALI",
        "city_name": "BULELENG",
        "district_name": "KUBUTAMBAHAN",
        "subdistrict_name": "BUKTI",
        "zip_code": "81172"
    },
    {
        "id": 26453,
        "label": "BULIAN, KUBUTAMBAHAN, BULELENG, BALI, 81172",
        "province_name": "BALI",
        "city_name": "BULELENG",
        "district_name": "KUBUTAMBAHAN",
        "subdistrict_name": "BULIAN",
        "zip_code": "81172"
    },
    {
        "id": 26454,
        "label": "DEPEHA, KUBUTAMBAHAN, BULELENG, BALI, 81172",
        "province_name": "BALI",
        "city_name": "BULELENG",
        "district_name": "KUBUTAMBAHAN",
        "subdistrict_name": "DEPEHA",
        "zip_code": "81172"
    },
    {
        "id": 26455,
        "label": "KUBUTAMBAHAN, KUBUTAMBAHAN, BULELENG, BALI, 81172",
        "province_name": "BALI",
        "city_name": "BULELENG",
        "district_name": "KUBUTAMBAHAN",
        "subdistrict_name": "KUBUTAMBAHAN",
        "zip_code": "81172"
    },
    {
        "id": 26456,
        "label": "MENGENING, KUBUTAMBAHAN, BULELENG, BALI, 81172",
        "province_name": "BALI",
        "city_name": "BULELENG",
        "district_name": "KUBUTAMBAHAN",
        "subdistrict_name": "MENGENING",
        "zip_code": "81172"
    },
    {
        "id": 26457,
        "label": "PAKISAN, KUBUTAMBAHAN, BULELENG, BALI, 81172",
        "province_name": "BALI",
        "city_name": "BULELENG",
        "district_name": "KUBUTAMBAHAN",
        "subdistrict_name": "PAKISAN",
        "zip_code": "81172"
    },
    {
        "id": 26458,
        "label": "TAJUN, KUBUTAMBAHAN, BULELENG, BALI, 81172",
        "province_name": "BALI",
        "city_name": "BULELENG",
        "district_name": "KUBUTAMBAHAN",
        "subdistrict_name": "TAJUN",
        "zip_code": "81172"
    },
    {
        "id": 26459,
        "label": "TAMBAKAN, KUBUTAMBAHAN, BULELENG, BALI, 81172",
        "province_name": "BALI",
        "city_name": "BULELENG",
        "district_name": "KUBUTAMBAHAN",
        "subdistrict_name": "TAMBAKAN",
        "zip_code": "81172"
    },
    {
        "id": 26460,
        "label": "TAMBLANG, KUBUTAMBAHAN, BULELENG, BALI, 81172",
        "province_name": "BALI",
        "city_name": "BULELENG",
        "district_name": "KUBUTAMBAHAN",
        "subdistrict_name": "TAMBLANG",
        "zip_code": "81172"
    },
    {
        "id": 26461,
        "label": "TUNJUNG, KUBUTAMBAHAN, BULELENG, BALI, 81172",
        "province_name": "BALI",
        "city_name": "BULELENG",
        "district_name": "KUBUTAMBAHAN",
        "subdistrict_name": "TUNJUNG",
        "zip_code": "81172"
    },
    {
        "id": 26462,
        "label": "BEBETIN, SAWAN, BULELENG, BALI, 81171",
        "province_name": "BALI",
        "city_name": "BULELENG",
        "district_name": "SAWAN",
        "subdistrict_name": "BEBETIN",
        "zip_code": "81171"
    },
    {
        "id": 26463,
        "label": "BUNGKULAN, SAWAN, BULELENG, BALI, 81171",
        "province_name": "BALI",
        "city_name": "BULELENG",
        "district_name": "SAWAN",
        "subdistrict_name": "BUNGKULAN",
        "zip_code": "81171"
    },
    {
        "id": 26464,
        "label": "GALUNGAN, SAWAN, BULELENG, BALI, 81171",
        "province_name": "BALI",
        "city_name": "BULELENG",
        "district_name": "SAWAN",
        "subdistrict_name": "GALUNGAN",
        "zip_code": "81171"
    },
    {
        "id": 26465,
        "label": "GIRI EMAS, SAWAN, BULELENG, BALI, 81171",
        "province_name": "BALI",
        "city_name": "BULELENG",
        "district_name": "SAWAN",
        "subdistrict_name": "GIRI EMAS",
        "zip_code": "81171"
    },
    {
        "id": 26466,
        "label": "JAGARAGA, SAWAN, BULELENG, BALI, 81171",
        "province_name": "BALI",
        "city_name": "BULELENG",
        "district_name": "SAWAN",
        "subdistrict_name": "JAGARAGA",
        "zip_code": "81171"
    },
    {
        "id": 26467,
        "label": "KEROBOKAN, SAWAN, BULELENG, BALI, 81171",
        "province_name": "BALI",
        "city_name": "BULELENG",
        "district_name": "SAWAN",
        "subdistrict_name": "KEROBOKAN",
        "zip_code": "81171"
    },
    {
        "id": 26468,
        "label": "LEMUKIH, SAWAN, BULELENG, BALI, 81171",
        "province_name": "BALI",
        "city_name": "BULELENG",
        "district_name": "SAWAN",
        "subdistrict_name": "LEMUKIH",
        "zip_code": "81171"
    },
    {
        "id": 26469,
        "label": "MENYALI, SAWAN, BULELENG, BALI, 81171",
        "province_name": "BALI",
        "city_name": "BULELENG",
        "district_name": "SAWAN",
        "subdistrict_name": "MENYALI",
        "zip_code": "81171"
    },
    {
        "id": 26470,
        "label": "SANGSIT, SAWAN, BULELENG, BALI, 81171",
        "province_name": "BALI",
        "city_name": "BULELENG",
        "district_name": "SAWAN",
        "subdistrict_name": "SANGSIT",
        "zip_code": "81171"
    },
    {
        "id": 26471,
        "label": "SAWAN, SAWAN, BULELENG, BALI, 81171",
        "province_name": "BALI",
        "city_name": "BULELENG",
        "district_name": "SAWAN",
        "subdistrict_name": "SAWAN",
        "zip_code": "81171"
    },
    {
        "id": 26472,
        "label": "SEKUMPUL, SAWAN, BULELENG, BALI, 81171",
        "province_name": "BALI",
        "city_name": "BULELENG",
        "district_name": "SAWAN",
        "subdistrict_name": "SEKUMPUL",
        "zip_code": "81171"
    },
    {
        "id": 26473,
        "label": "SINABUN, SAWAN, BULELENG, BALI, 81171",
        "province_name": "BALI",
        "city_name": "BULELENG",
        "district_name": "SAWAN",
        "subdistrict_name": "SINABUN",
        "zip_code": "81171"
    },
    {
        "id": 26474,
        "label": "SUDAJI, SAWAN, BULELENG, BALI, 81171",
        "province_name": "BALI",
        "city_name": "BULELENG",
        "district_name": "SAWAN",
        "subdistrict_name": "SUDAJI",
        "zip_code": "81171"
    },
    {
        "id": 26475,
        "label": "SUWUG, SAWAN, BULELENG, BALI, 81171",
        "province_name": "BALI",
        "city_name": "BULELENG",
        "district_name": "SAWAN",
        "subdistrict_name": "SUWUG",
        "zip_code": "81171"
    },
    {
        "id": 26476,
        "label": "BANJAR ASEM, SERIRIT, BULELENG, BALI, 81153",
        "province_name": "BALI",
        "city_name": "BULELENG",
        "district_name": "SERIRIT",
        "subdistrict_name": "BANJAR ASEM",
        "zip_code": "81153"
    },
    {
        "id": 26477,
        "label": "BESTALA, SERIRIT, BULELENG, BALI, 81153",
        "province_name": "BALI",
        "city_name": "BULELENG",
        "district_name": "SERIRIT",
        "subdistrict_name": "BESTALA",
        "zip_code": "81153"
    },
    {
        "id": 26478,
        "label": "BUBUNAN, SERIRIT, BULELENG, BALI, 81153",
        "province_name": "BALI",
        "city_name": "BULELENG",
        "district_name": "SERIRIT",
        "subdistrict_name": "BUBUNAN",
        "zip_code": "81153"
    },
    {
        "id": 26479,
        "label": "GUNUNGSARI, SERIRIT, BULELENG, BALI, 81153",
        "province_name": "BALI",
        "city_name": "BULELENG",
        "district_name": "SERIRIT",
        "subdistrict_name": "GUNUNGSARI",
        "zip_code": "81153"
    },
    {
        "id": 26480,
        "label": "JOANYAR, SERIRIT, BULELENG, BALI, 81153",
        "province_name": "BALI",
        "city_name": "BULELENG",
        "district_name": "SERIRIT",
        "subdistrict_name": "JOANYAR",
        "zip_code": "81153"
    },
    {
        "id": 26481,
        "label": "KALIANGET, SERIRIT, BULELENG, BALI, 81153",
        "province_name": "BALI",
        "city_name": "BULELENG",
        "district_name": "SERIRIT",
        "subdistrict_name": "KALIANGET",
        "zip_code": "81153"
    },
    {
        "id": 26482,
        "label": "KALISADA, SERIRIT, BULELENG, BALI, 81153",
        "province_name": "BALI",
        "city_name": "BULELENG",
        "district_name": "SERIRIT",
        "subdistrict_name": "KALISADA",
        "zip_code": "81153"
    },
    {
        "id": 26483,
        "label": "LOKAPAKSA, SERIRIT, BULELENG, BALI, 81153",
        "province_name": "BALI",
        "city_name": "BULELENG",
        "district_name": "SERIRIT",
        "subdistrict_name": "LOKAPAKSA",
        "zip_code": "81153"
    },
    {
        "id": 26484,
        "label": "MAYONG, SERIRIT, BULELENG, BALI, 81153",
        "province_name": "BALI",
        "city_name": "BULELENG",
        "district_name": "SERIRIT",
        "subdistrict_name": "MAYONG",
        "zip_code": "81153"
    },
    {
        "id": 26485,
        "label": "MUNDUK BESTALA, SERIRIT, BULELENG, BALI, 81153",
        "province_name": "BALI",
        "city_name": "BULELENG",
        "district_name": "SERIRIT",
        "subdistrict_name": "MUNDUK BESTALA",
        "zip_code": "81153"
    },
    {
        "id": 26486,
        "label": "PANGKUNGPARUK, SERIRIT, BULELENG, BALI, 81153",
        "province_name": "BALI",
        "city_name": "BULELENG",
        "district_name": "SERIRIT",
        "subdistrict_name": "PANGKUNGPARUK",
        "zip_code": "81153"
    },
    {
        "id": 26487,
        "label": "PATEMOH (PATEMON), SERIRIT, BULELENG, BALI, 81153",
        "province_name": "BALI",
        "city_name": "BULELENG",
        "district_name": "SERIRIT",
        "subdistrict_name": "PATEMOH (PATEMON)",
        "zip_code": "81153"
    },
    {
        "id": 26488,
        "label": "PENGASTULAN, SERIRIT, BULELENG, BALI, 81153",
        "province_name": "BALI",
        "city_name": "BULELENG",
        "district_name": "SERIRIT",
        "subdistrict_name": "PENGASTULAN",
        "zip_code": "81153"
    },
    {
        "id": 26489,
        "label": "RANGDU, SERIRIT, BULELENG, BALI, 81153",
        "province_name": "BALI",
        "city_name": "BULELENG",
        "district_name": "SERIRIT",
        "subdistrict_name": "RANGDU",
        "zip_code": "81153"
    },
    {
        "id": 26490,
        "label": "RINGDIKIT, SERIRIT, BULELENG, BALI, 81153",
        "province_name": "BALI",
        "city_name": "BULELENG",
        "district_name": "SERIRIT",
        "subdistrict_name": "RINGDIKIT",
        "zip_code": "81153"
    },
    {
        "id": 26491,
        "label": "SERIRIT, SERIRIT, BULELENG, BALI, 81153",
        "province_name": "BALI",
        "city_name": "BULELENG",
        "district_name": "SERIRIT",
        "subdistrict_name": "SERIRIT",
        "zip_code": "81153"
    },
    {
        "id": 26492,
        "label": "SULANYAH, SERIRIT, BULELENG, BALI, 81153",
        "province_name": "BALI",
        "city_name": "BULELENG",
        "district_name": "SERIRIT",
        "subdistrict_name": "SULANYAH",
        "zip_code": "81153"
    },
    {
        "id": 26493,
        "label": "TANGGUWISIA, SERIRIT, BULELENG, BALI, 81153",
        "province_name": "BALI",
        "city_name": "BULELENG",
        "district_name": "SERIRIT",
        "subdistrict_name": "TANGGUWISIA",
        "zip_code": "81153"
    },
    {
        "id": 26494,
        "label": "ULARAN, SERIRIT, BULELENG, BALI, 81153",
        "province_name": "BALI",
        "city_name": "BULELENG",
        "district_name": "SERIRIT",
        "subdistrict_name": "ULARAN",
        "zip_code": "81153"
    },
    {
        "id": 26495,
        "label": "UMEANYAR, SERIRIT, BULELENG, BALI, 81153",
        "province_name": "BALI",
        "city_name": "BULELENG",
        "district_name": "SERIRIT",
        "subdistrict_name": "UMEANYAR",
        "zip_code": "81153"
    },
    {
        "id": 26496,
        "label": "UNGGAHAN, SERIRIT, BULELENG, BALI, 81153",
        "province_name": "BALI",
        "city_name": "BULELENG",
        "district_name": "SERIRIT",
        "subdistrict_name": "UNGGAHAN",
        "zip_code": "81153"
    },
    {
        "id": 26497,
        "label": "AMBENGAN, SUKASADA, BULELENG, BALI, 81161",
        "province_name": "BALI",
        "city_name": "BULELENG",
        "district_name": "SUKASADA",
        "subdistrict_name": "AMBENGAN",
        "zip_code": "81161"
    },
    {
        "id": 26498,
        "label": "GITGIT, SUKASADA, BULELENG, BALI, 81161",
        "province_name": "BALI",
        "city_name": "BULELENG",
        "district_name": "SUKASADA",
        "subdistrict_name": "GITGIT",
        "zip_code": "81161"
    },
    {
        "id": 26499,
        "label": "KAYUPUTIH, SUKASADA, BULELENG, BALI, 81161",
        "province_name": "BALI",
        "city_name": "BULELENG",
        "district_name": "SUKASADA",
        "subdistrict_name": "KAYUPUTIH",
        "zip_code": "81161"
    },
    {
        "id": 26500,
        "label": "PADANGBULIA, SUKASADA, BULELENG, BALI, 81161",
        "province_name": "BALI",
        "city_name": "BULELENG",
        "district_name": "SUKASADA",
        "subdistrict_name": "PADANGBULIA",
        "zip_code": "81161"
    },
    {
        "id": 26501,
        "label": "PANCASARI, SUKASADA, BULELENG, BALI, 81161",
        "province_name": "BALI",
        "city_name": "BULELENG",
        "district_name": "SUKASADA",
        "subdistrict_name": "PANCASARI",
        "zip_code": "81161"
    },
    {
        "id": 26502,
        "label": "PANJI, SUKASADA, BULELENG, BALI, 81161",
        "province_name": "BALI",
        "city_name": "BULELENG",
        "district_name": "SUKASADA",
        "subdistrict_name": "PANJI",
        "zip_code": "81161"
    },
    {
        "id": 26503,
        "label": "PANJI ANOM, SUKASADA, BULELENG, BALI, 81161",
        "province_name": "BALI",
        "city_name": "BULELENG",
        "district_name": "SUKASADA",
        "subdistrict_name": "PANJI ANOM",
        "zip_code": "81161"
    },
    {
        "id": 26504,
        "label": "PEGADUNGAN, SUKASADA, BULELENG, BALI, 81161",
        "province_name": "BALI",
        "city_name": "BULELENG",
        "district_name": "SUKASADA",
        "subdistrict_name": "PEGADUNGAN",
        "zip_code": "81161"
    },
    {
        "id": 26505,
        "label": "PEGAYAMAN, SUKASADA, BULELENG, BALI, 81161",
        "province_name": "BALI",
        "city_name": "BULELENG",
        "district_name": "SUKASADA",
        "subdistrict_name": "PEGAYAMAN",
        "zip_code": "81161"
    },
    {
        "id": 26506,
        "label": "SAMBANGAN, SUKASADA, BULELENG, BALI, 81161",
        "province_name": "BALI",
        "city_name": "BULELENG",
        "district_name": "SUKASADA",
        "subdistrict_name": "SAMBANGAN",
        "zip_code": "81161"
    },
    {
        "id": 26507,
        "label": "SELAT, SUKASADA, BULELENG, BALI, 81161",
        "province_name": "BALI",
        "city_name": "BULELENG",
        "district_name": "SUKASADA",
        "subdistrict_name": "SELAT",
        "zip_code": "81161"
    },
    {
        "id": 26508,
        "label": "SILANGJANA, SUKASADA, BULELENG, BALI, 81161",
        "province_name": "BALI",
        "city_name": "BULELENG",
        "district_name": "SUKASADA",
        "subdistrict_name": "SILANGJANA",
        "zip_code": "81161"
    },
    {
        "id": 26509,
        "label": "SUKASADA, SUKASADA, BULELENG, BALI, 81161",
        "province_name": "BALI",
        "city_name": "BULELENG",
        "district_name": "SUKASADA",
        "subdistrict_name": "SUKASADA",
        "zip_code": "81161"
    },
    {
        "id": 26510,
        "label": "TEGAL LINGGAH (TEGALINGGAH), SUKASADA, BULELENG, BALI, 81161",
        "province_name": "BALI",
        "city_name": "BULELENG",
        "district_name": "SUKASADA",
        "subdistrict_name": "TEGAL LINGGAH (TEGALINGGAH)",
        "zip_code": "81161"
    },
    {
        "id": 26511,
        "label": "WANAGIRI, SUKASADA, BULELENG, BALI, 81161",
        "province_name": "BALI",
        "city_name": "BULELENG",
        "district_name": "SUKASADA",
        "subdistrict_name": "WANAGIRI",
        "zip_code": "81161"
    },
    {
        "id": 26512,
        "label": "BONDALEM, TEJAKULA, BULELENG, BALI, 81173",
        "province_name": "BALI",
        "city_name": "BULELENG",
        "district_name": "TEJAKULA",
        "subdistrict_name": "BONDALEM",
        "zip_code": "81173"
    },
    {
        "id": 26513,
        "label": "JULAH, TEJAKULA, BULELENG, BALI, 81173",
        "province_name": "BALI",
        "city_name": "BULELENG",
        "district_name": "TEJAKULA",
        "subdistrict_name": "JULAH",
        "zip_code": "81173"
    },
    {
        "id": 26514,
        "label": "LES, TEJAKULA, BULELENG, BALI, 81173",
        "province_name": "BALI",
        "city_name": "BULELENG",
        "district_name": "TEJAKULA",
        "subdistrict_name": "LES",
        "zip_code": "81173"
    },
    {
        "id": 26515,
        "label": "MADENAN, TEJAKULA, BULELENG, BALI, 81173",
        "province_name": "BALI",
        "city_name": "BULELENG",
        "district_name": "TEJAKULA",
        "subdistrict_name": "MADENAN",
        "zip_code": "81173"
    },
    {
        "id": 26516,
        "label": "PACUNG, TEJAKULA, BULELENG, BALI, 81173",
        "province_name": "BALI",
        "city_name": "BULELENG",
        "district_name": "TEJAKULA",
        "subdistrict_name": "PACUNG",
        "zip_code": "81173"
    },
    {
        "id": 26517,
        "label": "PENUKTUKAN, TEJAKULA, BULELENG, BALI, 81173",
        "province_name": "BALI",
        "city_name": "BULELENG",
        "district_name": "TEJAKULA",
        "subdistrict_name": "PENUKTUKAN",
        "zip_code": "81173"
    },
    {
        "id": 26518,
        "label": "SAMBIRENTENG, TEJAKULA, BULELENG, BALI, 81173",
        "province_name": "BALI",
        "city_name": "BULELENG",
        "district_name": "TEJAKULA",
        "subdistrict_name": "SAMBIRENTENG",
        "zip_code": "81173"
    },
    {
        "id": 26519,
        "label": "SEMBIRAN, TEJAKULA, BULELENG, BALI, 81173",
        "province_name": "BALI",
        "city_name": "BULELENG",
        "district_name": "TEJAKULA",
        "subdistrict_name": "SEMBIRAN",
        "zip_code": "81173"
    },
    {
        "id": 26520,
        "label": "TEJAKULA, TEJAKULA, BULELENG, BALI, 81173",
        "province_name": "BALI",
        "city_name": "BULELENG",
        "district_name": "TEJAKULA",
        "subdistrict_name": "TEJAKULA",
        "zip_code": "81173"
    },
    {
        "id": 26521,
        "label": "TEMBOK, TEJAKULA, BULELENG, BALI, 81173",
        "province_name": "BALI",
        "city_name": "BULELENG",
        "district_name": "TEJAKULA",
        "subdistrict_name": "TEMBOK",
        "zip_code": "81173"
    },
    {
        "id": 26522,
        "label": "ALASANGKER, BULELENG, BULELENG, BALI, 81119",
        "province_name": "BALI",
        "city_name": "BULELENG",
        "district_name": "BULELENG",
        "subdistrict_name": "ALASANGKER",
        "zip_code": "81119"
    },
    {
        "id": 26523,
        "label": "ANTURAN, BULELENG, BULELENG, BALI, 81119",
        "province_name": "BALI",
        "city_name": "BULELENG",
        "district_name": "BULELENG",
        "subdistrict_name": "ANTURAN",
        "zip_code": "81119"
    },
    {
        "id": 26524,
        "label": "ASTINA, BULELENG, BULELENG, BALI, 81112",
        "province_name": "BALI",
        "city_name": "BULELENG",
        "district_name": "BULELENG",
        "subdistrict_name": "ASTINA",
        "zip_code": "81112"
    },
    {
        "id": 26526,
        "label": "BANJAR JAWA, BULELENG, BULELENG, BALI, 81113",
        "province_name": "BALI",
        "city_name": "BULELENG",
        "district_name": "BULELENG",
        "subdistrict_name": "BANJAR JAWA",
        "zip_code": "81113"
    },
    {
        "id": 26527,
        "label": "BANJAR TEGAL, BULELENG, BULELENG, BALI, 81117",
        "province_name": "BALI",
        "city_name": "BULELENG",
        "district_name": "BULELENG",
        "subdistrict_name": "BANJAR TEGAL",
        "zip_code": "81117"
    },
    {
        "id": 26528,
        "label": "BANYUASRI, BULELENG, BULELENG, BALI, 81116",
        "province_name": "BALI",
        "city_name": "BULELENG",
        "district_name": "BULELENG",
        "subdistrict_name": "BANYUASRI",
        "zip_code": "81116"
    },
    {
        "id": 26529,
        "label": "BANYUNING, BULELENG, BULELENG, BALI, 81119",
        "province_name": "BALI",
        "city_name": "BULELENG",
        "district_name": "BULELENG",
        "subdistrict_name": "BANYUNING",
        "zip_code": "81119"
    },
    {
        "id": 26530,
        "label": "BERATAN, BULELENG, BULELENG, BALI, 81119",
        "province_name": "BALI",
        "city_name": "BULELENG",
        "district_name": "BULELENG",
        "subdistrict_name": "BERATAN",
        "zip_code": "81119"
    },
    {
        "id": 26531,
        "label": "BHAKTI SERAGA (BAKTISERAGA), BULELENG, BULELENG, BALI, 81119",
        "province_name": "BALI",
        "city_name": "BULELENG",
        "district_name": "BULELENG",
        "subdistrict_name": "BHAKTI SERAGA (BAKTISERAGA)",
        "zip_code": "81119"
    },
    {
        "id": 26532,
        "label": "JINENGDALEM, BULELENG, BULELENG, BALI, 81119",
        "province_name": "BALI",
        "city_name": "BULELENG",
        "district_name": "BULELENG",
        "subdistrict_name": "JINENGDALEM",
        "zip_code": "81119"
    },
    {
        "id": 26533,
        "label": "KALIBUKBUK, BULELENG, BULELENG, BALI, 81119",
        "province_name": "BALI",
        "city_name": "BULELENG",
        "district_name": "BULELENG",
        "subdistrict_name": "KALIBUKBUK",
        "zip_code": "81119"
    },
    {
        "id": 26534,
        "label": "KALIUNTU, BULELENG, BULELENG, BALI, 81116",
        "province_name": "BALI",
        "city_name": "BULELENG",
        "district_name": "BULELENG",
        "subdistrict_name": "KALIUNTU",
        "zip_code": "81116"
    },
    {
        "id": 26535,
        "label": "KAMPUNG ANYAR, BULELENG, BULELENG, BALI, 81115",
        "province_name": "BALI",
        "city_name": "BULELENG",
        "district_name": "BULELENG",
        "subdistrict_name": "KAMPUNG ANYAR",
        "zip_code": "81115"
    },
    {
        "id": 26536,
        "label": "KAMPUNG BARU, BULELENG, BULELENG, BALI, 81114",
        "province_name": "BALI",
        "city_name": "BULELENG",
        "district_name": "BULELENG",
        "subdistrict_name": "KAMPUNG BARU",
        "zip_code": "81114"
    },
    {
        "id": 26537,
        "label": "KAMPUNG BUGIS, BULELENG, BULELENG, BALI, 81115",
        "province_name": "BALI",
        "city_name": "BULELENG",
        "district_name": "BULELENG",
        "subdistrict_name": "KAMPUNG BUGIS",
        "zip_code": "81115"
    },
    {
        "id": 26538,
        "label": "KAMPUNG KAJANAN, BULELENG, BULELENG, BALI, 81114",
        "province_name": "BALI",
        "city_name": "BULELENG",
        "district_name": "BULELENG",
        "subdistrict_name": "KAMPUNG KAJANAN",
        "zip_code": "81114"
    },
    {
        "id": 26539,
        "label": "KAMPUNG SINGARAJA, BULELENG, BULELENG, BALI, 81111",
        "province_name": "BALI",
        "city_name": "BULELENG",
        "district_name": "BULELENG",
        "subdistrict_name": "KAMPUNG SINGARAJA",
        "zip_code": "81111"
    },
    {
        "id": 26540,
        "label": "KENDRAN, BULELENG, BULELENG, BALI, 81112",
        "province_name": "BALI",
        "city_name": "BULELENG",
        "district_name": "BULELENG",
        "subdistrict_name": "KENDRAN",
        "zip_code": "81112"
    },
    {
        "id": 26541,
        "label": "LILIGUNDI, BULELENG, BULELENG, BALI, 81119",
        "province_name": "BALI",
        "city_name": "BULELENG",
        "district_name": "BULELENG",
        "subdistrict_name": "LILIGUNDI",
        "zip_code": "81119"
    },
    {
        "id": 26542,
        "label": "NAGASEPAHA, BULELENG, BULELENG, BALI, 81119",
        "province_name": "BALI",
        "city_name": "BULELENG",
        "district_name": "BULELENG",
        "subdistrict_name": "NAGASEPAHA",
        "zip_code": "81119"
    },
    {
        "id": 26543,
        "label": "PAKET AGUNG, BULELENG, BULELENG, BALI, 81118",
        "province_name": "BALI",
        "city_name": "BULELENG",
        "district_name": "BULELENG",
        "subdistrict_name": "PAKET AGUNG",
        "zip_code": "81118"
    },
    {
        "id": 26544,
        "label": "PEMARON, BULELENG, BULELENG, BALI, 81119",
        "province_name": "BALI",
        "city_name": "BULELENG",
        "district_name": "BULELENG",
        "subdistrict_name": "PEMARON",
        "zip_code": "81119"
    },
    {
        "id": 26545,
        "label": "PENARUKAN, BULELENG, BULELENG, BALI, 81119",
        "province_name": "BALI",
        "city_name": "BULELENG",
        "district_name": "BULELENG",
        "subdistrict_name": "PENARUKAN",
        "zip_code": "81119"
    },
    {
        "id": 26546,
        "label": "PENGLATAN, BULELENG, BULELENG, BALI, 81119",
        "province_name": "BALI",
        "city_name": "BULELENG",
        "district_name": "BULELENG",
        "subdistrict_name": "PENGLATAN",
        "zip_code": "81119"
    },
    {
        "id": 26547,
        "label": "PETANDAKAN, BULELENG, BULELENG, BALI, 81119",
        "province_name": "BALI",
        "city_name": "BULELENG",
        "district_name": "BULELENG",
        "subdistrict_name": "PETANDAKAN",
        "zip_code": "81119"
    },
    {
        "id": 26548,
        "label": "POH BERGONG, BULELENG, BULELENG, BALI, 81119",
        "province_name": "BALI",
        "city_name": "BULELENG",
        "district_name": "BULELENG",
        "subdistrict_name": "POH BERGONG",
        "zip_code": "81119"
    },
    {
        "id": 26549,
        "label": "SARI MEKAR, BULELENG, BULELENG, BALI, 81119",
        "province_name": "BALI",
        "city_name": "BULELENG",
        "district_name": "BULELENG",
        "subdistrict_name": "SARI MEKAR",
        "zip_code": "81119"
    },
    {
        "id": 26550,
        "label": "TUKADMUNGGA, BULELENG, BULELENG, BALI, 81119",
        "province_name": "BALI",
        "city_name": "BULELENG",
        "district_name": "BULELENG",
        "subdistrict_name": "TUKADMUNGGA",
        "zip_code": "81119"
    },
    {
        "id": 26551,
        "label": "BONGAN (BOONGAN), TABANAN, TABANAN, BALI, 82112",
        "province_name": "BALI",
        "city_name": "TABANAN",
        "district_name": "TABANAN",
        "subdistrict_name": "BONGAN (BOONGAN)",
        "zip_code": "82112"
    },
    {
        "id": 26552,
        "label": "BUAHAN, TABANAN, TABANAN, BALI, 82115",
        "province_name": "BALI",
        "city_name": "TABANAN",
        "district_name": "TABANAN",
        "subdistrict_name": "BUAHAN",
        "zip_code": "82115"
    },
    {
        "id": 26553,
        "label": "DAUH PEKEN, TABANAN, TABANAN, BALI, 82111",
        "province_name": "BALI",
        "city_name": "TABANAN",
        "district_name": "TABANAN",
        "subdistrict_name": "DAUH PEKEN",
        "zip_code": "82111"
    },
    {
        "id": 26554,
        "label": "DEJAN PEKEN (DAJAN PEKEN), TABANAN, TABANAN, BALI, 82114",
        "province_name": "BALI",
        "city_name": "TABANAN",
        "district_name": "TABANAN",
        "subdistrict_name": "DEJAN PEKEN (DAJAN PEKEN)",
        "zip_code": "82114"
    },
    {
        "id": 26555,
        "label": "DELOD PEKEN, TABANAN, TABANAN, BALI, 82113",
        "province_name": "BALI",
        "city_name": "TABANAN",
        "district_name": "TABANAN",
        "subdistrict_name": "DELOD PEKEN",
        "zip_code": "82113"
    },
    {
        "id": 26556,
        "label": "DENBANTAS, TABANAN, TABANAN, BALI, 82115",
        "province_name": "BALI",
        "city_name": "TABANAN",
        "district_name": "TABANAN",
        "subdistrict_name": "DENBANTAS",
        "zip_code": "82115"
    },
    {
        "id": 26557,
        "label": "GUBUG, TABANAN, TABANAN, BALI, 82115",
        "province_name": "BALI",
        "city_name": "TABANAN",
        "district_name": "TABANAN",
        "subdistrict_name": "GUBUG",
        "zip_code": "82115"
    },
    {
        "id": 26558,
        "label": "SESANDAN, TABANAN, TABANAN, BALI, 82115",
        "province_name": "BALI",
        "city_name": "TABANAN",
        "district_name": "TABANAN",
        "subdistrict_name": "SESANDAN",
        "zip_code": "82115"
    },
    {
        "id": 26559,
        "label": "SUBAMIA, TABANAN, TABANAN, BALI, 82115",
        "province_name": "BALI",
        "city_name": "TABANAN",
        "district_name": "TABANAN",
        "subdistrict_name": "SUBAMIA",
        "zip_code": "82115"
    },
    {
        "id": 26560,
        "label": "SUDIMARA, TABANAN, TABANAN, BALI, 82115",
        "province_name": "BALI",
        "city_name": "TABANAN",
        "district_name": "TABANAN",
        "subdistrict_name": "SUDIMARA",
        "zip_code": "82115"
    },
    {
        "id": 26561,
        "label": "TUNJUK, TABANAN, TABANAN, BALI, 82115",
        "province_name": "BALI",
        "city_name": "TABANAN",
        "district_name": "TABANAN",
        "subdistrict_name": "TUNJUK",
        "zip_code": "82115"
    },
    {
        "id": 26562,
        "label": "WANASARI, TABANAN, TABANAN, BALI, 82111",
        "province_name": "BALI",
        "city_name": "TABANAN",
        "district_name": "TABANAN",
        "subdistrict_name": "WANASARI",
        "zip_code": "82111"
    },
    {
        "id": 26563,
        "label": "ANGSERI, BATURITI, TABANAN, BALI, 82191",
        "province_name": "BALI",
        "city_name": "TABANAN",
        "district_name": "BATURITI",
        "subdistrict_name": "ANGSERI",
        "zip_code": "82191"
    },
    {
        "id": 26564,
        "label": "ANTAPAN, BATURITI, TABANAN, BALI, 82191",
        "province_name": "BALI",
        "city_name": "TABANAN",
        "district_name": "BATURITI",
        "subdistrict_name": "ANTAPAN",
        "zip_code": "82191"
    },
    {
        "id": 26565,
        "label": "APUAN, BATURITI, TABANAN, BALI, 82191",
        "province_name": "BALI",
        "city_name": "TABANAN",
        "district_name": "BATURITI",
        "subdistrict_name": "APUAN",
        "zip_code": "82191"
    },
    {
        "id": 26566,
        "label": "BANGLI, BATURITI, TABANAN, BALI, 82191",
        "province_name": "BALI",
        "city_name": "TABANAN",
        "district_name": "BATURITI",
        "subdistrict_name": "BANGLI",
        "zip_code": "82191"
    },
    {
        "id": 26567,
        "label": "BATUNYA, BATURITI, TABANAN, BALI, 82191",
        "province_name": "BALI",
        "city_name": "TABANAN",
        "district_name": "BATURITI",
        "subdistrict_name": "BATUNYA",
        "zip_code": "82191"
    },
    {
        "id": 26568,
        "label": "BATURITI, BATURITI, TABANAN, BALI, 82191",
        "province_name": "BALI",
        "city_name": "TABANAN",
        "district_name": "BATURITI",
        "subdistrict_name": "BATURITI",
        "zip_code": "82191"
    },
    {
        "id": 26569,
        "label": "CANDIKUNING, BATURITI, TABANAN, BALI, 82191",
        "province_name": "BALI",
        "city_name": "TABANAN",
        "district_name": "BATURITI",
        "subdistrict_name": "CANDIKUNING",
        "zip_code": "82191"
    },
    {
        "id": 26570,
        "label": "LUWUS, BATURITI, TABANAN, BALI, 82191",
        "province_name": "BALI",
        "city_name": "TABANAN",
        "district_name": "BATURITI",
        "subdistrict_name": "LUWUS",
        "zip_code": "82191"
    },
    {
        "id": 26571,
        "label": "MEKARSARI, BATURITI, TABANAN, BALI, 82191",
        "province_name": "BALI",
        "city_name": "TABANAN",
        "district_name": "BATURITI",
        "subdistrict_name": "MEKARSARI",
        "zip_code": "82191"
    },
    {
        "id": 26572,
        "label": "PEREAN, BATURITI, TABANAN, BALI, 82191",
        "province_name": "BALI",
        "city_name": "TABANAN",
        "district_name": "BATURITI",
        "subdistrict_name": "PEREAN",
        "zip_code": "82191"
    },
    {
        "id": 26573,
        "label": "PEREAN KANGIN, BATURITI, TABANAN, BALI, 82191",
        "province_name": "BALI",
        "city_name": "TABANAN",
        "district_name": "BATURITI",
        "subdistrict_name": "PEREAN KANGIN",
        "zip_code": "82191"
    },
    {
        "id": 26574,
        "label": "PEREAN TENGAH, BATURITI, TABANAN, BALI, 82191",
        "province_name": "BALI",
        "city_name": "TABANAN",
        "district_name": "BATURITI",
        "subdistrict_name": "PEREAN TENGAH",
        "zip_code": "82191"
    },
    {
        "id": 26575,
        "label": "ABIAN TUWUNG, KEDIRI, TABANAN, BALI, 82121",
        "province_name": "BALI",
        "city_name": "TABANAN",
        "district_name": "KEDIRI",
        "subdistrict_name": "ABIAN TUWUNG",
        "zip_code": "82121"
    },
    {
        "id": 26576,
        "label": "BANJAR ANYAR, KEDIRI, TABANAN, BALI, 82123",
        "province_name": "BALI",
        "city_name": "TABANAN",
        "district_name": "KEDIRI",
        "subdistrict_name": "BANJAR ANYAR",
        "zip_code": "82123"
    },
    {
        "id": 26577,
        "label": "BELALANG, KEDIRI, TABANAN, BALI, 82121",
        "province_name": "BALI",
        "city_name": "TABANAN",
        "district_name": "KEDIRI",
        "subdistrict_name": "BELALANG",
        "zip_code": "82121"
    },
    {
        "id": 26578,
        "label": "BENGKEL, KEDIRI, TABANAN, BALI, 82121",
        "province_name": "BALI",
        "city_name": "TABANAN",
        "district_name": "KEDIRI",
        "subdistrict_name": "BENGKEL",
        "zip_code": "82121"
    },
    {
        "id": 26579,
        "label": "BERABAN, KEDIRI, TABANAN, BALI, 82121",
        "province_name": "BALI",
        "city_name": "TABANAN",
        "district_name": "KEDIRI",
        "subdistrict_name": "BERABAN",
        "zip_code": "82121"
    },
    {
        "id": 26580,
        "label": "BUWIT, KEDIRI, TABANAN, BALI, 82121",
        "province_name": "BALI",
        "city_name": "TABANAN",
        "district_name": "KEDIRI",
        "subdistrict_name": "BUWIT",
        "zip_code": "82121"
    },
    {
        "id": 26581,
        "label": "CEPAKA, KEDIRI, TABANAN, BALI, 82121",
        "province_name": "BALI",
        "city_name": "TABANAN",
        "district_name": "KEDIRI",
        "subdistrict_name": "CEPAKA",
        "zip_code": "82121"
    },
    {
        "id": 26582,
        "label": "KABA-KABA, KEDIRI, TABANAN, BALI, 82121",
        "province_name": "BALI",
        "city_name": "TABANAN",
        "district_name": "KEDIRI",
        "subdistrict_name": "KABA-KABA",
        "zip_code": "82121"
    },
    {
        "id": 26583,
        "label": "KEDIRI, KEDIRI, TABANAN, BALI, 82121",
        "province_name": "BALI",
        "city_name": "TABANAN",
        "district_name": "KEDIRI",
        "subdistrict_name": "KEDIRI",
        "zip_code": "82121"
    },
    {
        "id": 26584,
        "label": "NYAMBU, KEDIRI, TABANAN, BALI, 82121",
        "province_name": "BALI",
        "city_name": "TABANAN",
        "district_name": "KEDIRI",
        "subdistrict_name": "NYAMBU",
        "zip_code": "82121"
    },
    {
        "id": 26585,
        "label": "NYITDAH, KEDIRI, TABANAN, BALI, 82121",
        "province_name": "BALI",
        "city_name": "TABANAN",
        "district_name": "KEDIRI",
        "subdistrict_name": "NYITDAH",
        "zip_code": "82121"
    },
    {
        "id": 26586,
        "label": "PANDAK BANDUNG, KEDIRI, TABANAN, BALI, 82121",
        "province_name": "BALI",
        "city_name": "TABANAN",
        "district_name": "KEDIRI",
        "subdistrict_name": "PANDAK BANDUNG",
        "zip_code": "82121"
    },
    {
        "id": 26587,
        "label": "PANDAK GEDE, KEDIRI, TABANAN, BALI, 82121",
        "province_name": "BALI",
        "city_name": "TABANAN",
        "district_name": "KEDIRI",
        "subdistrict_name": "PANDAK GEDE",
        "zip_code": "82121"
    },
    {
        "id": 26588,
        "label": "PANGKUNG TIBAH, KEDIRI, TABANAN, BALI, 82121",
        "province_name": "BALI",
        "city_name": "TABANAN",
        "district_name": "KEDIRI",
        "subdistrict_name": "PANGKUNG TIBAH",
        "zip_code": "82121"
    },
    {
        "id": 26589,
        "label": "PEJATEN, KEDIRI, TABANAN, BALI, 82121",
        "province_name": "BALI",
        "city_name": "TABANAN",
        "district_name": "KEDIRI",
        "subdistrict_name": "PEJATEN",
        "zip_code": "82121"
    },
    {
        "id": 26590,
        "label": "BATUAJI, KERAMBITAN, TABANAN, BALI, 82161",
        "province_name": "BALI",
        "city_name": "TABANAN",
        "district_name": "KERAMBITAN",
        "subdistrict_name": "BATUAJI",
        "zip_code": "82161"
    },
    {
        "id": 26591,
        "label": "BATURITI, KERAMBITAN, TABANAN, BALI, 82161",
        "province_name": "BALI",
        "city_name": "TABANAN",
        "district_name": "KERAMBITAN",
        "subdistrict_name": "BATURITI",
        "zip_code": "82161"
    },
    {
        "id": 26592,
        "label": "BELUMBANG, KERAMBITAN, TABANAN, BALI, 82161",
        "province_name": "BALI",
        "city_name": "TABANAN",
        "district_name": "KERAMBITAN",
        "subdistrict_name": "BELUMBANG",
        "zip_code": "82161"
    },
    {
        "id": 26593,
        "label": "KELATING, KERAMBITAN, TABANAN, BALI, 82161",
        "province_name": "BALI",
        "city_name": "TABANAN",
        "district_name": "KERAMBITAN",
        "subdistrict_name": "KELATING",
        "zip_code": "82161"
    },
    {
        "id": 26594,
        "label": "KERAMBITAN, KERAMBITAN, TABANAN, BALI, 82161",
        "province_name": "BALI",
        "city_name": "TABANAN",
        "district_name": "KERAMBITAN",
        "subdistrict_name": "KERAMBITAN",
        "zip_code": "82161"
    },
    {
        "id": 26595,
        "label": "KESIUT, KERAMBITAN, TABANAN, BALI, 82161",
        "province_name": "BALI",
        "city_name": "TABANAN",
        "district_name": "KERAMBITAN",
        "subdistrict_name": "KESIUT",
        "zip_code": "82161"
    },
    {
        "id": 26596,
        "label": "KUKUH, KERAMBITAN, TABANAN, BALI, 82161",
        "province_name": "BALI",
        "city_name": "TABANAN",
        "district_name": "KERAMBITAN",
        "subdistrict_name": "KUKUH",
        "zip_code": "82161"
    },
    {
        "id": 26597,
        "label": "MELILING, KERAMBITAN, TABANAN, BALI, 82161",
        "province_name": "BALI",
        "city_name": "TABANAN",
        "district_name": "KERAMBITAN",
        "subdistrict_name": "MELILING",
        "zip_code": "82161"
    },
    {
        "id": 26598,
        "label": "PANGKUNG KARUNG, KERAMBITAN, TABANAN, BALI, 82161",
        "province_name": "BALI",
        "city_name": "TABANAN",
        "district_name": "KERAMBITAN",
        "subdistrict_name": "PANGKUNG KARUNG",
        "zip_code": "82161"
    },
    {
        "id": 26599,
        "label": "PENARUKAN, KERAMBITAN, TABANAN, BALI, 82161",
        "province_name": "BALI",
        "city_name": "TABANAN",
        "district_name": "KERAMBITAN",
        "subdistrict_name": "PENARUKAN",
        "zip_code": "82161"
    },
    {
        "id": 26600,
        "label": "SAMSAM, KERAMBITAN, TABANAN, BALI, 82161",
        "province_name": "BALI",
        "city_name": "TABANAN",
        "district_name": "KERAMBITAN",
        "subdistrict_name": "SAMSAM",
        "zip_code": "82161"
    },
    {
        "id": 26601,
        "label": "SEMBUNG GEDE, KERAMBITAN, TABANAN, BALI, 82161",
        "province_name": "BALI",
        "city_name": "TABANAN",
        "district_name": "KERAMBITAN",
        "subdistrict_name": "SEMBUNG GEDE",
        "zip_code": "82161"
    },
    {
        "id": 26602,
        "label": "TIBU BIU (TIBUBIYU), KERAMBITAN, TABANAN, BALI, 82161",
        "province_name": "BALI",
        "city_name": "TABANAN",
        "district_name": "KERAMBITAN",
        "subdistrict_name": "TIBU BIU (TIBUBIYU)",
        "zip_code": "82161"
    },
    {
        "id": 26603,
        "label": "TIMPAG, KERAMBITAN, TABANAN, BALI, 82161",
        "province_name": "BALI",
        "city_name": "TABANAN",
        "district_name": "KERAMBITAN",
        "subdistrict_name": "TIMPAG",
        "zip_code": "82161"
    },
    {
        "id": 26604,
        "label": "TISTA, KERAMBITAN, TABANAN, BALI, 82161",
        "province_name": "BALI",
        "city_name": "TABANAN",
        "district_name": "KERAMBITAN",
        "subdistrict_name": "TISTA",
        "zip_code": "82161"
    },
    {
        "id": 26605,
        "label": "BARU, MARGA, TABANAN, BALI, 82181",
        "province_name": "BALI",
        "city_name": "TABANAN",
        "district_name": "MARGA",
        "subdistrict_name": "BARU",
        "zip_code": "82181"
    },
    {
        "id": 26606,
        "label": "BATANNYUH, MARGA, TABANAN, BALI, 82181",
        "province_name": "BALI",
        "city_name": "TABANAN",
        "district_name": "MARGA",
        "subdistrict_name": "BATANNYUH",
        "zip_code": "82181"
    },
    {
        "id": 26607,
        "label": "BERINGKIT, MARGA, TABANAN, BALI, 82181",
        "province_name": "BALI",
        "city_name": "TABANAN",
        "district_name": "MARGA",
        "subdistrict_name": "BERINGKIT",
        "zip_code": "82181"
    },
    {
        "id": 26608,
        "label": "CAU BELAYU, MARGA, TABANAN, BALI, 82181",
        "province_name": "BALI",
        "city_name": "TABANAN",
        "district_name": "MARGA",
        "subdistrict_name": "CAU BELAYU",
        "zip_code": "82181"
    },
    {
        "id": 26609,
        "label": "GELUNTUNG, MARGA, TABANAN, BALI, 82181",
        "province_name": "BALI",
        "city_name": "TABANAN",
        "district_name": "MARGA",
        "subdistrict_name": "GELUNTUNG",
        "zip_code": "82181"
    },
    {
        "id": 26610,
        "label": "KUKUH, MARGA, TABANAN, BALI, 82181",
        "province_name": "BALI",
        "city_name": "TABANAN",
        "district_name": "MARGA",
        "subdistrict_name": "KUKUH",
        "zip_code": "82181"
    },
    {
        "id": 26611,
        "label": "KUWUM, MARGA, TABANAN, BALI, 82181",
        "province_name": "BALI",
        "city_name": "TABANAN",
        "district_name": "MARGA",
        "subdistrict_name": "KUWUM",
        "zip_code": "82181"
    },
    {
        "id": 26612,
        "label": "MARGA, MARGA, TABANAN, BALI, 82181",
        "province_name": "BALI",
        "city_name": "TABANAN",
        "district_name": "MARGA",
        "subdistrict_name": "MARGA",
        "zip_code": "82181"
    },
    {
        "id": 26613,
        "label": "MARGA DAJAN PURI, MARGA, TABANAN, BALI, 82181",
        "province_name": "BALI",
        "city_name": "TABANAN",
        "district_name": "MARGA",
        "subdistrict_name": "MARGA DAJAN PURI",
        "zip_code": "82181"
    },
    {
        "id": 26614,
        "label": "MARGA DAUH PURI, MARGA, TABANAN, BALI, 82181",
        "province_name": "BALI",
        "city_name": "TABANAN",
        "district_name": "MARGA",
        "subdistrict_name": "MARGA DAUH PURI",
        "zip_code": "82181"
    },
    {
        "id": 26615,
        "label": "PAYANGAN, MARGA, TABANAN, BALI, 82181",
        "province_name": "BALI",
        "city_name": "TABANAN",
        "district_name": "MARGA",
        "subdistrict_name": "PAYANGAN",
        "zip_code": "82181"
    },
    {
        "id": 26616,
        "label": "PEKEN, MARGA, TABANAN, BALI, 82181",
        "province_name": "BALI",
        "city_name": "TABANAN",
        "district_name": "MARGA",
        "subdistrict_name": "PEKEN",
        "zip_code": "82181"
    },
    {
        "id": 26617,
        "label": "PETIGA, MARGA, TABANAN, BALI, 82181",
        "province_name": "BALI",
        "city_name": "TABANAN",
        "district_name": "MARGA",
        "subdistrict_name": "PETIGA",
        "zip_code": "82181"
    },
    {
        "id": 26618,
        "label": "SELANBAWAK, MARGA, TABANAN, BALI, 82181",
        "province_name": "BALI",
        "city_name": "TABANAN",
        "district_name": "MARGA",
        "subdistrict_name": "SELANBAWAK",
        "zip_code": "82181"
    },
    {
        "id": 26619,
        "label": "TEGALJADI, MARGA, TABANAN, BALI, 82181",
        "province_name": "BALI",
        "city_name": "TABANAN",
        "district_name": "MARGA",
        "subdistrict_name": "TEGALJADI",
        "zip_code": "82181"
    },
    {
        "id": 26620,
        "label": "TUA, MARGA, TABANAN, BALI, 82181",
        "province_name": "BALI",
        "city_name": "TABANAN",
        "district_name": "MARGA",
        "subdistrict_name": "TUA",
        "zip_code": "82181"
    },
    {
        "id": 26621,
        "label": "BANTIRAN, PUPUAN, TABANAN, BALI, 82163",
        "province_name": "BALI",
        "city_name": "TABANAN",
        "district_name": "PUPUAN",
        "subdistrict_name": "BANTIRAN",
        "zip_code": "82163"
    },
    {
        "id": 26622,
        "label": "BATUNGSEL, PUPUAN, TABANAN, BALI, 82163",
        "province_name": "BALI",
        "city_name": "TABANAN",
        "district_name": "PUPUAN",
        "subdistrict_name": "BATUNGSEL",
        "zip_code": "82163"
    },
    {
        "id": 26623,
        "label": "BELATUNGAN, PUPUAN, TABANAN, BALI, 82163",
        "province_name": "BALI",
        "city_name": "TABANAN",
        "district_name": "PUPUAN",
        "subdistrict_name": "BELATUNGAN",
        "zip_code": "82163"
    },
    {
        "id": 26624,
        "label": "BELIMBING, PUPUAN, TABANAN, BALI, 82163",
        "province_name": "BALI",
        "city_name": "TABANAN",
        "district_name": "PUPUAN",
        "subdistrict_name": "BELIMBING",
        "zip_code": "82163"
    },
    {
        "id": 26625,
        "label": "JELIJIH PUNGGANG, PUPUAN, TABANAN, BALI, 82163",
        "province_name": "BALI",
        "city_name": "TABANAN",
        "district_name": "PUPUAN",
        "subdistrict_name": "JELIJIH PUNGGANG",
        "zip_code": "82163"
    },
    {
        "id": 26626,
        "label": "KARYA SARI, PUPUAN, TABANAN, BALI, 82163",
        "province_name": "BALI",
        "city_name": "TABANAN",
        "district_name": "PUPUAN",
        "subdistrict_name": "KARYA SARI",
        "zip_code": "82163"
    },
    {
        "id": 26627,
        "label": "KEBON PADANGAN, PUPUAN, TABANAN, BALI, 82163",
        "province_name": "BALI",
        "city_name": "TABANAN",
        "district_name": "PUPUAN",
        "subdistrict_name": "KEBON PADANGAN",
        "zip_code": "82163"
    },
    {
        "id": 26628,
        "label": "MUNDUK TEMU, PUPUAN, TABANAN, BALI, 82163",
        "province_name": "BALI",
        "city_name": "TABANAN",
        "district_name": "PUPUAN",
        "subdistrict_name": "MUNDUK TEMU",
        "zip_code": "82163"
    },
    {
        "id": 26629,
        "label": "PADANGAN, PUPUAN, TABANAN, BALI, 82163",
        "province_name": "BALI",
        "city_name": "TABANAN",
        "district_name": "PUPUAN",
        "subdistrict_name": "PADANGAN",
        "zip_code": "82163"
    },
    {
        "id": 26630,
        "label": "PAJAHAN, PUPUAN, TABANAN, BALI, 82163",
        "province_name": "BALI",
        "city_name": "TABANAN",
        "district_name": "PUPUAN",
        "subdistrict_name": "PAJAHAN",
        "zip_code": "82163"
    },
    {
        "id": 26631,
        "label": "PUJUNGAN, PUPUAN, TABANAN, BALI, 82163",
        "province_name": "BALI",
        "city_name": "TABANAN",
        "district_name": "PUPUAN",
        "subdistrict_name": "PUJUNGAN",
        "zip_code": "82163"
    },
    {
        "id": 26632,
        "label": "PUPUAN, PUPUAN, TABANAN, BALI, 82163",
        "province_name": "BALI",
        "city_name": "TABANAN",
        "district_name": "PUPUAN",
        "subdistrict_name": "PUPUAN",
        "zip_code": "82163"
    },
    {
        "id": 26633,
        "label": "SAI, PUPUAN, TABANAN, BALI, 82163",
        "province_name": "BALI",
        "city_name": "TABANAN",
        "district_name": "PUPUAN",
        "subdistrict_name": "SAI",
        "zip_code": "82163"
    },
    {
        "id": 26634,
        "label": "SANDA, PUPUAN, TABANAN, BALI, 82163",
        "province_name": "BALI",
        "city_name": "TABANAN",
        "district_name": "PUPUAN",
        "subdistrict_name": "SANDA",
        "zip_code": "82163"
    },
    {
        "id": 26635,
        "label": "BABAHAN, PENEBEL, TABANAN, BALI, 82152",
        "province_name": "BALI",
        "city_name": "TABANAN",
        "district_name": "PENEBEL",
        "subdistrict_name": "BABAHAN",
        "zip_code": "82152"
    },
    {
        "id": 26636,
        "label": "BIAUNG, PENEBEL, TABANAN, BALI, 82152",
        "province_name": "BALI",
        "city_name": "TABANAN",
        "district_name": "PENEBEL",
        "subdistrict_name": "BIAUNG",
        "zip_code": "82152"
    },
    {
        "id": 26637,
        "label": "BURUAN, PENEBEL, TABANAN, BALI, 82152",
        "province_name": "BALI",
        "city_name": "TABANAN",
        "district_name": "PENEBEL",
        "subdistrict_name": "BURUAN",
        "zip_code": "82152"
    },
    {
        "id": 26638,
        "label": "JATILUWIH, PENEBEL, TABANAN, BALI, 82152",
        "province_name": "BALI",
        "city_name": "TABANAN",
        "district_name": "PENEBEL",
        "subdistrict_name": "JATILUWIH",
        "zip_code": "82152"
    },
    {
        "id": 26639,
        "label": "JEGU, PENEBEL, TABANAN, BALI, 82152",
        "province_name": "BALI",
        "city_name": "TABANAN",
        "district_name": "PENEBEL",
        "subdistrict_name": "JEGU",
        "zip_code": "82152"
    },
    {
        "id": 26640,
        "label": "MENGESTE, PENEBEL, TABANAN, BALI, 82152",
        "province_name": "BALI",
        "city_name": "TABANAN",
        "district_name": "PENEBEL",
        "subdistrict_name": "MENGESTE",
        "zip_code": "82152"
    },
    {
        "id": 26641,
        "label": "PENATAHAN, PENEBEL, TABANAN, BALI, 82152",
        "province_name": "BALI",
        "city_name": "TABANAN",
        "district_name": "PENEBEL",
        "subdistrict_name": "PENATAHAN",
        "zip_code": "82152"
    },
    {
        "id": 26642,
        "label": "PENEBEL, PENEBEL, TABANAN, BALI, 82152",
        "province_name": "BALI",
        "city_name": "TABANAN",
        "district_name": "PENEBEL",
        "subdistrict_name": "PENEBEL",
        "zip_code": "82152"
    },
    {
        "id": 26643,
        "label": "PESAGI, PENEBEL, TABANAN, BALI, 82152",
        "province_name": "BALI",
        "city_name": "TABANAN",
        "district_name": "PENEBEL",
        "subdistrict_name": "PESAGI",
        "zip_code": "82152"
    },
    {
        "id": 26644,
        "label": "PITRA, PENEBEL, TABANAN, BALI, 82152",
        "province_name": "BALI",
        "city_name": "TABANAN",
        "district_name": "PENEBEL",
        "subdistrict_name": "PITRA",
        "zip_code": "82152"
    },
    {
        "id": 26645,
        "label": "REJASA, PENEBEL, TABANAN, BALI, 82152",
        "province_name": "BALI",
        "city_name": "TABANAN",
        "district_name": "PENEBEL",
        "subdistrict_name": "REJASA",
        "zip_code": "82152"
    },
    {
        "id": 26646,
        "label": "RIANG GEDE, PENEBEL, TABANAN, BALI, 82152",
        "province_name": "BALI",
        "city_name": "TABANAN",
        "district_name": "PENEBEL",
        "subdistrict_name": "RIANG GEDE",
        "zip_code": "82152"
    },
    {
        "id": 26647,
        "label": "SANGKETAN, PENEBEL, TABANAN, BALI, 82152",
        "province_name": "BALI",
        "city_name": "TABANAN",
        "district_name": "PENEBEL",
        "subdistrict_name": "SANGKETAN",
        "zip_code": "82152"
    },
    {
        "id": 26648,
        "label": "SENGANAN, PENEBEL, TABANAN, BALI, 82152",
        "province_name": "BALI",
        "city_name": "TABANAN",
        "district_name": "PENEBEL",
        "subdistrict_name": "SENGANAN",
        "zip_code": "82152"
    },
    {
        "id": 26649,
        "label": "TAJEN, PENEBEL, TABANAN, BALI, 82152",
        "province_name": "BALI",
        "city_name": "TABANAN",
        "district_name": "PENEBEL",
        "subdistrict_name": "TAJEN",
        "zip_code": "82152"
    },
    {
        "id": 26650,
        "label": "TEGALINGGAH, PENEBEL, TABANAN, BALI, 82152",
        "province_name": "BALI",
        "city_name": "TABANAN",
        "district_name": "PENEBEL",
        "subdistrict_name": "TEGALINGGAH",
        "zip_code": "82152"
    },
    {
        "id": 26651,
        "label": "TENGKUDAK, PENEBEL, TABANAN, BALI, 82152",
        "province_name": "BALI",
        "city_name": "TABANAN",
        "district_name": "PENEBEL",
        "subdistrict_name": "TENGKUDAK",
        "zip_code": "82152"
    },
    {
        "id": 26652,
        "label": "WONGAYA GEDE, PENEBEL, TABANAN, BALI, 82152",
        "province_name": "BALI",
        "city_name": "TABANAN",
        "district_name": "PENEBEL",
        "subdistrict_name": "WONGAYA GEDE",
        "zip_code": "82152"
    },
    {
        "id": 26653,
        "label": "ANTAP, SELEMADEG, TABANAN, BALI, 82162",
        "province_name": "BALI",
        "city_name": "TABANAN",
        "district_name": "SELEMADEG",
        "subdistrict_name": "ANTAP",
        "zip_code": "82162"
    },
    {
        "id": 26654,
        "label": "BAJERA, SELEMADEG, TABANAN, BALI, 82162",
        "province_name": "BALI",
        "city_name": "TABANAN",
        "district_name": "SELEMADEG",
        "subdistrict_name": "BAJERA",
        "zip_code": "82162"
    },
    {
        "id": 26655,
        "label": "BAJERA UTARA, SELEMADEG, TABANAN, BALI, 82162",
        "province_name": "BALI",
        "city_name": "TABANAN",
        "district_name": "SELEMADEG",
        "subdistrict_name": "BAJERA UTARA",
        "zip_code": "82162"
    },
    {
        "id": 26656,
        "label": "BEREMBENG, SELEMADEG, TABANAN, BALI, 82162",
        "province_name": "BALI",
        "city_name": "TABANAN",
        "district_name": "SELEMADEG",
        "subdistrict_name": "BEREMBENG",
        "zip_code": "82162"
    },
    {
        "id": 26657,
        "label": "MANIKYANG, SELEMADEG, TABANAN, BALI, 82162",
        "province_name": "BALI",
        "city_name": "TABANAN",
        "district_name": "SELEMADEG",
        "subdistrict_name": "MANIKYANG",
        "zip_code": "82162"
    },
    {
        "id": 26658,
        "label": "PUPUAN SAWAH, SELEMADEG, TABANAN, BALI, 82162",
        "province_name": "BALI",
        "city_name": "TABANAN",
        "district_name": "SELEMADEG",
        "subdistrict_name": "PUPUAN SAWAH",
        "zip_code": "82162"
    },
    {
        "id": 26659,
        "label": "SELEMADEG, SELEMADEG, TABANAN, BALI, 82162",
        "province_name": "BALI",
        "city_name": "TABANAN",
        "district_name": "SELEMADEG",
        "subdistrict_name": "SELEMADEG",
        "zip_code": "82162"
    },
    {
        "id": 26660,
        "label": "SERAMPINGAN, SELEMADEG, TABANAN, BALI, 82162",
        "province_name": "BALI",
        "city_name": "TABANAN",
        "district_name": "SELEMADEG",
        "subdistrict_name": "SERAMPINGAN",
        "zip_code": "82162"
    },
    {
        "id": 26661,
        "label": "WANAGIRI, SELEMADEG, TABANAN, BALI, 82162",
        "province_name": "BALI",
        "city_name": "TABANAN",
        "district_name": "SELEMADEG",
        "subdistrict_name": "WANAGIRI",
        "zip_code": "82162"
    },
    {
        "id": 26662,
        "label": "WANAGIRI KAUH, SELEMADEG, TABANAN, BALI, 82162",
        "province_name": "BALI",
        "city_name": "TABANAN",
        "district_name": "SELEMADEG",
        "subdistrict_name": "WANAGIRI KAUH",
        "zip_code": "82162"
    },
    {
        "id": 26663,
        "label": "ANGKAH, SALEMADEG BARAT, TABANAN, BALI, 82162",
        "province_name": "BALI",
        "city_name": "TABANAN",
        "district_name": "SALEMADEG BARAT",
        "subdistrict_name": "ANGKAH",
        "zip_code": "82162"
    },
    {
        "id": 26664,
        "label": "ANTOSARI, SALEMADEG BARAT, TABANAN, BALI, 82162",
        "province_name": "BALI",
        "city_name": "TABANAN",
        "district_name": "SALEMADEG BARAT",
        "subdistrict_name": "ANTOSARI",
        "zip_code": "82162"
    },
    {
        "id": 26665,
        "label": "BENGKEL SARI, SALEMADEG BARAT, TABANAN, BALI, 82162",
        "province_name": "BALI",
        "city_name": "TABANAN",
        "district_name": "SALEMADEG BARAT",
        "subdistrict_name": "BENGKEL SARI",
        "zip_code": "82162"
    },
    {
        "id": 26666,
        "label": "LALANG LINGGAH, SALEMADEG BARAT, TABANAN, BALI, 82162",
        "province_name": "BALI",
        "city_name": "TABANAN",
        "district_name": "SALEMADEG BARAT",
        "subdistrict_name": "LALANG LINGGAH",
        "zip_code": "82162"
    },
    {
        "id": 26667,
        "label": "LUMBUNG, SALEMADEG BARAT, TABANAN, BALI, 82162",
        "province_name": "BALI",
        "city_name": "TABANAN",
        "district_name": "SALEMADEG BARAT",
        "subdistrict_name": "LUMBUNG",
        "zip_code": "82162"
    },
    {
        "id": 26668,
        "label": "LUMBUNG KAUH, SALEMADEG BARAT, TABANAN, BALI, 82162",
        "province_name": "BALI",
        "city_name": "TABANAN",
        "district_name": "SALEMADEG BARAT",
        "subdistrict_name": "LUMBUNG KAUH",
        "zip_code": "82162"
    },
    {
        "id": 26669,
        "label": "MUNDEH, SALEMADEG BARAT, TABANAN, BALI, 82162",
        "province_name": "BALI",
        "city_name": "TABANAN",
        "district_name": "SALEMADEG BARAT",
        "subdistrict_name": "MUNDEH",
        "zip_code": "82162"
    },
    {
        "id": 26670,
        "label": "MUNDEH KANGIN, SALEMADEG BARAT, TABANAN, BALI, 82162",
        "province_name": "BALI",
        "city_name": "TABANAN",
        "district_name": "SALEMADEG BARAT",
        "subdistrict_name": "MUNDEH KANGIN",
        "zip_code": "82162"
    },
    {
        "id": 26671,
        "label": "MUNDEH KAUH, SALEMADEG BARAT, TABANAN, BALI, 82162",
        "province_name": "BALI",
        "city_name": "TABANAN",
        "district_name": "SALEMADEG BARAT",
        "subdistrict_name": "MUNDEH KAUH",
        "zip_code": "82162"
    },
    {
        "id": 26672,
        "label": "SELABIH, SALEMADEG BARAT, TABANAN, BALI, 82162",
        "province_name": "BALI",
        "city_name": "TABANAN",
        "district_name": "SALEMADEG BARAT",
        "subdistrict_name": "SELABIH",
        "zip_code": "82162"
    },
    {
        "id": 26673,
        "label": "TIYING GADING, SALEMADEG BARAT, TABANAN, BALI, 82162",
        "province_name": "BALI",
        "city_name": "TABANAN",
        "district_name": "SALEMADEG BARAT",
        "subdistrict_name": "TIYING GADING",
        "zip_code": "82162"
    },
    {
        "id": 26674,
        "label": "BANTAS, SALEMADEG TIMUR, TABANAN, BALI, 82162",
        "province_name": "BALI",
        "city_name": "TABANAN",
        "district_name": "SALEMADEG TIMUR",
        "subdistrict_name": "BANTAS",
        "zip_code": "82162"
    },
    {
        "id": 26675,
        "label": "BERABAN, SALEMADEG TIMUR, TABANAN, BALI, 82162",
        "province_name": "BALI",
        "city_name": "TABANAN",
        "district_name": "SALEMADEG TIMUR",
        "subdistrict_name": "BERABAN",
        "zip_code": "82162"
    },
    {
        "id": 26676,
        "label": "DALANG, SALEMADEG TIMUR, TABANAN, BALI, 82162",
        "province_name": "BALI",
        "city_name": "TABANAN",
        "district_name": "SALEMADEG TIMUR",
        "subdistrict_name": "DALANG",
        "zip_code": "82162"
    },
    {
        "id": 26677,
        "label": "GADUNG SARI, SALEMADEG TIMUR, TABANAN, BALI, 82162",
        "province_name": "BALI",
        "city_name": "TABANAN",
        "district_name": "SALEMADEG TIMUR",
        "subdistrict_name": "GADUNG SARI",
        "zip_code": "82162"
    },
    {
        "id": 26678,
        "label": "GADUNGAN, SALEMADEG TIMUR, TABANAN, BALI, 82162",
        "province_name": "BALI",
        "city_name": "TABANAN",
        "district_name": "SALEMADEG TIMUR",
        "subdistrict_name": "GADUNGAN",
        "zip_code": "82162"
    },
    {
        "id": 26679,
        "label": "GUNUNG SALAK, SALEMADEG TIMUR, TABANAN, BALI, 82162",
        "province_name": "BALI",
        "city_name": "TABANAN",
        "district_name": "SALEMADEG TIMUR",
        "subdistrict_name": "GUNUNG SALAK",
        "zip_code": "82162"
    },
    {
        "id": 26680,
        "label": "MAMBANG, SALEMADEG TIMUR, TABANAN, BALI, 82162",
        "province_name": "BALI",
        "city_name": "TABANAN",
        "district_name": "SALEMADEG TIMUR",
        "subdistrict_name": "MAMBANG",
        "zip_code": "82162"
    },
    {
        "id": 26681,
        "label": "MEGATI, SALEMADEG TIMUR, TABANAN, BALI, 82162",
        "province_name": "BALI",
        "city_name": "TABANAN",
        "district_name": "SALEMADEG TIMUR",
        "subdistrict_name": "MEGATI",
        "zip_code": "82162"
    },
    {
        "id": 26682,
        "label": "TANGGUNTITI, SALEMADEG TIMUR, TABANAN, BALI, 82162",
        "province_name": "BALI",
        "city_name": "TABANAN",
        "district_name": "SALEMADEG TIMUR",
        "subdistrict_name": "TANGGUNTITI",
        "zip_code": "82162"
    },
    {
        "id": 26683,
        "label": "TEGAL MENGKEB, SALEMADEG TIMUR, TABANAN, BALI, 82162",
        "province_name": "BALI",
        "city_name": "TABANAN",
        "district_name": "SALEMADEG TIMUR",
        "subdistrict_name": "TEGAL MENGKEB",
        "zip_code": "82162"
    },
    {
        "id": 26684,
        "label": "ABIANBASE, MENGWI, BADUNG, BALI, 80351",
        "province_name": "BALI",
        "city_name": "BADUNG",
        "district_name": "MENGWI",
        "subdistrict_name": "ABIANBASE",
        "zip_code": "80351"
    },
    {
        "id": 26685,
        "label": "BAHA, MENGWI, BADUNG, BALI, 80351",
        "province_name": "BALI",
        "city_name": "BADUNG",
        "district_name": "MENGWI",
        "subdistrict_name": "BAHA",
        "zip_code": "80351"
    },
    {
        "id": 26686,
        "label": "BUDUK, MENGWI, BADUNG, BALI, 80351",
        "province_name": "BALI",
        "city_name": "BADUNG",
        "district_name": "MENGWI",
        "subdistrict_name": "BUDUK",
        "zip_code": "80351"
    },
    {
        "id": 26687,
        "label": "CEMAGI, MENGWI, BADUNG, BALI, 80351",
        "province_name": "BALI",
        "city_name": "BADUNG",
        "district_name": "MENGWI",
        "subdistrict_name": "CEMAGI",
        "zip_code": "80351"
    },
    {
        "id": 26688,
        "label": "GULINGAN, MENGWI, BADUNG, BALI, 80351",
        "province_name": "BALI",
        "city_name": "BADUNG",
        "district_name": "MENGWI",
        "subdistrict_name": "GULINGAN",
        "zip_code": "80351"
    },
    {
        "id": 26689,
        "label": "KAPAL, MENGWI, BADUNG, BALI, 80351",
        "province_name": "BALI",
        "city_name": "BADUNG",
        "district_name": "MENGWI",
        "subdistrict_name": "KAPAL",
        "zip_code": "80351"
    },
    {
        "id": 26690,
        "label": "KEKERAN, MENGWI, BADUNG, BALI, 80351",
        "province_name": "BALI",
        "city_name": "BADUNG",
        "district_name": "MENGWI",
        "subdistrict_name": "KEKERAN",
        "zip_code": "80351"
    },
    {
        "id": 26691,
        "label": "KUWUM, MENGWI, BADUNG, BALI, 80351",
        "province_name": "BALI",
        "city_name": "BADUNG",
        "district_name": "MENGWI",
        "subdistrict_name": "KUWUM",
        "zip_code": "80351"
    },
    {
        "id": 26692,
        "label": "LUKLUK, MENGWI, BADUNG, BALI, 80351",
        "province_name": "BALI",
        "city_name": "BADUNG",
        "district_name": "MENGWI",
        "subdistrict_name": "LUKLUK",
        "zip_code": "80351"
    },
    {
        "id": 26693,
        "label": "MENGWI, MENGWI, BADUNG, BALI, 80351",
        "province_name": "BALI",
        "city_name": "BADUNG",
        "district_name": "MENGWI",
        "subdistrict_name": "MENGWI",
        "zip_code": "80351"
    },
    {
        "id": 26694,
        "label": "MENGWITANI, MENGWI, BADUNG, BALI, 80351",
        "province_name": "BALI",
        "city_name": "BADUNG",
        "district_name": "MENGWI",
        "subdistrict_name": "MENGWITANI",
        "zip_code": "80351"
    },
    {
        "id": 26695,
        "label": "MUNGGU, MENGWI, BADUNG, BALI, 80351",
        "province_name": "BALI",
        "city_name": "BADUNG",
        "district_name": "MENGWI",
        "subdistrict_name": "MUNGGU",
        "zip_code": "80351"
    },
    {
        "id": 26696,
        "label": "PENARUNGAN, MENGWI, BADUNG, BALI, 80351",
        "province_name": "BALI",
        "city_name": "BADUNG",
        "district_name": "MENGWI",
        "subdistrict_name": "PENARUNGAN",
        "zip_code": "80351"
    },
    {
        "id": 26697,
        "label": "PERERENAN, MENGWI, BADUNG, BALI, 80351",
        "province_name": "BALI",
        "city_name": "BADUNG",
        "district_name": "MENGWI",
        "subdistrict_name": "PERERENAN",
        "zip_code": "80351"
    },
    {
        "id": 26698,
        "label": "SADING, MENGWI, BADUNG, BALI, 80351",
        "province_name": "BALI",
        "city_name": "BADUNG",
        "district_name": "MENGWI",
        "subdistrict_name": "SADING",
        "zip_code": "80351"
    },
    {
        "id": 26699,
        "label": "SEMBUNG, MENGWI, BADUNG, BALI, 80351",
        "province_name": "BALI",
        "city_name": "BADUNG",
        "district_name": "MENGWI",
        "subdistrict_name": "SEMBUNG",
        "zip_code": "80351"
    },
    {
        "id": 26700,
        "label": "SEMPIDI, MENGWI, BADUNG, BALI, 80351",
        "province_name": "BALI",
        "city_name": "BADUNG",
        "district_name": "MENGWI",
        "subdistrict_name": "SEMPIDI",
        "zip_code": "80351"
    },
    {
        "id": 26701,
        "label": "SOBANGAN, MENGWI, BADUNG, BALI, 80351",
        "province_name": "BALI",
        "city_name": "BADUNG",
        "district_name": "MENGWI",
        "subdistrict_name": "SOBANGAN",
        "zip_code": "80351"
    },
    {
        "id": 26702,
        "label": "TUMBAK BAYUH, MENGWI, BADUNG, BALI, 80351",
        "province_name": "BALI",
        "city_name": "BADUNG",
        "district_name": "MENGWI",
        "subdistrict_name": "TUMBAK BAYUH",
        "zip_code": "80351"
    },
    {
        "id": 26703,
        "label": "WERDI BHUWANA, MENGWI, BADUNG, BALI, 80351",
        "province_name": "BALI",
        "city_name": "BADUNG",
        "district_name": "MENGWI",
        "subdistrict_name": "WERDI BHUWANA",
        "zip_code": "80351"
    },
    {
        "id": 26704,
        "label": "ABIANSEMAL, ABIANSEMAL, BADUNG, BALI, 80352",
        "province_name": "BALI",
        "city_name": "BADUNG",
        "district_name": "ABIANSEMAL",
        "subdistrict_name": "ABIANSEMAL",
        "zip_code": "80352"
    },
    {
        "id": 26705,
        "label": "ANGANTAKA, ABIANSEMAL, BADUNG, BALI, 80352",
        "province_name": "BALI",
        "city_name": "BADUNG",
        "district_name": "ABIANSEMAL",
        "subdistrict_name": "ANGANTAKA",
        "zip_code": "80352"
    },
    {
        "id": 26706,
        "label": "AYUNAN, ABIANSEMAL, BADUNG, BALI, 80352",
        "province_name": "BALI",
        "city_name": "BADUNG",
        "district_name": "ABIANSEMAL",
        "subdistrict_name": "AYUNAN",
        "zip_code": "80352"
    },
    {
        "id": 26707,
        "label": "BLAHKIUH, ABIANSEMAL, BADUNG, BALI, 80352",
        "province_name": "BALI",
        "city_name": "BADUNG",
        "district_name": "ABIANSEMAL",
        "subdistrict_name": "BLAHKIUH",
        "zip_code": "80352"
    },
    {
        "id": 26708,
        "label": "BONGKASA, ABIANSEMAL, BADUNG, BALI, 80352",
        "province_name": "BALI",
        "city_name": "BADUNG",
        "district_name": "ABIANSEMAL",
        "subdistrict_name": "BONGKASA",
        "zip_code": "80352"
    },
    {
        "id": 26709,
        "label": "BONGKASA PERTIWI, ABIANSEMAL, BADUNG, BALI, 80352",
        "province_name": "BALI",
        "city_name": "BADUNG",
        "district_name": "ABIANSEMAL",
        "subdistrict_name": "BONGKASA PERTIWI",
        "zip_code": "80352"
    },
    {
        "id": 26710,
        "label": "DARMASABA, ABIANSEMAL, BADUNG, BALI, 80352",
        "province_name": "BALI",
        "city_name": "BADUNG",
        "district_name": "ABIANSEMAL",
        "subdistrict_name": "DARMASABA",
        "zip_code": "80352"
    },
    {
        "id": 26711,
        "label": "DAUH YEH CANI, ABIANSEMAL, BADUNG, BALI, 80352",
        "province_name": "BALI",
        "city_name": "BADUNG",
        "district_name": "ABIANSEMAL",
        "subdistrict_name": "DAUH YEH CANI",
        "zip_code": "80352"
    },
    {
        "id": 26712,
        "label": "JAGAPATI, ABIANSEMAL, BADUNG, BALI, 80352",
        "province_name": "BALI",
        "city_name": "BADUNG",
        "district_name": "ABIANSEMAL",
        "subdistrict_name": "JAGAPATI",
        "zip_code": "80352"
    },
    {
        "id": 26713,
        "label": "MAMBAL, ABIANSEMAL, BADUNG, BALI, 80352",
        "province_name": "BALI",
        "city_name": "BADUNG",
        "district_name": "ABIANSEMAL",
        "subdistrict_name": "MAMBAL",
        "zip_code": "80352"
    },
    {
        "id": 26714,
        "label": "MEKAR BHUWANA, ABIANSEMAL, BADUNG, BALI, 80352",
        "province_name": "BALI",
        "city_name": "BADUNG",
        "district_name": "ABIANSEMAL",
        "subdistrict_name": "MEKAR BHUWANA",
        "zip_code": "80352"
    },
    {
        "id": 26715,
        "label": "PUNGGUL, ABIANSEMAL, BADUNG, BALI, 80352",
        "province_name": "BALI",
        "city_name": "BADUNG",
        "district_name": "ABIANSEMAL",
        "subdistrict_name": "PUNGGUL",
        "zip_code": "80352"
    },
    {
        "id": 26716,
        "label": "SANGEH, ABIANSEMAL, BADUNG, BALI, 80352",
        "province_name": "BALI",
        "city_name": "BADUNG",
        "district_name": "ABIANSEMAL",
        "subdistrict_name": "SANGEH",
        "zip_code": "80352"
    },
    {
        "id": 26717,
        "label": "SEDANG, ABIANSEMAL, BADUNG, BALI, 80352",
        "province_name": "BALI",
        "city_name": "BADUNG",
        "district_name": "ABIANSEMAL",
        "subdistrict_name": "SEDANG",
        "zip_code": "80352"
    },
    {
        "id": 26718,
        "label": "SELAT, ABIANSEMAL, BADUNG, BALI, 80352",
        "province_name": "BALI",
        "city_name": "BADUNG",
        "district_name": "ABIANSEMAL",
        "subdistrict_name": "SELAT",
        "zip_code": "80352"
    },
    {
        "id": 26719,
        "label": "SIBANG GEDE, ABIANSEMAL, BADUNG, BALI, 80352",
        "province_name": "BALI",
        "city_name": "BADUNG",
        "district_name": "ABIANSEMAL",
        "subdistrict_name": "SIBANG GEDE",
        "zip_code": "80352"
    },
    {
        "id": 26720,
        "label": "SIBANG KAJA, ABIANSEMAL, BADUNG, BALI, 80352",
        "province_name": "BALI",
        "city_name": "BADUNG",
        "district_name": "ABIANSEMAL",
        "subdistrict_name": "SIBANG KAJA",
        "zip_code": "80352"
    },
    {
        "id": 26721,
        "label": "TAMAN, ABIANSEMAL, BADUNG, BALI, 80352",
        "province_name": "BALI",
        "city_name": "BADUNG",
        "district_name": "ABIANSEMAL",
        "subdistrict_name": "TAMAN",
        "zip_code": "80352"
    },
    {
        "id": 26722,
        "label": "KEDONGANAN, KUTA, BADUNG, BALI, 80361",
        "province_name": "BALI",
        "city_name": "BADUNG",
        "district_name": "KUTA",
        "subdistrict_name": "KEDONGANAN",
        "zip_code": "80361"
    },
    {
        "id": 26723,
        "label": "KUTA, KUTA, BADUNG, BALI, 80361",
        "province_name": "BALI",
        "city_name": "BADUNG",
        "district_name": "KUTA",
        "subdistrict_name": "KUTA",
        "zip_code": "80361"
    },
    {
        "id": 26724,
        "label": "LEGIAN, KUTA, BADUNG, BALI, 80361",
        "province_name": "BALI",
        "city_name": "BADUNG",
        "district_name": "KUTA",
        "subdistrict_name": "LEGIAN",
        "zip_code": "80361"
    },
    {
        "id": 26725,
        "label": "SEMINYAK, KUTA, BADUNG, BALI, 80361",
        "province_name": "BALI",
        "city_name": "BADUNG",
        "district_name": "KUTA",
        "subdistrict_name": "SEMINYAK",
        "zip_code": "80361"
    },
    {
        "id": 26726,
        "label": "TUBAN, KUTA, BADUNG, BALI, 80361",
        "province_name": "BALI",
        "city_name": "BADUNG",
        "district_name": "KUTA",
        "subdistrict_name": "TUBAN",
        "zip_code": "80361"
    },
    {
        "id": 26732,
        "label": "BELOK, PETANG, BADUNG, BALI, 80353",
        "province_name": "BALI",
        "city_name": "BADUNG",
        "district_name": "PETANG",
        "subdistrict_name": "BELOK",
        "zip_code": "80353"
    },
    {
        "id": 26733,
        "label": "CARANGSARI, PETANG, BADUNG, BALI, 80353",
        "province_name": "BALI",
        "city_name": "BADUNG",
        "district_name": "PETANG",
        "subdistrict_name": "CARANGSARI",
        "zip_code": "80353"
    },
    {
        "id": 26734,
        "label": "GETASAN, PETANG, BADUNG, BALI, 80353",
        "province_name": "BALI",
        "city_name": "BADUNG",
        "district_name": "PETANG",
        "subdistrict_name": "GETASAN",
        "zip_code": "80353"
    },
    {
        "id": 26735,
        "label": "PANGSAN, PETANG, BADUNG, BALI, 80353",
        "province_name": "BALI",
        "city_name": "BADUNG",
        "district_name": "PETANG",
        "subdistrict_name": "PANGSAN",
        "zip_code": "80353"
    },
    {
        "id": 26736,
        "label": "PELAGA, PETANG, BADUNG, BALI, 80353",
        "province_name": "BALI",
        "city_name": "BADUNG",
        "district_name": "PETANG",
        "subdistrict_name": "PELAGA",
        "zip_code": "80353"
    },
    {
        "id": 26737,
        "label": "PETANG, PETANG, BADUNG, BALI, 80353",
        "province_name": "BALI",
        "city_name": "BADUNG",
        "district_name": "PETANG",
        "subdistrict_name": "PETANG",
        "zip_code": "80353"
    },
    {
        "id": 26738,
        "label": "SULANGAI, PETANG, BADUNG, BALI, 80353",
        "province_name": "BALI",
        "city_name": "BADUNG",
        "district_name": "PETANG",
        "subdistrict_name": "SULANGAI",
        "zip_code": "80353"
    },
    {
        "id": 26739,
        "label": "BENOA, KUTA SELATAN, BADUNG, BALI, 80361",
        "province_name": "BALI",
        "city_name": "BADUNG",
        "district_name": "KUTA SELATAN",
        "subdistrict_name": "BENOA",
        "zip_code": "80361"
    },
    {
        "id": 26740,
        "label": "JIMBARAN, KUTA SELATAN, BADUNG, BALI, 80361",
        "province_name": "BALI",
        "city_name": "BADUNG",
        "district_name": "KUTA SELATAN",
        "subdistrict_name": "JIMBARAN",
        "zip_code": "80361"
    },
    {
        "id": 26741,
        "label": "KUTUH, KUTA SELATAN, BADUNG, BALI, 80361",
        "province_name": "BALI",
        "city_name": "BADUNG",
        "district_name": "KUTA SELATAN",
        "subdistrict_name": "KUTUH",
        "zip_code": "80361"
    },
    {
        "id": 26742,
        "label": "PECATU, KUTA SELATAN, BADUNG, BALI, 80361",
        "province_name": "BALI",
        "city_name": "BADUNG",
        "district_name": "KUTA SELATAN",
        "subdistrict_name": "PECATU",
        "zip_code": "80361"
    },
    {
        "id": 26743,
        "label": "TANJUNG BENOA, KUTA SELATAN, BADUNG, BALI, 80361",
        "province_name": "BALI",
        "city_name": "BADUNG",
        "district_name": "KUTA SELATAN",
        "subdistrict_name": "TANJUNG BENOA",
        "zip_code": "80361"
    },
    {
        "id": 26744,
        "label": "UNGASAN, KUTA SELATAN, BADUNG, BALI, 80361",
        "province_name": "BALI",
        "city_name": "BADUNG",
        "district_name": "KUTA SELATAN",
        "subdistrict_name": "UNGASAN",
        "zip_code": "80361"
    },
    {
        "id": 26745,
        "label": "KEROBOKAN, KUTA UTARA, BADUNG, BALI, 80361",
        "province_name": "BALI",
        "city_name": "BADUNG",
        "district_name": "KUTA UTARA",
        "subdistrict_name": "KEROBOKAN",
        "zip_code": "80361"
    },
    {
        "id": 26746,
        "label": "DALUNG, KUTA UTARA, BADUNG, BALI, 80361",
        "province_name": "BALI",
        "city_name": "BADUNG",
        "district_name": "KUTA UTARA",
        "subdistrict_name": "DALUNG",
        "zip_code": "80361"
    },
    {
        "id": 26747,
        "label": "CANGGU, KUTA UTARA, BADUNG, BALI, 80361",
        "province_name": "BALI",
        "city_name": "BADUNG",
        "district_name": "KUTA UTARA",
        "subdistrict_name": "CANGGU",
        "zip_code": "80361"
    },
    {
        "id": 26748,
        "label": "KEROBOKAN KAJA, KUTA UTARA, BADUNG, BALI, 80361",
        "province_name": "BALI",
        "city_name": "BADUNG",
        "district_name": "KUTA UTARA",
        "subdistrict_name": "KEROBOKAN KAJA",
        "zip_code": "80361"
    },
    {
        "id": 26749,
        "label": "KEROBOKAN KELOD, KUTA UTARA, BADUNG, BALI, 80361",
        "province_name": "BALI",
        "city_name": "BADUNG",
        "district_name": "KUTA UTARA",
        "subdistrict_name": "KEROBOKAN KELOD",
        "zip_code": "80361"
    },
    {
        "id": 26750,
        "label": "TIBUBENENG, KUTA UTARA, BADUNG, BALI, 80361",
        "province_name": "BALI",
        "city_name": "BADUNG",
        "district_name": "KUTA UTARA",
        "subdistrict_name": "TIBUBENENG",
        "zip_code": "80361"
    }
]