[
  {
    "id": 34741,
    "name": "HALERMAN",
    "zip_code": "85861"
  },
  {
    "id": 34742,
    "name": "KAFELULANG",
    "zip_code": "85861"
  },
  {
    "id": 34743,
    "name": "KUIFANA",
    "zip_code": "85861"
  },
  {
    "id": 34744,
    "name": "MANATANG",
    "zip_code": "85861"
  },
  {
    "id": 34745,
    "name": "MARGETA",
    "zip_code": "85861"
  },
  {
    "id": 34746,
    "name": "MORAMAM",
    "zip_code": "85861"
  },
  {
    "id": 34747,
    "name": "MORBA",
    "zip_code": "85861"
  },
  {
    "id": 34748,
    "name": "MORU",
    "zip_code": "85861"
  },
  {
    "id": 34749,
    "name": "ORGEN",
    "zip_code": "85861"
  },
  {
    "id": 34750,
    "name": "PAILELANG",
    "zip_code": "85861"
  },
  {
    "id": 34751,
    "name": "PINTU MAS",
    "zip_code": "85861"
  },
  {
    "id": 34752,
    "name": "PROBUR",
    "zip_code": "85861"
  },
  {
    "id": 34753,
    "name": "PROBUR UTARA",
    "zip_code": "85861"
  },
  {
    "id": 34754,
    "name": "TRIBUR",
    "zip_code": "85861"
  },
  {
    "id": 34755,
    "name": "WAKAPSIR",
    "zip_code": "85861"
  },
  {
    "id": 34756,
    "name": "WAKAPSIR TIMUR",
    "zip_code": "85861"
  },
  {
    "id": 34757,
    "name": "WOLWAL",
    "zip_code": "85861"
  },
  {
    "id": 34758,
    "name": "WOLWAL BARAT",
    "zip_code": "85861"
  },
  {
    "id": 34759,
    "name": "WOLWAL SELATAN",
    "zip_code": "85861"
  },
  {
    "id": 34760,
    "name": "WOLWAL TENGAH",
    "zip_code": "85861"
  }
]