[
  {
    "id": 45890,
    "name": "BAURENO",
    "zip_code": "61373"
  },
  {
    "id": 45891,
    "name": "BLEBERAN",
    "zip_code": "61373"
  },
  {
    "id": 45892,
    "name": "DINOYO",
    "zip_code": "61373"
  },
  {
    "id": 45893,
    "name": "DUKUHNGARJO",
    "zip_code": "61373"
  },
  {
    "id": 45894,
    "name": "GADING",
    "zip_code": "61373"
  },
  {
    "id": 45895,
    "name": "GEBANGSARI",
    "zip_code": "61373"
  },
  {
    "id": 45896,
    "name": "JATIREJO",
    "zip_code": "61373"
  },
  {
    "id": 45897,
    "name": "JEMBUL",
    "zip_code": "61373"
  },
  {
    "id": 45898,
    "name": "KARANGJERUK",
    "zip_code": "61373"
  },
  {
    "id": 45899,
    "name": "KUMITIR",
    "zip_code": "61373"
  },
  {
    "id": 45900,
    "name": "LEBAKJABUNG",
    "zip_code": "61373"
  },
  {
    "id": 45901,
    "name": "MANTING",
    "zip_code": "61373"
  },
  {
    "id": 45902,
    "name": "MOJOGENENG",
    "zip_code": "61373"
  },
  {
    "id": 45903,
    "name": "PADANGASRI",
    "zip_code": "61373"
  },
  {
    "id": 45904,
    "name": "REJOSARI",
    "zip_code": "61373"
  },
  {
    "id": 45905,
    "name": "SUMBERAGUNG",
    "zip_code": "61373"
  },
  {
    "id": 45906,
    "name": "SUMBERJATI",
    "zip_code": "61373"
  },
  {
    "id": 45907,
    "name": "SUMENGKO",
    "zip_code": "61373"
  },
  {
    "id": 45908,
    "name": "TAWANGREJO",
    "zip_code": "61373"
  }
]