[
  {
    "id": 46020,
    "name": "BALONGMASIN",
    "zip_code": "61384"
  },
  {
    "id": 46021,
    "name": "BANGUN",
    "zip_code": "61384"
  },
  {
    "id": 46022,
    "name": "BANJARTANGGUL",
    "zip_code": "61384"
  },
  {
    "id": 46023,
    "name": "CURAHMOJO",
    "zip_code": "61384"
  },
  {
    "id": 46024,
    "name": "JABONTEGAL",
    "zip_code": "61384"
  },
  {
    "id": 46025,
    "name": "JATILANGKUNG",
    "zip_code": "61384"
  },
  {
    "id": 46026,
    "name": "KALIPURO",
    "zip_code": "61384"
  },
  {
    "id": 46027,
    "name": "KEDUNGMUNGGAL",
    "zip_code": "61384"
  },
  {
    "id": 46028,
    "name": "KEMBANGRINGGIT",
    "zip_code": "61384"
  },
  {
    "id": 46029,
    "name": "LEBAKSONO",
    "zip_code": "61384"
  },
  {
    "id": 46030,
    "name": "MOJOREJO",
    "zip_code": "61384"
  },
  {
    "id": 46031,
    "name": "NGRAME",
    "zip_code": "61384"
  },
  {
    "id": 46032,
    "name": "PUNGGING",
    "zip_code": "61384"
  },
  {
    "id": 46033,
    "name": "PURWOREJO",
    "zip_code": "61384"
  },
  {
    "id": 46034,
    "name": "RANDUHARJO",
    "zip_code": "61384"
  },
  {
    "id": 46035,
    "name": "SEKARGADUNG",
    "zip_code": "61384"
  },
  {
    "id": 46036,
    "name": "TEMPURAN",
    "zip_code": "61384"
  },
  {
    "id": 46037,
    "name": "TUNGGALPAGER",
    "zip_code": "61384"
  },
  {
    "id": 46038,
    "name": "WATUKENONGO",
    "zip_code": "61384"
  }
]