[
  {
    "id": 42386,
    "name": "AIR MERAH",
    "zip_code": "21463"
  },
  {
    "id": 42387,
    "name": "PERKEBUNAN BATANG SEPONGGOL",
    "zip_code": "21463"
  },
  {
    "id": 42388,
    "name": "PERKEBUNAN PERLABIAN",
    "zip_code": "21463"
  },
  {
    "id": 42389,
    "name": "PERKEBUNAN TELUK PANJI",
    "zip_code": "21463"
  },
  {
    "id": 42390,
    "name": "PERKEBUNAN TOLAN (PEKAN TOLAN)",
    "zip_code": "21463"
  },
  {
    "id": 42391,
    "name": "PERKEBUNAN TOLAN I/II",
    "zip_code": "21463"
  },
  {
    "id": 42392,
    "name": "PERLABIAN (KAMPUNG PERLABIAN)",
    "zip_code": "21463"
  },
  {
    "id": 42393,
    "name": "TANJUNG MEDAN",
    "zip_code": "21463"
  },
  {
    "id": 42394,
    "name": "TANJUNG SELAMAT",
    "zip_code": "21463"
  },
  {
    "id": 42395,
    "name": "TELUK PANJI (KAMPUNG TELUK PANJI)",
    "zip_code": "21463"
  },
  {
    "id": 42396,
    "name": "TELUK PANJI I",
    "zip_code": "21463"
  },
  {
    "id": 42397,
    "name": "TELUK PANJI II",
    "zip_code": "21463"
  },
  {
    "id": 42398,
    "name": "TELUK PANJI III",
    "zip_code": "21463"
  },
  {
    "id": 42399,
    "name": "TELUK PANJI IV",
    "zip_code": "21463"
  },
  {
    "id": 43352,
    "name": "TANJUNG MULIA",
    "zip_code": "21463"
  }
]