[
  {
    "id": 72567,
    "name": "BABAKAN",
    "zip_code": "52181"
  },
  {
    "id": 72568,
    "name": "BANGUN GALIH",
    "zip_code": "52181"
  },
  {
    "id": 72569,
    "name": "BONGKOK",
    "zip_code": "52181"
  },
  {
    "id": 72570,
    "name": "DAMPYAK",
    "zip_code": "52181"
  },
  {
    "id": 72571,
    "name": "DINUK",
    "zip_code": "52181"
  },
  {
    "id": 72572,
    "name": "JATILAWANG",
    "zip_code": "52181"
  },
  {
    "id": 72573,
    "name": "KEMANTRAN",
    "zip_code": "52181"
  },
  {
    "id": 72574,
    "name": "KEMUNING",
    "zip_code": "52181"
  },
  {
    "id": 72575,
    "name": "KEPUNDUHAN",
    "zip_code": "52181"
  },
  {
    "id": 72576,
    "name": "KERTAHARJA",
    "zip_code": "52181"
  },
  {
    "id": 72577,
    "name": "KERTAYASA",
    "zip_code": "52181"
  },
  {
    "id": 72578,
    "name": "KETILENG",
    "zip_code": "52181"
  },
  {
    "id": 72579,
    "name": "KRAMAT",
    "zip_code": "52181"
  },
  {
    "id": 72580,
    "name": "MARIBAYA",
    "zip_code": "52181"
  },
  {
    "id": 72581,
    "name": "MEJASEM BARAT",
    "zip_code": "52181"
  },
  {
    "id": 72582,
    "name": "MEJASEM TIMUR",
    "zip_code": "52181"
  },
  {
    "id": 72583,
    "name": "MUNJUNG AGUNG",
    "zip_code": "52181"
  },
  {
    "id": 72584,
    "name": "PADAHARJA",
    "zip_code": "52181"
  },
  {
    "id": 72585,
    "name": "PLUMBUNGAN",
    "zip_code": "52181"
  },
  {
    "id": 72586,
    "name": "TANJUNGHARJA",
    "zip_code": "52181"
  }
]