[
  {
    "id": 15340,
    "name": "BABAH KRUENG",
    "zip_code": "23672"
  },
  {
    "id": 15341,
    "name": "BLANG BARO PULO RAGA",
    "zip_code": "23672"
  },
  {
    "id": 15342,
    "name": "BLANG BARO RAMBONG",
    "zip_code": "23672"
  },
  {
    "id": 15343,
    "name": "BLANG DALAM",
    "zip_code": "23672"
  },
  {
    "id": 15344,
    "name": "BLANG LEUMAK",
    "zip_code": "23672"
  },
  {
    "id": 15345,
    "name": "BLANG MESJID",
    "zip_code": "23672"
  },
  {
    "id": 15346,
    "name": "BLANG NEUANG",
    "zip_code": "23672"
  },
  {
    "id": 15347,
    "name": "BLANG SEUMOT",
    "zip_code": "23672"
  },
  {
    "id": 15348,
    "name": "BLANG SEUNONG",
    "zip_code": "23672"
  },
  {
    "id": 15349,
    "name": "BUMI SARI",
    "zip_code": "23672"
  },
  {
    "id": 15350,
    "name": "GUNUNG NAGAN",
    "zip_code": "23672"
  },
  {
    "id": 15351,
    "name": "KEUDE SEUMOT",
    "zip_code": "23672"
  },
  {
    "id": 15352,
    "name": "KRUENG CUT",
    "zip_code": "23672"
  },
  {
    "id": 15353,
    "name": "KULAM JEURNEH (JEUREUNEH)",
    "zip_code": "23672"
  },
  {
    "id": 15354,
    "name": "KUTA JEUMPA",
    "zip_code": "23672"
  },
  {
    "id": 15355,
    "name": "LHOK SEUMOT",
    "zip_code": "23672"
  },
  {
    "id": 15356,
    "name": "MEUNASAH DAYAH",
    "zip_code": "23672"
  },
  {
    "id": 15357,
    "name": "MEUNASAH KRUENG",
    "zip_code": "23672"
  },
  {
    "id": 15358,
    "name": "MEUNASAH PANTE",
    "zip_code": "23672"
  },
  {
    "id": 15359,
    "name": "MEUNASAH TEUNGOH",
    "zip_code": "23672"
  },
  {
    "id": 15360,
    "name": "PANTE ARA",
    "zip_code": "23672"
  },
  {
    "id": 15361,
    "name": "PANTON BAYAM",
    "zip_code": "23672"
  },
  {
    "id": 15362,
    "name": "TUWI BUNTA",
    "zip_code": "23672"
  },
  {
    "id": 15363,
    "name": "UJONG BLANG",
    "zip_code": "23672"
  }
]