[
  {
    "id": 46435,
    "name": "BALONG PACUL",
    "zip_code": "64419"
  },
  {
    "id": 46436,
    "name": "BEGADUNG",
    "zip_code": "64413"
  },
  {
    "id": 46437,
    "name": "BOGO",
    "zip_code": "64415"
  },
  {
    "id": 46438,
    "name": "CANGKRINGAN",
    "zip_code": "64415"
  },
  {
    "id": 46439,
    "name": "GANUNG KIDUL",
    "zip_code": "64419"
  },
  {
    "id": 46440,
    "name": "JATIREJO",
    "zip_code": "64416"
  },
  {
    "id": 46441,
    "name": "KARTOHARJO",
    "zip_code": "64416"
  },
  {
    "id": 46442,
    "name": "KAUMAN",
    "zip_code": "64411"
  },
  {
    "id": 46443,
    "name": "KEDUNG DOWO",
    "zip_code": "64419"
  },
  {
    "id": 46444,
    "name": "KRAMAT",
    "zip_code": "64419"
  },
  {
    "id": 46445,
    "name": "MANGUN DIKARAN",
    "zip_code": "64419"
  },
  {
    "id": 46446,
    "name": "PAYAMAN",
    "zip_code": "64418"
  },
  {
    "id": 46447,
    "name": "PLOSO",
    "zip_code": "64417"
  },
  {
    "id": 46448,
    "name": "RINGIN ANOM",
    "zip_code": "64419"
  },
  {
    "id": 46449,
    "name": "WERUNGOTOK",
    "zip_code": "64419"
  }
]