[
  {
    "id": 5699,
    "name": "BALEWANGI",
    "zip_code": "44163"
  },
  {
    "id": 5700,
    "name": "CIDATAR",
    "zip_code": "44163"
  },
  {
    "id": 5701,
    "name": "CINTAASIH",
    "zip_code": "44163"
  },
  {
    "id": 5702,
    "name": "CIPAGANTI",
    "zip_code": "44163"
  },
  {
    "id": 5703,
    "name": "CISERO",
    "zip_code": "44163"
  },
  {
    "id": 5704,
    "name": "CISURUPAN",
    "zip_code": "44163"
  },
  {
    "id": 5705,
    "name": "KARAMATWANGI",
    "zip_code": "44163"
  },
  {
    "id": 5706,
    "name": "PAKUWON",
    "zip_code": "44163"
  },
  {
    "id": 5707,
    "name": "PAMULIHAN",
    "zip_code": "44163"
  },
  {
    "id": 5708,
    "name": "PANGAUBAN",
    "zip_code": "44163"
  },
  {
    "id": 5709,
    "name": "SIMPANGSARI",
    "zip_code": "44163"
  },
  {
    "id": 5710,
    "name": "SIRNAGALIH",
    "zip_code": "44163"
  },
  {
    "id": 5711,
    "name": "SIRNAJAYA",
    "zip_code": "44163"
  },
  {
    "id": 5712,
    "name": "SITUSARI",
    "zip_code": "44163"
  },
  {
    "id": 5713,
    "name": "SUKATANI",
    "zip_code": "44163"
  },
  {
    "id": 5714,
    "name": "SUKAWARGI",
    "zip_code": "44163"
  },
  {
    "id": 5715,
    "name": "TAMBAKBAYA",
    "zip_code": "44163"
  }
]