[
  {
    "id": 11649,
    "name": "BENTENG",
    "zip_code": "24112"
  },
  {
    "id": 11650,
    "name": "BLANG ASAN",
    "zip_code": "24111"
  },
  {
    "id": 11651,
    "name": "BLANG PASEH",
    "zip_code": "24119"
  },
  {
    "id": 11652,
    "name": "BLOK BENGKEL",
    "zip_code": "24118"
  },
  {
    "id": 11653,
    "name": "BLOK SAWAH",
    "zip_code": "24114"
  },
  {
    "id": 11654,
    "name": "KAMPONG ASAN",
    "zip_code": "24115"
  },
  {
    "id": 11655,
    "name": "KERAMAT DALAM",
    "zip_code": "24115"
  },
  {
    "id": 11656,
    "name": "KERAMAT LUAR",
    "zip_code": "24111"
  },
  {
    "id": 11657,
    "name": "KUALA PIDIE",
    "zip_code": "24112"
  },
  {
    "id": 11658,
    "name": "LAMPOH KRUENG",
    "zip_code": "24119"
  },
  {
    "id": 11659,
    "name": "MEUNASAH PEUKAN",
    "zip_code": "24111"
  },
  {
    "id": 11660,
    "name": "PANTE TEUNGOH",
    "zip_code": "24114"
  },
  {
    "id": 11661,
    "name": "PASI PEUKAN BARO",
    "zip_code": "24113"
  },
  {
    "id": 11662,
    "name": "PASI RAWA",
    "zip_code": "24116"
  },
  {
    "id": 11663,
    "name": "TANJONG KRUENG",
    "zip_code": "24116"
  }
]