[
  {
    "id": 28502,
    "name": "BATU NADUA",
    "zip_code": "22472"
  },
  {
    "id": 28503,
    "name": "BATUMANUMPAK",
    "zip_code": "22472"
  },
  {
    "id": 28504,
    "name": "GODUNG BOROTAN",
    "zip_code": "22472"
  },
  {
    "id": 28505,
    "name": "HARIANJA",
    "zip_code": "22472"
  },
  {
    "id": 28506,
    "name": "HUTARAJA",
    "zip_code": "22472"
  },
  {
    "id": 28507,
    "name": "LUMBAN SINAGA SIMATUPANG",
    "zip_code": "22472"
  },
  {
    "id": 28508,
    "name": "LUMBAN SIREGAR",
    "zip_code": "22472"
  },
  {
    "id": 28509,
    "name": "NAJUMAMBE",
    "zip_code": "22472"
  },
  {
    "id": 28510,
    "name": "PADANG PARSADAAN",
    "zip_code": "22472"
  },
  {
    "id": 28511,
    "name": "PAKPAHAN",
    "zip_code": "22472"
  },
  {
    "id": 28512,
    "name": "PANSURNATOLU",
    "zip_code": "22472"
  },
  {
    "id": 28513,
    "name": "PARLOMBUAN",
    "zip_code": "22472"
  },
  {
    "id": 28514,
    "name": "PARRATUSAN",
    "zip_code": "22472"
  },
  {
    "id": 28515,
    "name": "PARSIBARUNGAN",
    "zip_code": "22472"
  },
  {
    "id": 28516,
    "name": "PARSORMINAN I",
    "zip_code": "22472"
  },
  {
    "id": 28517,
    "name": "PURBATUA",
    "zip_code": "22472"
  },
  {
    "id": 28518,
    "name": "RAHUT BOSI",
    "zip_code": "22472"
  },
  {
    "id": 28519,
    "name": "RAHUT BOSI ONAN",
    "zip_code": "22472"
  },
  {
    "id": 28520,
    "name": "SAMPAGUL",
    "zip_code": "22472"
  },
  {
    "id": 28521,
    "name": "SIBINGKE",
    "zip_code": "22472"
  },
  {
    "id": 28522,
    "name": "SIGOTOM DOLOK NAULI",
    "zip_code": "22472"
  },
  {
    "id": 28523,
    "name": "SIGOTOM JULU",
    "zip_code": "22472"
  },
  {
    "id": 28524,
    "name": "SIGOTOM TIMUR",
    "zip_code": "22472"
  },
  {
    "id": 28525,
    "name": "SILANTOM JAE",
    "zip_code": "22472"
  },
  {
    "id": 28526,
    "name": "SILANTOM JULU",
    "zip_code": "22472"
  },
  {
    "id": 28527,
    "name": "SILANTOM TONGA",
    "zip_code": "22472"
  },
  {
    "id": 82968,
    "name": "LUMBAN SORMIN",
    "zip_code": "22472"
  }
]