[
  {
    "id": 67068,
    "name": "AROMANIS (ARUMANIS)",
    "zip_code": "59184"
  },
  {
    "id": 67069,
    "name": "BOTO",
    "zip_code": "59184"
  },
  {
    "id": 67070,
    "name": "KEBONTURI",
    "zip_code": "59184"
  },
  {
    "id": 67071,
    "name": "LUNDO",
    "zip_code": "59184"
  },
  {
    "id": 67072,
    "name": "MANJANG",
    "zip_code": "59184"
  },
  {
    "id": 67073,
    "name": "MANTINGAN",
    "zip_code": "59184"
  },
  {
    "id": 67074,
    "name": "MOJOLAMPIR",
    "zip_code": "59184"
  },
  {
    "id": 67075,
    "name": "MOJOLUHUR",
    "zip_code": "59184"
  },
  {
    "id": 67076,
    "name": "RONGGO",
    "zip_code": "59184"
  },
  {
    "id": 67077,
    "name": "SIDOLUHUR",
    "zip_code": "59184"
  },
  {
    "id": 67078,
    "name": "SIDOMUKTI",
    "zip_code": "59184"
  },
  {
    "id": 67079,
    "name": "SRIKATON",
    "zip_code": "59184"
  },
  {
    "id": 67080,
    "name": "SRIWEDARI",
    "zip_code": "59184"
  },
  {
    "id": 67081,
    "name": "SUKORUKUN",
    "zip_code": "59184"
  },
  {
    "id": 67082,
    "name": "SUMBERAGUNG",
    "zip_code": "59184"
  },
  {
    "id": 67083,
    "name": "SUMBERAN",
    "zip_code": "59184"
  },
  {
    "id": 67084,
    "name": "SUMBERARUM",
    "zip_code": "59184"
  },
  {
    "id": 67085,
    "name": "SUMBERREJO",
    "zip_code": "59184"
  },
  {
    "id": 67086,
    "name": "TAMANSARI",
    "zip_code": "59184"
  },
  {
    "id": 67087,
    "name": "TEGALARUM",
    "zip_code": "59184"
  },
  {
    "id": 67088,
    "name": "TRIKOYO",
    "zip_code": "59184"
  },
  {
    "id": 82811,
    "name": "SUMBEREJO",
    "zip_code": "59184"
  }
]