[
  {
    "id": 29442,
    "name": "BERINGIN JAYA",
    "zip_code": "22978"
  },
  {
    "id": 29443,
    "name": "BINANGA",
    "zip_code": "22978"
  },
  {
    "id": 29444,
    "name": "HUTA DAME",
    "zip_code": "22978"
  },
  {
    "id": 29445,
    "name": "HUTANAINGKAN",
    "zip_code": "22978"
  },
  {
    "id": 29446,
    "name": "JAMBUR PADANG MATINGGI",
    "zip_code": "22978"
  },
  {
    "id": 29447,
    "name": "KAMPUNG BARU",
    "zip_code": "22978"
  },
  {
    "id": 29448,
    "name": "MOMPANG JAE",
    "zip_code": "22978"
  },
  {
    "id": 29449,
    "name": "MOMPANG JULU",
    "zip_code": "22978"
  },
  {
    "id": 29450,
    "name": "RUMBIO",
    "zip_code": "22978"
  },
  {
    "id": 29451,
    "name": "SIMANONDONG",
    "zip_code": "22978"
  },
  {
    "id": 29452,
    "name": "SOPO SORIK",
    "zip_code": "22978"
  },
  {
    "id": 29453,
    "name": "SUKA RAMAI",
    "zip_code": "22978"
  },
  {
    "id": 29454,
    "name": "TANJUNG MOMPANG",
    "zip_code": "22978"
  },
  {
    "id": 29455,
    "name": "TORBANUA RAJA",
    "zip_code": "22978"
  }
]