[
  {
    "id": 28648,
    "name": "BATANG ONANG BARU",
    "zip_code": "22762"
  },
  {
    "id": 28649,
    "name": "BATANG ONANG LAMA",
    "zip_code": "22762"
  },
  {
    "id": 28650,
    "name": "BATU MAMAK",
    "zip_code": "22762"
  },
  {
    "id": 28651,
    "name": "BATU NANGGAR",
    "zip_code": "22762"
  },
  {
    "id": 28652,
    "name": "BATU PULUT",
    "zip_code": "22762"
  },
  {
    "id": 28653,
    "name": "BONAN DOLOK",
    "zip_code": "22762"
  },
  {
    "id": 28654,
    "name": "GALANGGANG",
    "zip_code": "22762"
  },
  {
    "id": 28655,
    "name": "GUNUNG TUA BATANG ONANG",
    "zip_code": "22762"
  },
  {
    "id": 28656,
    "name": "GUNUNG TUA JATI (TUMBUJAT)",
    "zip_code": "22762"
  },
  {
    "id": 28657,
    "name": "GUNUNG TUA JULU",
    "zip_code": "22762"
  },
  {
    "id": 28658,
    "name": "HUTA LAMBUNG",
    "zip_code": "22762"
  },
  {
    "id": 28659,
    "name": "JANJI MANAHAN",
    "zip_code": "22762"
  },
  {
    "id": 28660,
    "name": "JANJI MAULI",
    "zip_code": "22762"
  },
  {
    "id": 28661,
    "name": "MORANG",
    "zip_code": "22762"
  },
  {
    "id": 28662,
    "name": "PADANG BUJUR BARU",
    "zip_code": "22762"
  },
  {
    "id": 28663,
    "name": "PADANG GARUGUR",
    "zip_code": "22762"
  },
  {
    "id": 28664,
    "name": "PADANG MATINGGI",
    "zip_code": "22762"
  },
  {
    "id": 28665,
    "name": "PAGARAN BATU",
    "zip_code": "22762"
  },
  {
    "id": 28666,
    "name": "PANGKALAN DOLOK JULU",
    "zip_code": "22762"
  },
  {
    "id": 28667,
    "name": "PANGKALAN DOLOK LAMA",
    "zip_code": "22762"
  },
  {
    "id": 28668,
    "name": "PARAU SORAT",
    "zip_code": "22762"
  },
  {
    "id": 28669,
    "name": "PASAR MATANGGOR",
    "zip_code": "22762"
  },
  {
    "id": 28670,
    "name": "PASIR AMPOLU HEPENG",
    "zip_code": "22762"
  },
  {
    "id": 28671,
    "name": "PINTU PADANG",
    "zip_code": "22762"
  },
  {
    "id": 28672,
    "name": "PURBA TUA",
    "zip_code": "22762"
  },
  {
    "id": 28673,
    "name": "SAYUR MATINGGI",
    "zip_code": "22762"
  },
  {
    "id": 28674,
    "name": "SAYUR MATINGGI II JULU",
    "zip_code": "22762"
  },
  {
    "id": 28675,
    "name": "SIMANAPANG",
    "zip_code": "22762"
  },
  {
    "id": 28676,
    "name": "SIMANGAMBAT DOLOK",
    "zip_code": "22762"
  },
  {
    "id": 28677,
    "name": "SIMANINGGIR PSM",
    "zip_code": "22762"
  },
  {
    "id": 28678,
    "name": "SIMARDONA",
    "zip_code": "22762"
  },
  {
    "id": 28679,
    "name": "TAMOSU",
    "zip_code": "22762"
  }
]