[
  {
    "id": 50185,
    "name": "ALIM",
    "zip_code": "29355"
  },
  {
    "id": 50186,
    "name": "ANAK TALANG",
    "zip_code": "29355"
  },
  {
    "id": 50187,
    "name": "AUR CINA",
    "zip_code": "29355"
  },
  {
    "id": 50188,
    "name": "BATU PAPAN",
    "zip_code": "29355"
  },
  {
    "id": 50189,
    "name": "BUKIT LINGKAR",
    "zip_code": "29355"
  },
  {
    "id": 50190,
    "name": "BUKIT LIPAI",
    "zip_code": "29355"
  },
  {
    "id": 50191,
    "name": "CENAKU KECIL",
    "zip_code": "29355"
  },
  {
    "id": 50192,
    "name": "KEPAYANG SARI",
    "zip_code": "29355"
  },
  {
    "id": 50193,
    "name": "KERUBUNG JAYA",
    "zip_code": "29355"
  },
  {
    "id": 50194,
    "name": "KUALA GADING",
    "zip_code": "29355"
  },
  {
    "id": 50195,
    "name": "KUALA KILAN",
    "zip_code": "29355"
  },
  {
    "id": 50196,
    "name": "LAHAI KEMUNING",
    "zip_code": "29355"
  },
  {
    "id": 50197,
    "name": "PATALING/PETALING JAYA",
    "zip_code": "29355"
  },
  {
    "id": 50198,
    "name": "PEJANGKI",
    "zip_code": "29355"
  },
  {
    "id": 50199,
    "name": "PEMATANG MANGGIS",
    "zip_code": "29355"
  },
  {
    "id": 50200,
    "name": "PUNTI ANAI",
    "zip_code": "29355"
  },
  {
    "id": 50201,
    "name": "SANGLAP",
    "zip_code": "29355"
  },
  {
    "id": 50202,
    "name": "SIPANG",
    "zip_code": "29355"
  },
  {
    "id": 50203,
    "name": "TALANG BERSEMI",
    "zip_code": "29355"
  },
  {
    "id": 50204,
    "name": "TALANG MULIA/MULYA",
    "zip_code": "29355"
  }
]