[
  {
    "id": 50368,
    "name": "KAYU RAJA",
    "zip_code": "29274"
  },
  {
    "id": 50369,
    "name": "KEMBANG MEKAR SARI",
    "zip_code": "29274"
  },
  {
    "id": 50370,
    "name": "KOTA BARU RETEH",
    "zip_code": "29274"
  },
  {
    "id": 50371,
    "name": "KOTA BARU SEBERIDA",
    "zip_code": "29274"
  },
  {
    "id": 50372,
    "name": "KUALA KERITANG",
    "zip_code": "29274"
  },
  {
    "id": 50373,
    "name": "KUALA LEMANG",
    "zip_code": "29274"
  },
  {
    "id": 50374,
    "name": "LINTAS UTARA",
    "zip_code": "29274"
  },
  {
    "id": 50375,
    "name": "NUSANTARA JAYA",
    "zip_code": "29274"
  },
  {
    "id": 50376,
    "name": "NYIUR PERMAI",
    "zip_code": "29274"
  },
  {
    "id": 50377,
    "name": "PANCUR",
    "zip_code": "29274"
  },
  {
    "id": 50378,
    "name": "PASAR KEMBANG",
    "zip_code": "29274"
  },
  {
    "id": 50379,
    "name": "PEBENAAN",
    "zip_code": "29274"
  },
  {
    "id": 50380,
    "name": "PENGALIHAN/PENGALEHAN",
    "zip_code": "29274"
  },
  {
    "id": 50381,
    "name": "PETALONGAN",
    "zip_code": "29274"
  },
  {
    "id": 50382,
    "name": "SEBERANG PEBENAAN",
    "zip_code": "29274"
  },
  {
    "id": 50383,
    "name": "SENCALANG",
    "zip_code": "29274"
  },
  {
    "id": 50384,
    "name": "TELUK KELASA",
    "zip_code": "29274"
  }
]