[
  {
    "id": 14696,
    "name": "ALUE GUNTO",
    "zip_code": "24381"
  },
  {
    "id": 14697,
    "name": "ARA (MEUNASAH ARA)",
    "zip_code": "24381"
  },
  {
    "id": 14698,
    "name": "CALONG",
    "zip_code": "24381"
  },
  {
    "id": 14699,
    "name": "CIBREK BAROH",
    "zip_code": "24381"
  },
  {
    "id": 14700,
    "name": "CIBREK TUNONG",
    "zip_code": "24381"
  },
  {
    "id": 14701,
    "name": "DAYAH ARON",
    "zip_code": "24381"
  },
  {
    "id": 14702,
    "name": "DAYAH MEURIYA/MEURIA",
    "zip_code": "24381"
  },
  {
    "id": 14703,
    "name": "DAYAH TEUNGKU",
    "zip_code": "24381"
  },
  {
    "id": 14704,
    "name": "GAMPONG AMPEH",
    "zip_code": "24381"
  },
  {
    "id": 14705,
    "name": "GAMPONG AWE",
    "zip_code": "24381"
  },
  {
    "id": 14706,
    "name": "GAMPONG BLANG",
    "zip_code": "24381"
  },
  {
    "id": 14707,
    "name": "GAMPONG GLOK",
    "zip_code": "24381"
  },
  {
    "id": 14708,
    "name": "GAMPONG KULAM",
    "zip_code": "24381"
  },
  {
    "id": 14709,
    "name": "GAMPONG U (MEUNASAH U)",
    "zip_code": "24381"
  },
  {
    "id": 14710,
    "name": "HAGU",
    "zip_code": "24381"
  },
  {
    "id": 14711,
    "name": "KANOT",
    "zip_code": "24381"
  },
  {
    "id": 14712,
    "name": "KEUDE ARON",
    "zip_code": "24381"
  },
  {
    "id": 14713,
    "name": "KEUDE TEUPIN PUNTI",
    "zip_code": "24381"
  },
  {
    "id": 14714,
    "name": "KEUTAPANG",
    "zip_code": "24381"
  },
  {
    "id": 14715,
    "name": "KUMBANG",
    "zip_code": "24381"
  },
  {
    "id": 14716,
    "name": "MAMPREE",
    "zip_code": "24381"
  },
  {
    "id": 14717,
    "name": "MANYANG BAROH",
    "zip_code": "24381"
  },
  {
    "id": 14718,
    "name": "MATANG MEUNYE",
    "zip_code": "24381"
  },
  {
    "id": 14719,
    "name": "ME ARON",
    "zip_code": "24381"
  },
  {
    "id": 14720,
    "name": "MESJID",
    "zip_code": "24381"
  },
  {
    "id": 14721,
    "name": "MEUCAT",
    "zip_code": "24381"
  },
  {
    "id": 14722,
    "name": "MEURIYA/MEURIA ARON",
    "zip_code": "24381"
  },
  {
    "id": 14723,
    "name": "MON CRANG",
    "zip_code": "24381"
  },
  {
    "id": 14724,
    "name": "PANTE",
    "zip_code": "24381"
  },
  {
    "id": 14725,
    "name": "PEUREUPOK",
    "zip_code": "24381"
  },
  {
    "id": 14726,
    "name": "PULO",
    "zip_code": "24381"
  },
  {
    "id": 14727,
    "name": "TANJONG KRUENG PASE",
    "zip_code": "24381"
  },
  {
    "id": 14728,
    "name": "TANJONG MULIENG",
    "zip_code": "24381"
  },
  {
    "id": 14729,
    "name": "TEUNGOH",
    "zip_code": "24381"
  }
]