[
  {
    "id": 46379,
    "name": "BADAS",
    "zip_code": "61483"
  },
  {
    "id": 46380,
    "name": "BAKALAN",
    "zip_code": "61483"
  },
  {
    "id": 46381,
    "name": "BRUDU",
    "zip_code": "61483"
  },
  {
    "id": 46382,
    "name": "BUDUGSIDOREJO",
    "zip_code": "61483"
  },
  {
    "id": 46383,
    "name": "CURAH MALANG",
    "zip_code": "61483"
  },
  {
    "id": 46384,
    "name": "GEDANGAN",
    "zip_code": "61483"
  },
  {
    "id": 46385,
    "name": "JOGOLOYO",
    "zip_code": "61483"
  },
  {
    "id": 46386,
    "name": "KEDUNGPAPAR",
    "zip_code": "61483"
  },
  {
    "id": 46387,
    "name": "KENDALSARI",
    "zip_code": "61483"
  },
  {
    "id": 46388,
    "name": "MADYO PURO",
    "zip_code": "61483"
  },
  {
    "id": 46389,
    "name": "MENTORO",
    "zip_code": "61483"
  },
  {
    "id": 46390,
    "name": "MLARAS",
    "zip_code": "61483"
  },
  {
    "id": 46391,
    "name": "NGLELE",
    "zip_code": "61483"
  },
  {
    "id": 46392,
    "name": "PALREJO",
    "zip_code": "61483"
  },
  {
    "id": 46393,
    "name": "PLEMAHAN",
    "zip_code": "61483"
  },
  {
    "id": 46394,
    "name": "PLOSOKEREP",
    "zip_code": "61483"
  },
  {
    "id": 46395,
    "name": "SEBANI",
    "zip_code": "61483"
  },
  {
    "id": 46396,
    "name": "SEGODOREJO",
    "zip_code": "61483"
  },
  {
    "id": 46397,
    "name": "SUMOBITO",
    "zip_code": "61483"
  },
  {
    "id": 46398,
    "name": "TALUN KIDUL",
    "zip_code": "61483"
  },
  {
    "id": 46399,
    "name": "TRAWASAN",
    "zip_code": "61483"
  }
]