[
  {
    "id": 29528,
    "name": "BANGUN SAROHA",
    "zip_code": "22983"
  },
  {
    "id": 29529,
    "name": "BANJAR MAGA",
    "zip_code": "22983"
  },
  {
    "id": 29530,
    "name": "DUA SEPAKAT",
    "zip_code": "22983"
  },
  {
    "id": 29531,
    "name": "GONTING",
    "zip_code": "22983"
  },
  {
    "id": 29532,
    "name": "GUNUNG GODANG",
    "zip_code": "22983"
  },
  {
    "id": 29533,
    "name": "HUTA BARINGIN",
    "zip_code": "22983"
  },
  {
    "id": 29534,
    "name": "HUTA NAULI",
    "zip_code": "22983"
  },
  {
    "id": 29535,
    "name": "LUBUK KANCAH",
    "zip_code": "22983"
  },
  {
    "id": 29536,
    "name": "MANISAK",
    "zip_code": "22983"
  },
  {
    "id": 29537,
    "name": "MUARA BANGKO",
    "zip_code": "22983"
  },
  {
    "id": 29538,
    "name": "RANTO NALINJANG",
    "zip_code": "22983"
  },
  {
    "id": 29539,
    "name": "RANTO PANJANG",
    "zip_code": "22983"
  },
  {
    "id": 29540,
    "name": "SAMPURAN",
    "zip_code": "22983"
  },
  {
    "id": 29541,
    "name": "SIMPANG TALAP",
    "zip_code": "22983"
  },
  {
    "id": 29542,
    "name": "TANDIKEK",
    "zip_code": "22983"
  },
  {
    "id": 43201,
    "name": "SIMANINGGIR",
    "zip_code": "22983"
  },
  {
    "id": 43221,
    "name": "HUTA RAJA",
    "zip_code": "22983"
  }
]