[
  {
    "id": 76212,
    "name": "BANJARMASIN",
    "zip_code": "35384"
  },
  {
    "id": 76213,
    "name": "BELU",
    "zip_code": "35384"
  },
  {
    "id": 76214,
    "name": "GEDUNG JAMBU",
    "zip_code": "35384"
  },
  {
    "id": 76215,
    "name": "KALI MIRING",
    "zip_code": "35384"
  },
  {
    "id": 76216,
    "name": "KANDANG BESI",
    "zip_code": "35384"
  },
  {
    "id": 76217,
    "name": "KANYANGAN",
    "zip_code": "35384"
  },
  {
    "id": 76218,
    "name": "KESUGIHAN",
    "zip_code": "35384"
  },
  {
    "id": 76219,
    "name": "MAJA",
    "zip_code": "35384"
  },
  {
    "id": 76220,
    "name": "NEGARA BATIN",
    "zip_code": "35384"
  },
  {
    "id": 76221,
    "name": "PAJAJARAN",
    "zip_code": "35384"
  },
  {
    "id": 76222,
    "name": "PAYUNG",
    "zip_code": "35384"
  },
  {
    "id": 76223,
    "name": "PULAU BENAWANG",
    "zip_code": "35384"
  },
  {
    "id": 76224,
    "name": "TALANGENING (TELA GENING)",
    "zip_code": "35384"
  },
  {
    "id": 76225,
    "name": "TANJUNG AGUNG",
    "zip_code": "35384"
  },
  {
    "id": 76226,
    "name": "TEBA BUNUK",
    "zip_code": "35384"
  },
  {
    "id": 76227,
    "name": "WAY GELANG",
    "zip_code": "35384"
  }
]