[
  {
    "id": 75156,
    "name": "ADI WARNO",
    "zip_code": "34381"
  },
  {
    "id": 75157,
    "name": "BALAI KENCONO",
    "zip_code": "34381"
  },
  {
    "id": 75158,
    "name": "BALE REJO",
    "zip_code": "34381"
  },
  {
    "id": 75159,
    "name": "BANAR JOYO",
    "zip_code": "34381"
  },
  {
    "id": 75160,
    "name": "BANJAR REJO",
    "zip_code": "34381"
  },
  {
    "id": 75161,
    "name": "BATANG HARJO",
    "zip_code": "34381"
  },
  {
    "id": 75162,
    "name": "BUANA SAKTI",
    "zip_code": "34381"
  },
  {
    "id": 75163,
    "name": "BUMI HARJO",
    "zip_code": "34381"
  },
  {
    "id": 75164,
    "name": "BUMI MAS",
    "zip_code": "34381"
  },
  {
    "id": 75165,
    "name": "NAMPI REJO",
    "zip_code": "34381"
  },
  {
    "id": 75166,
    "name": "PURWODADI MEKAR",
    "zip_code": "34381"
  },
  {
    "id": 75167,
    "name": "REJO AGUNG",
    "zip_code": "34381"
  },
  {
    "id": 75168,
    "name": "SELO REJO",
    "zip_code": "34381"
  },
  {
    "id": 75169,
    "name": "SRI BASUKI",
    "zip_code": "34381"
  },
  {
    "id": 75170,
    "name": "SUMBER AGUNG",
    "zip_code": "34381"
  },
  {
    "id": 75171,
    "name": "SUMBER REJO",
    "zip_code": "34381"
  },
  {
    "id": 75172,
    "name": "TELOGO REJO",
    "zip_code": "34381"
  }
]