[
  {
    "id": 68866,
    "name": "BERTA",
    "zip_code": "53475"
  },
  {
    "id": 68867,
    "name": "BRENGKOK",
    "zip_code": "53475"
  },
  {
    "id": 68868,
    "name": "DERIK",
    "zip_code": "53475"
  },
  {
    "id": 68869,
    "name": "DERMASARI",
    "zip_code": "53475"
  },
  {
    "id": 68870,
    "name": "GUMELEM KULON",
    "zip_code": "53475"
  },
  {
    "id": 68871,
    "name": "GUMELEM WETAN",
    "zip_code": "53475"
  },
  {
    "id": 68872,
    "name": "KARANGJATI",
    "zip_code": "53475"
  },
  {
    "id": 68873,
    "name": "KARANGSALAM",
    "zip_code": "53475"
  },
  {
    "id": 68874,
    "name": "KEDAWUNG",
    "zip_code": "53475"
  },
  {
    "id": 68875,
    "name": "KEMRANGGON",
    "zip_code": "53475"
  },
  {
    "id": 68876,
    "name": "PAKIKIRAN",
    "zip_code": "53475"
  },
  {
    "id": 68877,
    "name": "PANERUSAN KULON",
    "zip_code": "53475"
  },
  {
    "id": 68878,
    "name": "PANERUSAN WETAN",
    "zip_code": "53475"
  },
  {
    "id": 68879,
    "name": "PIASA WETAN",
    "zip_code": "53475"
  },
  {
    "id": 68880,
    "name": "SUSUKAN",
    "zip_code": "53475"
  }
]