[
  {
    "id": 45495,
    "name": "BALEAGUNG",
    "zip_code": "56196"
  },
  {
    "id": 45496,
    "name": "BANARAN",
    "zip_code": "56196"
  },
  {
    "id": 45497,
    "name": "BANJARSARI",
    "zip_code": "56196"
  },
  {
    "id": 45498,
    "name": "BANYUSARI",
    "zip_code": "56196"
  },
  {
    "id": 45499,
    "name": "CITROSONO",
    "zip_code": "56196"
  },
  {
    "id": 45500,
    "name": "COKRO",
    "zip_code": "56196"
  },
  {
    "id": 45501,
    "name": "GIRIWETAN",
    "zip_code": "56196"
  },
  {
    "id": 45502,
    "name": "GRABAG",
    "zip_code": "56196"
  },
  {
    "id": 45503,
    "name": "KALIKUTO",
    "zip_code": "56196"
  },
  {
    "id": 45504,
    "name": "KALIPUCANG",
    "zip_code": "56196"
  },
  {
    "id": 45505,
    "name": "KARTOHARJO",
    "zip_code": "56196"
  },
  {
    "id": 45506,
    "name": "KETAWANG",
    "zip_code": "56196"
  },
  {
    "id": 45507,
    "name": "KLEGEN",
    "zip_code": "56196"
  },
  {
    "id": 45508,
    "name": "KLETERAN",
    "zip_code": "56196"
  },
  {
    "id": 45509,
    "name": "LEBAK",
    "zip_code": "56196"
  },
  {
    "id": 45510,
    "name": "LOSARI",
    "zip_code": "56196"
  },
  {
    "id": 45511,
    "name": "NGASINAN",
    "zip_code": "56196"
  },
  {
    "id": 45512,
    "name": "NGRANCAH",
    "zip_code": "56196"
  },
  {
    "id": 45513,
    "name": "PESIDI",
    "zip_code": "56196"
  },
  {
    "id": 45514,
    "name": "PUCUNGSARI",
    "zip_code": "56196"
  },
  {
    "id": 45515,
    "name": "SALAM",
    "zip_code": "56196"
  },
  {
    "id": 45516,
    "name": "SAMBUNGREJO",
    "zip_code": "56196"
  },
  {
    "id": 45517,
    "name": "SEWORAN",
    "zip_code": "56196"
  },
  {
    "id": 45518,
    "name": "SIDOGEDE",
    "zip_code": "56196"
  },
  {
    "id": 45519,
    "name": "SUGIHMAS",
    "zip_code": "56196"
  },
  {
    "id": 45520,
    "name": "SUMURARUM",
    "zip_code": "56196"
  },
  {
    "id": 45521,
    "name": "TIRTO",
    "zip_code": "56196"
  },
  {
    "id": 45522,
    "name": "TLOGOREJO",
    "zip_code": "56196"
  }
]