[
  {
    "id": 47304,
    "name": "ARGOTIRTO",
    "zip_code": "65176"
  },
  {
    "id": 47305,
    "name": "DRUJU",
    "zip_code": "65176"
  },
  {
    "id": 47306,
    "name": "HARJOKUNCARAN",
    "zip_code": "65176"
  },
  {
    "id": 47307,
    "name": "KEDUNGBANTENG",
    "zip_code": "65176"
  },
  {
    "id": 47308,
    "name": "KLEPU",
    "zip_code": "65176"
  },
  {
    "id": 47309,
    "name": "RINGINKEMBAR",
    "zip_code": "65176"
  },
  {
    "id": 47310,
    "name": "RINGINSARI",
    "zip_code": "65176"
  },
  {
    "id": 47311,
    "name": "SEKARBANYU",
    "zip_code": "65176"
  },
  {
    "id": 47312,
    "name": "SIDOASRI",
    "zip_code": "65176"
  },
  {
    "id": 47313,
    "name": "SITIARJO",
    "zip_code": "65176"
  },
  {
    "id": 47314,
    "name": "SUMBERAGUNG",
    "zip_code": "65176"
  },
  {
    "id": 47315,
    "name": "SUMBERMANJING WETAN",
    "zip_code": "65176"
  },
  {
    "id": 47316,
    "name": "TAMBAK ASRI",
    "zip_code": "65176"
  },
  {
    "id": 47317,
    "name": "TAMBAKREJO",
    "zip_code": "65176"
  },
  {
    "id": 47318,
    "name": "TEGALREJO",
    "zip_code": "65176"
  }
]