[
  {
    "id": 32656,
    "name": "BARUGA",
    "zip_code": "93463"
  },
  {
    "id": 32657,
    "name": "BENDEWUTA",
    "zip_code": "93463"
  },
  {
    "id": 32658,
    "name": "DAWI-DAWI",
    "zip_code": "93463"
  },
  {
    "id": 32659,
    "name": "DURIAASI",
    "zip_code": "93463"
  },
  {
    "id": 32660,
    "name": "KASUMOKUNI",
    "zip_code": "93463"
  },
  {
    "id": 32661,
    "name": "LAHUTUTU",
    "zip_code": "93463"
  },
  {
    "id": 32662,
    "name": "LALOHAO",
    "zip_code": "93463"
  },
  {
    "id": 32663,
    "name": "LALOUSU",
    "zip_code": "93463"
  },
  {
    "id": 32664,
    "name": "LAMBANGI",
    "zip_code": "93463"
  },
  {
    "id": 32665,
    "name": "LAMOKUNI",
    "zip_code": "93463"
  },
  {
    "id": 32666,
    "name": "LANGGONAWE",
    "zip_code": "93463"
  },
  {
    "id": 32667,
    "name": "LANONGGASAI",
    "zip_code": "93463"
  },
  {
    "id": 32668,
    "name": "MASOOSE",
    "zip_code": "93463"
  },
  {
    "id": 32669,
    "name": "PUDAY",
    "zip_code": "93463"
  },
  {
    "id": 32670,
    "name": "PUUDURIA",
    "zip_code": "93463"
  },
  {
    "id": 32671,
    "name": "TAWAROLONDO",
    "zip_code": "93463"
  },
  {
    "id": 32672,
    "name": "TETEMOTAHA",
    "zip_code": "93463"
  },
  {
    "id": 32673,
    "name": "TETEONA",
    "zip_code": "93463"
  },
  {
    "id": 32674,
    "name": "TOMULIPU / WAKUSAO",
    "zip_code": "93463"
  },
  {
    "id": 32675,
    "name": "WAWONGGOLE",
    "zip_code": "93463"
  },
  {
    "id": 32676,
    "name": "WAWOONE",
    "zip_code": "93463"
  },
  {
    "id": 32677,
    "name": "WAWOSOLO",
    "zip_code": "93463"
  },
  {
    "id": 32678,
    "name": "WONGGEDUKU",
    "zip_code": "93463"
  },
  {
    "id": 82881,
    "name": "AMBUUWIU",
    "zip_code": "93469"
  }
]