[
  {
    "id": 37204,
    "name": "BILA CENGE",
    "zip_code": "87261"
  },
  {
    "id": 37205,
    "name": "BUKAMBERO",
    "zip_code": "87261"
  },
  {
    "id": 37206,
    "name": "HAMELI ATE",
    "zip_code": "87261"
  },
  {
    "id": 37207,
    "name": "HOHA WUNGO",
    "zip_code": "87261"
  },
  {
    "id": 37208,
    "name": "HOMBA KARIPIT",
    "zip_code": "87261"
  },
  {
    "id": 37209,
    "name": "HOMBA PARE",
    "zip_code": "87261"
  },
  {
    "id": 37210,
    "name": "KADAGHU TANA",
    "zip_code": "87261"
  },
  {
    "id": 37211,
    "name": "KADU ETA",
    "zip_code": "87261"
  },
  {
    "id": 37212,
    "name": "KALENA RONGO",
    "zip_code": "87261"
  },
  {
    "id": 37213,
    "name": "KANDU WELA",
    "zip_code": "87261"
  },
  {
    "id": 37214,
    "name": "KORI",
    "zip_code": "87261"
  },
  {
    "id": 37215,
    "name": "MAGHO LINYO",
    "zip_code": "87261"
  },
  {
    "id": 37216,
    "name": "MANGGANIPI",
    "zip_code": "87261"
  },
  {
    "id": 37217,
    "name": "NOHA",
    "zip_code": "87261"
  },
  {
    "id": 37218,
    "name": "WAIHOLO",
    "zip_code": "87261"
  },
  {
    "id": 37219,
    "name": "WAILABUBUR",
    "zip_code": "87261"
  },
  {
    "id": 37220,
    "name": "WAITARU",
    "zip_code": "87261"
  },
  {
    "id": 37221,
    "name": "WEE WELLA",
    "zip_code": "87261"
  }
]