[
  {
    "id": 74947,
    "name": "BANGUN REJO",
    "zip_code": "34173"
  },
  {
    "id": 74948,
    "name": "CIMARIAS",
    "zip_code": "34173"
  },
  {
    "id": 74949,
    "name": "MEKAR JAYA",
    "zip_code": "34173"
  },
  {
    "id": 74950,
    "name": "PURWODADI",
    "zip_code": "34173"
  },
  {
    "id": 74951,
    "name": "SIDO DADI",
    "zip_code": "34173"
  },
  {
    "id": 74952,
    "name": "SIDO LUHUR",
    "zip_code": "34173"
  },
  {
    "id": 74953,
    "name": "SIDO MULYO",
    "zip_code": "34173"
  },
  {
    "id": 74954,
    "name": "SIDO REJO",
    "zip_code": "34173"
  },
  {
    "id": 74955,
    "name": "SINAR LUAS",
    "zip_code": "34173"
  },
  {
    "id": 74956,
    "name": "SINAR SEPUTIH",
    "zip_code": "34173"
  },
  {
    "id": 74957,
    "name": "SOKA WARINGIN",
    "zip_code": "34173"
  },
  {
    "id": 74958,
    "name": "SRI PENDOWO",
    "zip_code": "34173"
  },
  {
    "id": 74959,
    "name": "SUKA NEGARA",
    "zip_code": "34173"
  },
  {
    "id": 74960,
    "name": "SUKA NEGERI",
    "zip_code": "34173"
  },
  {
    "id": 74961,
    "name": "TANJUNG JAYA",
    "zip_code": "34173"
  },
  {
    "id": 74962,
    "name": "TANJUNG PANDAN",
    "zip_code": "34173"
  },
  {
    "id": 74963,
    "name": "TIMBUL REJO",
    "zip_code": "34173"
  }
]