[
  {
    "id": 22819,
    "name": "DAGIMON",
    "zip_code": "99871"
  },
  {
    "id": 22820,
    "name": "EMETE",
    "zip_code": "99871"
  },
  {
    "id": 22821,
    "name": "ENEM",
    "zip_code": "99871"
  },
  {
    "id": 22822,
    "name": "GAUDA",
    "zip_code": "99871"
  },
  {
    "id": 22823,
    "name": "HAROME",
    "zip_code": "99871"
  },
  {
    "id": 22824,
    "name": "KADAM (AYIM/OYIM)",
    "zip_code": "99871"
  },
  {
    "id": 22825,
    "name": "KEPI",
    "zip_code": "99871"
  },
  {
    "id": 22826,
    "name": "KOGO",
    "zip_code": "99871"
  },
  {
    "id": 22827,
    "name": "MADU",
    "zip_code": "99871"
  },
  {
    "id": 22828,
    "name": "MAPPI BAWAH / YAMUI",
    "zip_code": "99871"
  },
  {
    "id": 22829,
    "name": "MARBIN",
    "zip_code": "99871"
  },
  {
    "id": 22830,
    "name": "MASIN",
    "zip_code": "99871"
  },
  {
    "id": 22831,
    "name": "METIM",
    "zip_code": "99871"
  },
  {
    "id": 22832,
    "name": "MUIN",
    "zip_code": "99871"
  },
  {
    "id": 22833,
    "name": "OBAA",
    "zip_code": "99871"
  },
  {
    "id": 22834,
    "name": "PAEDAM",
    "zip_code": "99871"
  },
  {
    "id": 22835,
    "name": "PIAI",
    "zip_code": "99871"
  },
  {
    "id": 22836,
    "name": "RAYAM",
    "zip_code": "99871"
  },
  {
    "id": 22837,
    "name": "REP",
    "zip_code": "99871"
  },
  {
    "id": 22838,
    "name": "SOBA",
    "zip_code": "99871"
  },
  {
    "id": 22839,
    "name": "TOKOM (TOGHOM)",
    "zip_code": "99871"
  },
  {
    "id": 22840,
    "name": "WAIRU (MAIRU)",
    "zip_code": "99871"
  },
  {
    "id": 22841,
    "name": "WANGGATE",
    "zip_code": "99871"
  },
  {
    "id": 22842,
    "name": "YANGPOP",
    "zip_code": "99871"
  }
]