[
  {
    "id": 52196,
    "name": "AMIN JAYA",
    "zip_code": "74183"
  },
  {
    "id": 52197,
    "name": "ARGA MULYA",
    "zip_code": "74183"
  },
  {
    "id": 52198,
    "name": "BERAMBAI MAKMUR",
    "zip_code": "74183"
  },
  {
    "id": 52199,
    "name": "KARANG SARI",
    "zip_code": "74183"
  },
  {
    "id": 52200,
    "name": "KARANGMULYA",
    "zip_code": "74183"
  },
  {
    "id": 52201,
    "name": "KEBON AGUNG",
    "zip_code": "74183"
  },
  {
    "id": 52202,
    "name": "MARGA MULYA",
    "zip_code": "74183"
  },
  {
    "id": 52203,
    "name": "MULIA/MULYA JADI",
    "zip_code": "74183"
  },
  {
    "id": 52204,
    "name": "NATAI KERBAU",
    "zip_code": "74183"
  },
  {
    "id": 52205,
    "name": "PANGKALAN BANTENG",
    "zip_code": "74183"
  },
  {
    "id": 52206,
    "name": "SEI/SUNGAI HIJAU",
    "zip_code": "74183"
  },
  {
    "id": 52207,
    "name": "SIDO MULYO/PONCO MULYO",
    "zip_code": "74183"
  },
  {
    "id": 52208,
    "name": "SIMPANG BERAMBAI",
    "zip_code": "74183"
  },
  {
    "id": 52209,
    "name": "SUNGAI BENGKUANG",
    "zip_code": "74183"
  },
  {
    "id": 52210,
    "name": "SUNGAI KUNING",
    "zip_code": "74183"
  },
  {
    "id": 52211,
    "name": "SUNGAI PAKIT",
    "zip_code": "74183"
  },
  {
    "id": 52212,
    "name": "SUNGAI PULAU",
    "zip_code": "74183"
  }
]