[
  {
    "id": 53321,
    "name": "ADIL MAKMUR",
    "zip_code": "30658"
  },
  {
    "id": 53322,
    "name": "BALAM JERUJU",
    "zip_code": "30658"
  },
  {
    "id": 53323,
    "name": "CENGAL",
    "zip_code": "30658"
  },
  {
    "id": 53324,
    "name": "KEBUN CABE",
    "zip_code": "30658"
  },
  {
    "id": 53325,
    "name": "KUALA SUNGAI JERUJU",
    "zip_code": "30658"
  },
  {
    "id": 53326,
    "name": "KUALA SUNGAI PASIR",
    "zip_code": "30658"
  },
  {
    "id": 53327,
    "name": "PANTAI HARAPAN",
    "zip_code": "30658"
  },
  {
    "id": 53328,
    "name": "PELIMBANGAN",
    "zip_code": "30658"
  },
  {
    "id": 53329,
    "name": "SUNGAI JERUJU",
    "zip_code": "30658"
  },
  {
    "id": 53330,
    "name": "SUNGAI KETUPAK",
    "zip_code": "30658"
  },
  {
    "id": 53331,
    "name": "SUNGAI LUMPUR",
    "zip_code": "30658"
  },
  {
    "id": 53332,
    "name": "SUNGAI PASIR",
    "zip_code": "30658"
  },
  {
    "id": 53333,
    "name": "SUNGAI SOMOR",
    "zip_code": "30658"
  },
  {
    "id": 53334,
    "name": "TALANG RIMBA",
    "zip_code": "30658"
  },
  {
    "id": 53335,
    "name": "ULAK KEDONDONG",
    "zip_code": "30658"
  }
]