[
  {
    "id": 1663,
    "name": "BATU TULIS",
    "zip_code": "97573"
  },
  {
    "id": 1664,
    "name": "ELFULE",
    "zip_code": "97573"
  },
  {
    "id": 1665,
    "name": "FATMITE",
    "zip_code": "97573"
  },
  {
    "id": 1666,
    "name": "KAMLANGLALE",
    "zip_code": "97573"
  },
  {
    "id": 1667,
    "name": "LABUANG",
    "zip_code": "97573"
  },
  {
    "id": 1668,
    "name": "LEKTAMA",
    "zip_code": "97573"
  },
  {
    "id": 1669,
    "name": "LEKU",
    "zip_code": "97573"
  },
  {
    "id": 1670,
    "name": "MASNANA",
    "zip_code": "97573"
  },
  {
    "id": 1671,
    "name": "NAMRINAT",
    "zip_code": "97573"
  },
  {
    "id": 1672,
    "name": "OKI BARU",
    "zip_code": "97573"
  },
  {
    "id": 1673,
    "name": "OKI LAMA",
    "zip_code": "97573"
  },
  {
    "id": 1674,
    "name": "TIKBARY",
    "zip_code": "97573"
  },
  {
    "id": 1675,
    "name": "WAEFUSI",
    "zip_code": "97573"
  },
  {
    "id": 1676,
    "name": "WAENALUT",
    "zip_code": "97573"
  },
  {
    "id": 1677,
    "name": "WAENONO",
    "zip_code": "97573"
  },
  {
    "id": 1678,
    "name": "WALI",
    "zip_code": "97573"
  },
  {
    "id": 1679,
    "name": "WAMKANA",
    "zip_code": "97573"
  }
]