[
  {
    "id": 23540,
    "name": "APELOME",
    "zip_code": "98915"
  },
  {
    "id": 23541,
    "name": "GINILUME",
    "zip_code": "98915"
  },
  {
    "id": 23542,
    "name": "GUBUME",
    "zip_code": "98915"
  },
  {
    "id": 23543,
    "name": "GUBUNERI",
    "zip_code": "98915"
  },
  {
    "id": 23544,
    "name": "JINGGI",
    "zip_code": "98915"
  },
  {
    "id": 23545,
    "name": "KENENDAGA",
    "zip_code": "98915"
  },
  {
    "id": 23546,
    "name": "KUMIGI",
    "zip_code": "98915"
  },
  {
    "id": 23547,
    "name": "LIGUNI",
    "zip_code": "98915"
  },
  {
    "id": 23548,
    "name": "MELELA",
    "zip_code": "98915"
  },
  {
    "id": 23549,
    "name": "MENGGEGENIKIME",
    "zip_code": "98915"
  },
  {
    "id": 23550,
    "name": "MILINERI",
    "zip_code": "98915"
  },
  {
    "id": 23551,
    "name": "MONDU",
    "zip_code": "98915"
  },
  {
    "id": 23552,
    "name": "NOBA NOBA",
    "zip_code": "98915"
  },
  {
    "id": 23553,
    "name": "NOGI",
    "zip_code": "98915"
  },
  {
    "id": 23554,
    "name": "TIMORAMO",
    "zip_code": "98915"
  },
  {
    "id": 23555,
    "name": "TINGGIREGE",
    "zip_code": "98915"
  },
  {
    "id": 23556,
    "name": "WUNGGANI",
    "zip_code": "98915"
  }
]