[
  {
    "id": 15847,
    "name": "ALUS ALUS",
    "zip_code": "23891"
  },
  {
    "id": 15848,
    "name": "ANA AO",
    "zip_code": "23891"
  },
  {
    "id": 15849,
    "name": "BADEGONG",
    "zip_code": "23891"
  },
  {
    "id": 15850,
    "name": "BATU RALANG",
    "zip_code": "23891"
  },
  {
    "id": 15851,
    "name": "BLANG SEBEL",
    "zip_code": "23891"
  },
  {
    "id": 15852,
    "name": "KEBUN BARU",
    "zip_code": "23891"
  },
  {
    "id": 15853,
    "name": "LABUHAN BAJAU",
    "zip_code": "23891"
  },
  {
    "id": 15854,
    "name": "LABUHAN BAKTI",
    "zip_code": "23891"
  },
  {
    "id": 15855,
    "name": "LABUHAN JAYA",
    "zip_code": "23891"
  },
  {
    "id": 15856,
    "name": "LATALING",
    "zip_code": "23891"
  },
  {
    "id": 15857,
    "name": "LATIUNG",
    "zip_code": "23891"
  },
  {
    "id": 15858,
    "name": "PASIR TINGGI",
    "zip_code": "23891"
  },
  {
    "id": 15859,
    "name": "PULAU BENGKALAK",
    "zip_code": "23891"
  },
  {
    "id": 15860,
    "name": "SEUNEUBOK",
    "zip_code": "23891"
  },
  {
    "id": 15861,
    "name": "SUAK LAMATAN",
    "zip_code": "23891"
  },
  {
    "id": 15862,
    "name": "TRANS BARU",
    "zip_code": "23891"
  },
  {
    "id": 15863,
    "name": "TRANS JERNGE",
    "zip_code": "23891"
  },
  {
    "id": 15864,
    "name": "TRANS MARANTI",
    "zip_code": "23891"
  },
  {
    "id": 15865,
    "name": "ULUL MAYANG (MANYANG)",
    "zip_code": "23891"
  }
]