[
  {
    "id": 5216,
    "name": "BOJONGLOA",
    "zip_code": "40394"
  },
  {
    "id": 5217,
    "name": "BOJONGSALAM",
    "zip_code": "40394"
  },
  {
    "id": 5218,
    "name": "CANGKUANG",
    "zip_code": "40394"
  },
  {
    "id": 5219,
    "name": "HAURPUGUR",
    "zip_code": "40394"
  },
  {
    "id": 5220,
    "name": "JELEGONG",
    "zip_code": "40394"
  },
  {
    "id": 5221,
    "name": "LINGGAR",
    "zip_code": "40394"
  },
  {
    "id": 5222,
    "name": "NANJUNGMEKAR",
    "zip_code": "40394"
  },
  {
    "id": 5223,
    "name": "RANCAEKEK KENCANA",
    "zip_code": "40394"
  },
  {
    "id": 5224,
    "name": "RANCAEKEK KULON",
    "zip_code": "40394"
  },
  {
    "id": 5225,
    "name": "RANCAEKEK WETAN",
    "zip_code": "40394"
  },
  {
    "id": 5226,
    "name": "SANGIANG",
    "zip_code": "40394"
  },
  {
    "id": 5227,
    "name": "SUKAMANAH",
    "zip_code": "40394"
  },
  {
    "id": 5228,
    "name": "SUKAMULYA",
    "zip_code": "40394"
  },
  {
    "id": 5229,
    "name": "TEGAL SUMEDANG",
    "zip_code": "40394"
  }
]