[
  {
    "id": 63754,
    "name": "AIBOBOR",
    "zip_code": "98454"
  },
  {
    "id": 63755,
    "name": "ANI SESNA",
    "zip_code": "98454"
  },
  {
    "id": 63756,
    "name": "GOROLO",
    "zip_code": "98454"
  },
  {
    "id": 63757,
    "name": "KAIBUS",
    "zip_code": "98454"
  },
  {
    "id": 63758,
    "name": "KEYEN",
    "zip_code": "98454"
  },
  {
    "id": 63759,
    "name": "KOHOIN",
    "zip_code": "98454"
  },
  {
    "id": 63760,
    "name": "MAGIS",
    "zip_code": "98454"
  },
  {
    "id": 63761,
    "name": "NAMBRO",
    "zip_code": "98454"
  },
  {
    "id": 63762,
    "name": "SEYOLO",
    "zip_code": "98454"
  },
  {
    "id": 63763,
    "name": "SIRIBAU",
    "zip_code": "98454"
  },
  {
    "id": 63764,
    "name": "TAPIRI",
    "zip_code": "98454"
  },
  {
    "id": 63765,
    "name": "TEGIROLO",
    "zip_code": "98454"
  },
  {
    "id": 63766,
    "name": "WEHALI",
    "zip_code": "98454"
  },
  {
    "id": 63767,
    "name": "WERMIT",
    "zip_code": "98454"
  },
  {
    "id": 63768,
    "name": "WERNAS",
    "zip_code": "98454"
  },
  {
    "id": 63769,
    "name": "WERSAR",
    "zip_code": "98454"
  }
]