[
  {
    "id": 5286,
    "name": "CIBEUREUM KULON",
    "zip_code": "45353"
  },
  {
    "id": 5287,
    "name": "CIBEUREUM WETAN",
    "zip_code": "45353"
  },
  {
    "id": 5288,
    "name": "CIKOLE",
    "zip_code": "45353"
  },
  {
    "id": 5289,
    "name": "CIMALAKA",
    "zip_code": "45353"
  },
  {
    "id": 5290,
    "name": "CIMUJA",
    "zip_code": "45353"
  },
  {
    "id": 5291,
    "name": "CITIMUN",
    "zip_code": "45353"
  },
  {
    "id": 5292,
    "name": "GALUDRA",
    "zip_code": "45353"
  },
  {
    "id": 5293,
    "name": "LICIN",
    "zip_code": "45353"
  },
  {
    "id": 5294,
    "name": "MANDALAHERANG",
    "zip_code": "45353"
  },
  {
    "id": 5295,
    "name": "NALUK",
    "zip_code": "45353"
  },
  {
    "id": 5296,
    "name": "NYALINDUNG",
    "zip_code": "45353"
  },
  {
    "id": 5297,
    "name": "PADASARI",
    "zip_code": "45353"
  },
  {
    "id": 5298,
    "name": "SERANG",
    "zip_code": "45353"
  },
  {
    "id": 5299,
    "name": "TRUNAMANGGALA",
    "zip_code": "45353"
  }
]