[
  {
    "id": 13377,
    "name": "ALUE CANTEK",
    "zip_code": "24472"
  },
  {
    "id": 13378,
    "name": "BALAI",
    "zip_code": "24472"
  },
  {
    "id": 13379,
    "name": "BANDAR BARU",
    "zip_code": "24472"
  },
  {
    "id": 13380,
    "name": "BANDAR KHALIFAH",
    "zip_code": "24472"
  },
  {
    "id": 13381,
    "name": "CINTA RAJA",
    "zip_code": "24472"
  },
  {
    "id": 13382,
    "name": "KUALA GENTING",
    "zip_code": "24472"
  },
  {
    "id": 13383,
    "name": "KUALA PENAGA",
    "zip_code": "24472"
  },
  {
    "id": 13384,
    "name": "LAMBUNG BLANG",
    "zip_code": "24472"
  },
  {
    "id": 13385,
    "name": "LUBOK BATHIL",
    "zip_code": "24472"
  },
  {
    "id": 13386,
    "name": "MARLEMPANG",
    "zip_code": "24472"
  },
  {
    "id": 13387,
    "name": "MATANG TEUPAH",
    "zip_code": "24472"
  },
  {
    "id": 13388,
    "name": "MESJID BENDAHARA",
    "zip_code": "24472"
  },
  {
    "id": 13389,
    "name": "MESJID SUNGAI IYU",
    "zip_code": "24472"
  },
  {
    "id": 13390,
    "name": "PERKEBUNAN SUNGAI IYU",
    "zip_code": "24472"
  },
  {
    "id": 13391,
    "name": "PERKEBUNAN UPAH",
    "zip_code": "24472"
  },
  {
    "id": 13392,
    "name": "RAJA",
    "zip_code": "24472"
  },
  {
    "id": 13393,
    "name": "RANTAU PAKAM",
    "zip_code": "24472"
  },
  {
    "id": 13394,
    "name": "SEUNEUBOK ACEH",
    "zip_code": "24472"
  },
  {
    "id": 13395,
    "name": "SEUNEUBOK DALAM MESJID",
    "zip_code": "24472"
  },
  {
    "id": 13396,
    "name": "SEUNEUBOK DALAM UPAH",
    "zip_code": "24472"
  },
  {
    "id": 13397,
    "name": "SUKA MULIA BENDAHARA",
    "zip_code": "24472"
  },
  {
    "id": 13398,
    "name": "TANJONG",
    "zip_code": "24472"
  },
  {
    "id": 13399,
    "name": "TANJONG BINJEI",
    "zip_code": "24472"
  },
  {
    "id": 13400,
    "name": "TANJONG LIPAT I",
    "zip_code": "24472"
  },
  {
    "id": 13401,
    "name": "TANJONG LIPAT II",
    "zip_code": "24472"
  },
  {
    "id": 13402,
    "name": "TANJONG MULIA",
    "zip_code": "24472"
  },
  {
    "id": 13403,
    "name": "TANJONG PARIT",
    "zip_code": "24472"
  },
  {
    "id": 13404,
    "name": "TELUK HALBAN",
    "zip_code": "24472"
  },
  {
    "id": 13405,
    "name": "TELUK KEMIRI",
    "zip_code": "24472"
  },
  {
    "id": 13406,
    "name": "TELUK KEPAYANG",
    "zip_code": "24472"
  },
  {
    "id": 13407,
    "name": "TENGKU TINGGI",
    "zip_code": "24472"
  },
  {
    "id": 13408,
    "name": "TUMPOK TEUNGOH",
    "zip_code": "24472"
  },
  {
    "id": 13409,
    "name": "UPAH",
    "zip_code": "24472"
  }
]