[
  {
    "id": 48721,
    "name": "BALAI NAN DUO",
    "zip_code": "26224"
  },
  {
    "id": 48722,
    "name": "BULAKAN BALAI KANDIH",
    "zip_code": "26225"
  },
  {
    "id": 48723,
    "name": "DAYA BANGUN",
    "zip_code": "26221"
  },
  {
    "id": 48724,
    "name": "IBUH",
    "zip_code": "26229"
  },
  {
    "id": 48725,
    "name": "KOTO TANGAH",
    "zip_code": "26223"
  },
  {
    "id": 48726,
    "name": "KUBU GADANG",
    "zip_code": "26226"
  },
  {
    "id": 48727,
    "name": "LABUH/LABUAH BASILANG",
    "zip_code": "26229"
  },
  {
    "id": 48728,
    "name": "NUNANG",
    "zip_code": "26221"
  },
  {
    "id": 48729,
    "name": "PADANG DATAR",
    "zip_code": "26223"
  },
  {
    "id": 48730,
    "name": "PADANG TANGAH",
    "zip_code": "26224"
  },
  {
    "id": 48731,
    "name": "PADANG TINGGI",
    "zip_code": "26224"
  },
  {
    "id": 48732,
    "name": "PAKAN SINAYAN",
    "zip_code": "26226"
  },
  {
    "id": 48733,
    "name": "PARAK BATUNG (BETUNG/BATUANG)",
    "zip_code": "26222"
  },
  {
    "id": 48734,
    "name": "PARIK/PARIT RANTANG",
    "zip_code": "26222"
  },
  {
    "id": 48735,
    "name": "PAYOLANSEK",
    "zip_code": "26225"
  },
  {
    "id": 48736,
    "name": "PILIANG",
    "zip_code": "26224"
  },
  {
    "id": 48737,
    "name": "SEI/SUNGAI PANAGO/PINAGO",
    "zip_code": "26224"
  },
  {
    "id": 48738,
    "name": "SUBARANG BATUNG (BETUNG/BATUANG)",
    "zip_code": "26223"
  },
  {
    "id": 48739,
    "name": "TALANG",
    "zip_code": "26225"
  },
  {
    "id": 48740,
    "name": "TANAH MATI",
    "zip_code": "26223"
  },
  {
    "id": 48741,
    "name": "TANJUNG PAUH/TANJUANG PAUAH",
    "zip_code": "26229"
  },
  {
    "id": 48742,
    "name": "TANJUNG/TANJUANG GADANG",
    "zip_code": "26225"
  }
]