[
  {
    "id": 68802,
    "name": "BADAKARYA",
    "zip_code": "53462"
  },
  {
    "id": 68803,
    "name": "BONDOLHARJO",
    "zip_code": "53462"
  },
  {
    "id": 68804,
    "name": "DANAKERTA",
    "zip_code": "53462"
  },
  {
    "id": 68805,
    "name": "JEMBANGAN",
    "zip_code": "53462"
  },
  {
    "id": 68806,
    "name": "KARANGSARI",
    "zip_code": "53462"
  },
  {
    "id": 68807,
    "name": "KECEPIT",
    "zip_code": "53462"
  },
  {
    "id": 68808,
    "name": "KLAPA",
    "zip_code": "53462"
  },
  {
    "id": 68809,
    "name": "MLAYA",
    "zip_code": "53462"
  },
  {
    "id": 68810,
    "name": "PETUGURAN",
    "zip_code": "53462"
  },
  {
    "id": 68811,
    "name": "PUNGGELAN",
    "zip_code": "53462"
  },
  {
    "id": 68812,
    "name": "PURWASANA",
    "zip_code": "53462"
  },
  {
    "id": 68813,
    "name": "SAMBONG",
    "zip_code": "53462"
  },
  {
    "id": 68814,
    "name": "SAWANGAN",
    "zip_code": "53462"
  },
  {
    "id": 68815,
    "name": "SIDARATA",
    "zip_code": "53462"
  },
  {
    "id": 68816,
    "name": "TANJUNGTIRTA",
    "zip_code": "53462"
  },
  {
    "id": 68817,
    "name": "TLAGA",
    "zip_code": "53462"
  },
  {
    "id": 68818,
    "name": "TRIBUANA",
    "zip_code": "53462"
  }
]