[
  {
    "id": 6915,
    "name": "AIR PUTIH",
    "zip_code": "38385"
  },
  {
    "id": 6916,
    "name": "AIR SEBAKUL",
    "zip_code": "38385"
  },
  {
    "id": 6917,
    "name": "BUKIT",
    "zip_code": "38385"
  },
  {
    "id": 6918,
    "name": "JAYA KARTA",
    "zip_code": "38385"
  },
  {
    "id": 6919,
    "name": "JUM'AT (JUMAT)",
    "zip_code": "38385"
  },
  {
    "id": 6920,
    "name": "KEMBANG SERI",
    "zip_code": "38385"
  },
  {
    "id": 6921,
    "name": "LAGAN",
    "zip_code": "38385"
  },
  {
    "id": 6922,
    "name": "LAGAN BUNGIN",
    "zip_code": "38385"
  },
  {
    "id": 6923,
    "name": "NAKAU",
    "zip_code": "38385"
  },
  {
    "id": 6924,
    "name": "PADANG ULAKTANJUNG",
    "zip_code": "38385"
  },
  {
    "id": 6925,
    "name": "PAGAR JATI",
    "zip_code": "38385"
  },
  {
    "id": 6926,
    "name": "PULAU PANGGUNG",
    "zip_code": "38385"
  },
  {
    "id": 6927,
    "name": "TABA LAGAN",
    "zip_code": "38385"
  },
  {
    "id": 6928,
    "name": "TABA PASEMA (PASMAH)",
    "zip_code": "38385"
  },
  {
    "id": 6929,
    "name": "TENGAH PADANG",
    "zip_code": "38385"
  }
]