[
  {
    "id": 52053,
    "name": "AYAWAN",
    "zip_code": "74281"
  },
  {
    "id": 52054,
    "name": "BATU AGUNG",
    "zip_code": "74281"
  },
  {
    "id": 52055,
    "name": "BUKIT BULUH/BULUK",
    "zip_code": "74281"
  },
  {
    "id": 52056,
    "name": "BUMI JAYA (BUMI AYU)",
    "zip_code": "74281"
  },
  {
    "id": 52057,
    "name": "DURIAN TUNGGAL",
    "zip_code": "74281"
  },
  {
    "id": 52058,
    "name": "GANTUNG PENGAYUH",
    "zip_code": "74281"
  },
  {
    "id": 52059,
    "name": "MUGI PANYAHU (MUGIE PANYUHU)",
    "zip_code": "74281"
  },
  {
    "id": 52060,
    "name": "PANCA JAYA",
    "zip_code": "74281"
  },
  {
    "id": 52061,
    "name": "PANGKE",
    "zip_code": "74281"
  },
  {
    "id": 52062,
    "name": "PENYUMPA",
    "zip_code": "74281"
  },
  {
    "id": 52063,
    "name": "RANTAU PULUT",
    "zip_code": "74281"
  },
  {
    "id": 52064,
    "name": "RINGIN AGUNG",
    "zip_code": "74281"
  },
  {
    "id": 52065,
    "name": "SUKA JAYA (SUKA AYU)",
    "zip_code": "74281"
  },
  {
    "id": 52066,
    "name": "SUKA MAJU",
    "zip_code": "74281"
  },
  {
    "id": 52067,
    "name": "SUKA MAKMUR",
    "zip_code": "74281"
  },
  {
    "id": 52068,
    "name": "SUKA MANDANG",
    "zip_code": "74281"
  },
  {
    "id": 52069,
    "name": "SUKOREJO (SUKU REJO)",
    "zip_code": "74281"
  },
  {
    "id": 52070,
    "name": "TANGGA BATU",
    "zip_code": "74281"
  },
  {
    "id": 52071,
    "name": "TELUK BAYUR",
    "zip_code": "74281"
  },
  {
    "id": 52072,
    "name": "TUMBANG BAI/BEI",
    "zip_code": "74281"
  }
]