[
  {
    "id": 54993,
    "name": "KELAMPAIAN",
    "zip_code": "30866"
  },
  {
    "id": 54994,
    "name": "KERTABAYANG",
    "zip_code": "30866"
  },
  {
    "id": 54995,
    "name": "LEBUNG BANDUNG",
    "zip_code": "30866"
  },
  {
    "id": 54996,
    "name": "MEKAR SARI",
    "zip_code": "30866"
  },
  {
    "id": 54997,
    "name": "RANTAU ALAI",
    "zip_code": "30866"
  },
  {
    "id": 54998,
    "name": "SANDING MARGA",
    "zip_code": "30866"
  },
  {
    "id": 54999,
    "name": "SIRAH PULAU KILIP",
    "zip_code": "30866"
  },
  {
    "id": 55000,
    "name": "SUKA MAJU (SUKAMUJU)",
    "zip_code": "30866"
  },
  {
    "id": 55001,
    "name": "SUKAMARGA",
    "zip_code": "30866"
  },
  {
    "id": 55002,
    "name": "SUKANANTI",
    "zip_code": "30866"
  },
  {
    "id": 55003,
    "name": "SUKANANTI BARU",
    "zip_code": "30866"
  },
  {
    "id": 55004,
    "name": "TALANG SARI",
    "zip_code": "30866"
  },
  {
    "id": 55005,
    "name": "TANJUNG MAS",
    "zip_code": "30866"
  }
]