[
  {
    "id": 76512,
    "name": "GUNUNG AGUNG",
    "zip_code": "34683"
  },
  {
    "id": 76513,
    "name": "GUNUNG TERANG",
    "zip_code": "34683"
  },
  {
    "id": 76514,
    "name": "KAGUNGAN JAYA",
    "zip_code": "34683"
  },
  {
    "id": 76515,
    "name": "MARGA SARI",
    "zip_code": "34683"
  },
  {
    "id": 76516,
    "name": "MARGO DADI",
    "zip_code": "34683"
  },
  {
    "id": 76517,
    "name": "MARGO MULYA",
    "zip_code": "34683"
  },
  {
    "id": 76518,
    "name": "MULYO JADI",
    "zip_code": "34683"
  },
  {
    "id": 76519,
    "name": "MULYO SARI",
    "zip_code": "34683"
  },
  {
    "id": 76520,
    "name": "PANCA MARGA",
    "zip_code": "34683"
  },
  {
    "id": 76521,
    "name": "SAKTI JAYA",
    "zip_code": "34683"
  },
  {
    "id": 76522,
    "name": "SETIA AGUNG",
    "zip_code": "34683"
  },
  {
    "id": 76523,
    "name": "SETIA BUMI",
    "zip_code": "34683"
  },
  {
    "id": 76524,
    "name": "SIDO MAKMUR",
    "zip_code": "34683"
  },
  {
    "id": 76525,
    "name": "TERANG BUMI AGUNG",
    "zip_code": "34683"
  },
  {
    "id": 76526,
    "name": "TERANG MAKMUR",
    "zip_code": "34683"
  },
  {
    "id": 76527,
    "name": "TERANG MULYA",
    "zip_code": "34683"
  },
  {
    "id": 76528,
    "name": "TOTO KATON",
    "zip_code": "34683"
  },
  {
    "id": 76529,
    "name": "TOTO MAKMUR",
    "zip_code": "34683"
  },
  {
    "id": 76530,
    "name": "TOTO MULYO",
    "zip_code": "34683"
  },
  {
    "id": 76531,
    "name": "TOTO WONO DADI",
    "zip_code": "34683"
  }
]