[
  {
    "id": 33433,
    "name": "ABENGGI",
    "zip_code": "93873"
  },
  {
    "id": 33434,
    "name": "AMOTOWO",
    "zip_code": "93873"
  },
  {
    "id": 33435,
    "name": "ARONGO",
    "zip_code": "93873"
  },
  {
    "id": 33436,
    "name": "ASARIA",
    "zip_code": "93873"
  },
  {
    "id": 33437,
    "name": "ENDANGA",
    "zip_code": "93873"
  },
  {
    "id": 33438,
    "name": "KORONUA",
    "zip_code": "93873"
  },
  {
    "id": 33439,
    "name": "LAKOMEA",
    "zip_code": "93873"
  },
  {
    "id": 33440,
    "name": "LALONGGAPU",
    "zip_code": "93873"
  },
  {
    "id": 33441,
    "name": "LANDONO",
    "zip_code": "93873"
  },
  {
    "id": 33442,
    "name": "LANDONO DUA",
    "zip_code": "93873"
  },
  {
    "id": 33443,
    "name": "MATABENUA / WATAWUNUA",
    "zip_code": "93873"
  },
  {
    "id": 33444,
    "name": "MORINI MULYA",
    "zip_code": "93873"
  },
  {
    "id": 33445,
    "name": "SABULAKOA",
    "zip_code": "93873"
  },
  {
    "id": 33446,
    "name": "TALUMBINGA",
    "zip_code": "93873"
  },
  {
    "id": 33447,
    "name": "TETENGGABO",
    "zip_code": "93873"
  },
  {
    "id": 33448,
    "name": "TRIDANA MULIA",
    "zip_code": "93873"
  },
  {
    "id": 33449,
    "name": "ULUSABULAKOA",
    "zip_code": "93873"
  },
  {
    "id": 33450,
    "name": "WATU-WATU",
    "zip_code": "93873"
  },
  {
    "id": 33451,
    "name": "WAWOBENDE",
    "zip_code": "93873"
  },
  {
    "id": 33452,
    "name": "WONUA SANGIA",
    "zip_code": "93873"
  },
  {
    "id": 33453,
    "name": "WONUKAO",
    "zip_code": "93873"
  }
]