[
  {
    "id": 52528,
    "name": "BAHAUR BASANTAN",
    "zip_code": "74872"
  },
  {
    "id": 52529,
    "name": "BAHAUR BATU RAYA",
    "zip_code": "74872"
  },
  {
    "id": 52530,
    "name": "BAHAUR HILIR",
    "zip_code": "74872"
  },
  {
    "id": 52531,
    "name": "BAHAUR HULU",
    "zip_code": "74872"
  },
  {
    "id": 52532,
    "name": "BAHAUR HULU PERMAI",
    "zip_code": "74872"
  },
  {
    "id": 52533,
    "name": "BAHAUR TENGAH",
    "zip_code": "74872"
  },
  {
    "id": 52534,
    "name": "CAMATAN (CEMATAN)",
    "zip_code": "74872"
  },
  {
    "id": 52535,
    "name": "KIAPAK",
    "zip_code": "74872"
  },
  {
    "id": 52536,
    "name": "SEI/SUNGAI BARUNAI (PAPUYU II)",
    "zip_code": "74872"
  },
  {
    "id": 52537,
    "name": "SEI/SUNGAI PASANAN (PAPUYU I)",
    "zip_code": "74872"
  },
  {
    "id": 52538,
    "name": "SEI/SUNGAI PUDAK (PAPUYU III)",
    "zip_code": "74872"
  },
  {
    "id": 52539,
    "name": "SEI/SUNGAI RUNGUN",
    "zip_code": "74872"
  },
  {
    "id": 52540,
    "name": "TANJUNG PERAWAN",
    "zip_code": "74872"
  }
]