[
  {
    "id": 66780,
    "name": "BANGUNREJO",
    "zip_code": "51351"
  },
  {
    "id": 66781,
    "name": "BANGUNSARI",
    "zip_code": "51351"
  },
  {
    "id": 66782,
    "name": "BULUGEDE",
    "zip_code": "51351"
  },
  {
    "id": 66783,
    "name": "DONOSARI",
    "zip_code": "51351"
  },
  {
    "id": 66784,
    "name": "JAMBEARUM",
    "zip_code": "51351"
  },
  {
    "id": 66785,
    "name": "KARTIKAJAYA",
    "zip_code": "51351"
  },
  {
    "id": 66786,
    "name": "KEBONHARJO",
    "zip_code": "51351"
  },
  {
    "id": 66787,
    "name": "KUMPULREJO",
    "zip_code": "51351"
  },
  {
    "id": 66788,
    "name": "LANJI",
    "zip_code": "51351"
  },
  {
    "id": 66789,
    "name": "MAGERSARI",
    "zip_code": "51351"
  },
  {
    "id": 66790,
    "name": "MARGOSARI",
    "zip_code": "51351"
  },
  {
    "id": 66791,
    "name": "PIDODO KULON (WIDODO KULON)",
    "zip_code": "51351"
  },
  {
    "id": 66792,
    "name": "PIDODO WETAN (WIDODO WETAN)",
    "zip_code": "51351"
  },
  {
    "id": 66793,
    "name": "PURWOKERTO",
    "zip_code": "51351"
  },
  {
    "id": 66794,
    "name": "PURWOSARI",
    "zip_code": "51351"
  },
  {
    "id": 66795,
    "name": "SUKOLILAN",
    "zip_code": "51351"
  },
  {
    "id": 66796,
    "name": "TAMBAKREJO",
    "zip_code": "51351"
  },
  {
    "id": 66797,
    "name": "WONOSARI",
    "zip_code": "51351"
  }
]