[
  {
    "id": 80198,
    "name": "BAMBAMANURUNG",
    "zip_code": "91563"
  },
  {
    "id": 80199,
    "name": "BUDONG-BUDONG",
    "zip_code": "91563"
  },
  {
    "id": 80200,
    "name": "KABUBU",
    "zip_code": "91563"
  },
  {
    "id": 80201,
    "name": "PANGALLOANG",
    "zip_code": "91563"
  },
  {
    "id": 80202,
    "name": "PARAILI",
    "zip_code": "91563"
  },
  {
    "id": 80203,
    "name": "SALULEBO",
    "zip_code": "91563"
  },
  {
    "id": 80204,
    "name": "SALUPANGKANG",
    "zip_code": "91563"
  },
  {
    "id": 80205,
    "name": "SALUPANGKANG IV",
    "zip_code": "91563"
  },
  {
    "id": 80206,
    "name": "SINABATTA",
    "zip_code": "91563"
  },
  {
    "id": 80207,
    "name": "TABOLANG",
    "zip_code": "91563"
  },
  {
    "id": 80208,
    "name": "TANGKAU",
    "zip_code": "91563"
  },
  {
    "id": 80209,
    "name": "TAPPILINA",
    "zip_code": "91563"
  },
  {
    "id": 80210,
    "name": "TOPOYO",
    "zip_code": "91563"
  },
  {
    "id": 80211,
    "name": "TUMBU",
    "zip_code": "91563"
  },
  {
    "id": 80212,
    "name": "WAE PUTEH",
    "zip_code": "91563"
  }
]