[
  {
    "id": 73367,
    "name": "BITUNG JAYA",
    "zip_code": "15710"
  },
  {
    "id": 73368,
    "name": "BOJONG",
    "zip_code": "15710"
  },
  {
    "id": 73369,
    "name": "BUDI MULYA",
    "zip_code": "15710"
  },
  {
    "id": 73370,
    "name": "BUNDER",
    "zip_code": "15710"
  },
  {
    "id": 73371,
    "name": "CIBADAK",
    "zip_code": "15710"
  },
  {
    "id": 73372,
    "name": "CIKUPA",
    "zip_code": "15710"
  },
  {
    "id": 73373,
    "name": "DUKUH",
    "zip_code": "15710"
  },
  {
    "id": 73374,
    "name": "PASIR GADUNG",
    "zip_code": "15710"
  },
  {
    "id": 73375,
    "name": "PASIR JAYA",
    "zip_code": "15710"
  },
  {
    "id": 73376,
    "name": "SUKA DAMAI",
    "zip_code": "15710"
  },
  {
    "id": 73377,
    "name": "SUKA MULYA",
    "zip_code": "15710"
  },
  {
    "id": 73378,
    "name": "SUKA NAGARA",
    "zip_code": "15710"
  },
  {
    "id": 73379,
    "name": "TALAGA",
    "zip_code": "15710"
  },
  {
    "id": 73380,
    "name": "TALAGA SARI",
    "zip_code": "15710"
  }
]