[
  {
    "id": 33403,
    "name": "ALEBO",
    "zip_code": "93874"
  },
  {
    "id": 33404,
    "name": "AMBOLOLI",
    "zip_code": "93874"
  },
  {
    "id": 33405,
    "name": "AMOHALO",
    "zip_code": "93874"
  },
  {
    "id": 33406,
    "name": "AONUPE",
    "zip_code": "93874"
  },
  {
    "id": 33407,
    "name": "CIALAM JAYA",
    "zip_code": "93874"
  },
  {
    "id": 33408,
    "name": "KONDA",
    "zip_code": "93874"
  },
  {
    "id": 33409,
    "name": "LALOWIU",
    "zip_code": "93874"
  },
  {
    "id": 33410,
    "name": "LAMBUSA",
    "zip_code": "93874"
  },
  {
    "id": 33411,
    "name": "LAMOMEA",
    "zip_code": "93874"
  },
  {
    "id": 33412,
    "name": "LAWOILA",
    "zip_code": "93874"
  },
  {
    "id": 33413,
    "name": "LEBO JAYA",
    "zip_code": "93874"
  },
  {
    "id": 33414,
    "name": "MASAGENA",
    "zip_code": "93874"
  },
  {
    "id": 33415,
    "name": "MOROME (MORAME)",
    "zip_code": "93874"
  },
  {
    "id": 33416,
    "name": "PAMBULAA JAYA",
    "zip_code": "93874"
  },
  {
    "id": 33417,
    "name": "PUOSU JAYA",
    "zip_code": "93874"
  },
  {
    "id": 33418,
    "name": "RANOWILA",
    "zip_code": "93874"
  },
  {
    "id": 33419,
    "name": "TANEA",
    "zip_code": "93874"
  },
  {
    "id": 33420,
    "name": "WONUA",
    "zip_code": "93874"
  }
]