[
  {
    "id": 61682,
    "name": "BANYUANYAR",
    "zip_code": "57352"
  },
  {
    "id": 61683,
    "name": "CANDI",
    "zip_code": "57352"
  },
  {
    "id": 61684,
    "name": "CANDISARI",
    "zip_code": "57352"
  },
  {
    "id": 61685,
    "name": "GLADAGSARI",
    "zip_code": "57352"
  },
  {
    "id": 61686,
    "name": "GONDANG SLAMET",
    "zip_code": "57352"
  },
  {
    "id": 61687,
    "name": "JLAREM",
    "zip_code": "57352"
  },
  {
    "id": 61688,
    "name": "KALIGENTONG",
    "zip_code": "57352"
  },
  {
    "id": 61689,
    "name": "KEMBANG",
    "zip_code": "57352"
  },
  {
    "id": 61690,
    "name": "NGADIROJO",
    "zip_code": "57352"
  },
  {
    "id": 61691,
    "name": "NGAGRONG",
    "zip_code": "57352"
  },
  {
    "id": 61692,
    "name": "NGAMPON",
    "zip_code": "57352"
  },
  {
    "id": 61693,
    "name": "NGARGOLOKO",
    "zip_code": "57352"
  },
  {
    "id": 61694,
    "name": "NGARGOSARI",
    "zip_code": "57352"
  },
  {
    "id": 61695,
    "name": "NGENDEN",
    "zip_code": "57352"
  },
  {
    "id": 61696,
    "name": "SAMPETAN",
    "zip_code": "57352"
  },
  {
    "id": 61697,
    "name": "SEBOTO",
    "zip_code": "57352"
  },
  {
    "id": 61698,
    "name": "SELODOKO",
    "zip_code": "57352"
  },
  {
    "id": 61699,
    "name": "SIDOMULYO",
    "zip_code": "57316"
  },
  {
    "id": 61700,
    "name": "TANDUK",
    "zip_code": "57352"
  },
  {
    "id": 61701,
    "name": "URUTSEWU",
    "zip_code": "57352"
  }
]