[
  {
    "id": 53113,
    "name": "AIR WALL",
    "zip_code": "32192"
  },
  {
    "id": 53114,
    "name": "BANDAR AGUNG",
    "zip_code": "32192"
  },
  {
    "id": 53115,
    "name": "BANU AYU",
    "zip_code": "32192"
  },
  {
    "id": 53116,
    "name": "BELATUNG",
    "zip_code": "32192"
  },
  {
    "id": 53117,
    "name": "GUNUNG MERAKSA",
    "zip_code": "32192"
  },
  {
    "id": 53118,
    "name": "KARTA MULIA",
    "zip_code": "32192"
  },
  {
    "id": 53119,
    "name": "KURUP",
    "zip_code": "32192"
  },
  {
    "id": 53120,
    "name": "LUBUK BANJAR",
    "zip_code": "32192"
  },
  {
    "id": 53121,
    "name": "LUBUK BATANG BARU",
    "zip_code": "32192"
  },
  {
    "id": 53122,
    "name": "LUBUK BATANG LAMA",
    "zip_code": "32192"
  },
  {
    "id": 53123,
    "name": "LUNGGAIAN",
    "zip_code": "32192"
  },
  {
    "id": 53124,
    "name": "MARKISA",
    "zip_code": "32192"
  },
  {
    "id": 53125,
    "name": "MERBAU",
    "zip_code": "32192"
  },
  {
    "id": 53126,
    "name": "TANJUNG DALAM",
    "zip_code": "32192"
  },
  {
    "id": 53127,
    "name": "TANJUNG MANGGUS",
    "zip_code": "32192"
  },
  {
    "id": 82978,
    "name": "SUMBER BAHAGIA",
    "zip_code": "32192"
  }
]