[
  {
    "id": 26621,
    "name": "BANTIRAN",
    "zip_code": "82163"
  },
  {
    "id": 26622,
    "name": "BATUNGSEL",
    "zip_code": "82163"
  },
  {
    "id": 26623,
    "name": "BELATUNGAN",
    "zip_code": "82163"
  },
  {
    "id": 26624,
    "name": "BELIMBING",
    "zip_code": "82163"
  },
  {
    "id": 26625,
    "name": "JELIJIH PUNGGANG",
    "zip_code": "82163"
  },
  {
    "id": 26626,
    "name": "KARYA SARI",
    "zip_code": "82163"
  },
  {
    "id": 26627,
    "name": "KEBON PADANGAN",
    "zip_code": "82163"
  },
  {
    "id": 26628,
    "name": "MUNDUK TEMU",
    "zip_code": "82163"
  },
  {
    "id": 26629,
    "name": "PADANGAN",
    "zip_code": "82163"
  },
  {
    "id": 26630,
    "name": "PAJAHAN",
    "zip_code": "82163"
  },
  {
    "id": 26631,
    "name": "PUJUNGAN",
    "zip_code": "82163"
  },
  {
    "id": 26632,
    "name": "PUPUAN",
    "zip_code": "82163"
  },
  {
    "id": 26633,
    "name": "SAI",
    "zip_code": "82163"
  },
  {
    "id": 26634,
    "name": "SANDA",
    "zip_code": "82163"
  }
]