[
  {
    "id": 75136,
    "name": "BUMI AYU",
    "zip_code": "34194"
  },
  {
    "id": 75137,
    "name": "BUMI NABUNG UDIK",
    "zip_code": "34194"
  },
  {
    "id": 75138,
    "name": "MATARAM MARGA",
    "zip_code": "34194"
  },
  {
    "id": 75139,
    "name": "MUARA JAYA",
    "zip_code": "34194"
  },
  {
    "id": 75140,
    "name": "NEGARA NABUNG",
    "zip_code": "34194"
  },
  {
    "id": 75141,
    "name": "PAKUAN AJI",
    "zip_code": "34194"
  },
  {
    "id": 75142,
    "name": "PASAR SUKADANA",
    "zip_code": "34194"
  },
  {
    "id": 75143,
    "name": "PUTRA AJI DUA",
    "zip_code": "34194"
  },
  {
    "id": 75144,
    "name": "PUTRA AJI SATU",
    "zip_code": "34194"
  },
  {
    "id": 75145,
    "name": "RAJA BASA BATANGHARI",
    "zip_code": "34194"
  },
  {
    "id": 75146,
    "name": "RANTAU JAYA UDIK I",
    "zip_code": "34194"
  },
  {
    "id": 75147,
    "name": "RANTAU JAYA UDIK II",
    "zip_code": "34194"
  },
  {
    "id": 75148,
    "name": "SUKADANA",
    "zip_code": "34194"
  },
  {
    "id": 75149,
    "name": "SUKADANA ILIR",
    "zip_code": "34194"
  },
  {
    "id": 75150,
    "name": "SUKADANA JAYA",
    "zip_code": "34194"
  },
  {
    "id": 75151,
    "name": "SUKADANA SELATAN",
    "zip_code": "34194"
  },
  {
    "id": 75152,
    "name": "SUKADANA TENGAH",
    "zip_code": "34194"
  },
  {
    "id": 75153,
    "name": "SUKADANA TIMUR",
    "zip_code": "34194"
  },
  {
    "id": 75154,
    "name": "SURABAYA UDIK",
    "zip_code": "34194"
  },
  {
    "id": 75155,
    "name": "TERBANGGI MARGA",
    "zip_code": "34194"
  }
]