[
  {
    "id": 74248,
    "name": "BANDAR DALAM",
    "zip_code": "35353"
  },
  {
    "id": 74249,
    "name": "BANJAR SURI",
    "zip_code": "35353"
  },
  {
    "id": 74250,
    "name": "BUDI DAYA",
    "zip_code": "35353"
  },
  {
    "id": 74251,
    "name": "CAMPANG TIGA",
    "zip_code": "35353"
  },
  {
    "id": 74252,
    "name": "KOTA DALAM",
    "zip_code": "35353"
  },
  {
    "id": 74253,
    "name": "SELERETNO (SELORETNO)",
    "zip_code": "35353"
  },
  {
    "id": 74254,
    "name": "SIDODADI",
    "zip_code": "35353"
  },
  {
    "id": 74255,
    "name": "SIDOMULYO",
    "zip_code": "35353"
  },
  {
    "id": 74256,
    "name": "SIDOREJO",
    "zip_code": "35353"
  },
  {
    "id": 74257,
    "name": "SIDOWALUYO",
    "zip_code": "35353"
  },
  {
    "id": 74258,
    "name": "SIRING JAHA",
    "zip_code": "35353"
  },
  {
    "id": 74259,
    "name": "SUAK",
    "zip_code": "35353"
  },
  {
    "id": 74260,
    "name": "SUKABANJAR",
    "zip_code": "35353"
  },
  {
    "id": 74261,
    "name": "SUKAMAJU",
    "zip_code": "35353"
  },
  {
    "id": 74262,
    "name": "SUKAMARGA",
    "zip_code": "35353"
  },
  {
    "id": 74263,
    "name": "TALANG BARU",
    "zip_code": "35353"
  }
]