[
  {
    "id": 10899,
    "name": "ALUE LEUHOB",
    "zip_code": "24251"
  },
  {
    "id": 10900,
    "name": "ARONGAN",
    "zip_code": "24251"
  },
  {
    "id": 10901,
    "name": "BALEE",
    "zip_code": "24251"
  },
  {
    "id": 10902,
    "name": "BLANG KUTA COH",
    "zip_code": "24251"
  },
  {
    "id": 10903,
    "name": "BLANG KUTA DUA MEUNASAH",
    "zip_code": "24251"
  },
  {
    "id": 10904,
    "name": "BLANG MANE BARAT",
    "zip_code": "24251"
  },
  {
    "id": 10905,
    "name": "BLANG MANE DUA MEUNASAH",
    "zip_code": "24251"
  },
  {
    "id": 10906,
    "name": "BLANG PANYANG",
    "zip_code": "24251"
  },
  {
    "id": 10907,
    "name": "BLANG TAMBUE",
    "zip_code": "24251"
  },
  {
    "id": 10908,
    "name": "BLANG TEUMULEK",
    "zip_code": "24251"
  },
  {
    "id": 10909,
    "name": "CALOK",
    "zip_code": "24251"
  },
  {
    "id": 10910,
    "name": "CEUREUCOK",
    "zip_code": "24251"
  },
  {
    "id": 10911,
    "name": "COT TRIENG",
    "zip_code": "24251"
  },
  {
    "id": 10912,
    "name": "CURE BAROH",
    "zip_code": "24251"
  },
  {
    "id": 10913,
    "name": "CURE TUNONG",
    "zip_code": "24251"
  },
  {
    "id": 10914,
    "name": "GLE MEUNDONG",
    "zip_code": "24251"
  },
  {
    "id": 10915,
    "name": "IE RHOB BABAH LUENG",
    "zip_code": "24251"
  },
  {
    "id": 10916,
    "name": "IE RHOB BARAT",
    "zip_code": "24251"
  },
  {
    "id": 10917,
    "name": "IE RHOB GEULUMPANG/GLUMPANG",
    "zip_code": "24251"
  },
  {
    "id": 10918,
    "name": "IE RHOB TIMUR",
    "zip_code": "24251"
  },
  {
    "id": 10919,
    "name": "JURONG BINJEE",
    "zip_code": "24251"
  },
  {
    "id": 10920,
    "name": "KEUDE TAMBUE",
    "zip_code": "24251"
  },
  {
    "id": 10921,
    "name": "KRUENG MEUSEUGOB",
    "zip_code": "24251"
  },
  {
    "id": 10922,
    "name": "LANCANG",
    "zip_code": "24251"
  },
  {
    "id": 10923,
    "name": "LHOK MANE",
    "zip_code": "24251"
  },
  {
    "id": 10924,
    "name": "LHOK TANOH",
    "zip_code": "24251"
  },
  {
    "id": 10925,
    "name": "MEUNASAH ASAN",
    "zip_code": "24251"
  },
  {
    "id": 10926,
    "name": "MEUNASAH BARAT",
    "zip_code": "24251"
  },
  {
    "id": 10927,
    "name": "MEUNASAH DAYAH",
    "zip_code": "24251"
  },
  {
    "id": 10928,
    "name": "MEUNASAH MAMPLAM",
    "zip_code": "24251"
  },
  {
    "id": 10929,
    "name": "MEUNASAH MESJID",
    "zip_code": "24251"
  },
  {
    "id": 10930,
    "name": "PAKU",
    "zip_code": "24251"
  },
  {
    "id": 10931,
    "name": "PEUNEULET BAROH",
    "zip_code": "24251"
  },
  {
    "id": 10932,
    "name": "PEUNEULET TUNONG",
    "zip_code": "24251"
  },
  {
    "id": 10933,
    "name": "PULO DAPONG",
    "zip_code": "24251"
  },
  {
    "id": 10934,
    "name": "PULO DRIEN",
    "zip_code": "24251"
  },
  {
    "id": 10935,
    "name": "RHEUM BARAT",
    "zip_code": "24251"
  },
  {
    "id": 10936,
    "name": "RHEUM BAROUH/BAROH",
    "zip_code": "24251"
  },
  {
    "id": 10937,
    "name": "RHEUM TIMUR",
    "zip_code": "24251"
  },
  {
    "id": 10938,
    "name": "TAMBUE BARAT",
    "zip_code": "24251"
  },
  {
    "id": 10939,
    "name": "ULEE KAREUNG",
    "zip_code": "24251"
  }
]