[
  {
    "id": 68997,
    "name": "BODAS",
    "zip_code": "51163"
  },
  {
    "id": 68998,
    "name": "BOJONGKONENG",
    "zip_code": "51163"
  },
  {
    "id": 68999,
    "name": "BUBAK",
    "zip_code": "51163"
  },
  {
    "id": 69000,
    "name": "GARUNGWIYORO",
    "zip_code": "51163"
  },
  {
    "id": 69001,
    "name": "GEMBONG",
    "zip_code": "51163"
  },
  {
    "id": 69002,
    "name": "KANDANGSERANG",
    "zip_code": "51163"
  },
  {
    "id": 69003,
    "name": "KARANGGONDANG",
    "zip_code": "51163"
  },
  {
    "id": 69004,
    "name": "KLESEM",
    "zip_code": "51163"
  },
  {
    "id": 69005,
    "name": "LAMBUR",
    "zip_code": "51163"
  },
  {
    "id": 69006,
    "name": "LURAGUNG",
    "zip_code": "51163"
  },
  {
    "id": 69007,
    "name": "SUKOHARJO",
    "zip_code": "51163"
  },
  {
    "id": 69008,
    "name": "TAJUR",
    "zip_code": "51163"
  },
  {
    "id": 69009,
    "name": "TRAJUMAS",
    "zip_code": "51163"
  },
  {
    "id": 69010,
    "name": "WANGKELANG",
    "zip_code": "51163"
  }
]