[
  {
    "id": 58334,
    "name": "BUNTUT PIMPIN",
    "zip_code": "78684"
  },
  {
    "id": 58335,
    "name": "BUNTUT PURUN",
    "zip_code": "78684"
  },
  {
    "id": 58336,
    "name": "BUNTUT SABON",
    "zip_code": "78684"
  },
  {
    "id": 58337,
    "name": "KEPALA JUNGAI",
    "zip_code": "78684"
  },
  {
    "id": 58338,
    "name": "NANGA AMBALAU",
    "zip_code": "78684"
  },
  {
    "id": 58339,
    "name": "NANGA KEMANGAI",
    "zip_code": "78684"
  },
  {
    "id": 58340,
    "name": "NANGA KEREMOI",
    "zip_code": "78684"
  },
  {
    "id": 58341,
    "name": "NANGA KESANGE",
    "zip_code": "78684"
  },
  {
    "id": 58342,
    "name": "NANGA MENAKON",
    "zip_code": "78684"
  },
  {
    "id": 58343,
    "name": "NANGA MENANTAK",
    "zip_code": "78684"
  },
  {
    "id": 58344,
    "name": "NANGA SAKAI",
    "zip_code": "78684"
  },
  {
    "id": 58345,
    "name": "NANGA SAKE",
    "zip_code": "78684"
  },
  {
    "id": 58346,
    "name": "TANJUNG ANDAN",
    "zip_code": "78684"
  }
]