[
  {
    "id": 28302,
    "name": "AEK NABARA",
    "zip_code": "22735"
  },
  {
    "id": 28303,
    "name": "LEMBAH LUBUK RAYA",
    "zip_code": "22735"
  },
  {
    "id": 28304,
    "name": "LOBULAYAN SIGORDANG",
    "zip_code": "22735"
  },
  {
    "id": 28305,
    "name": "PANOBASAN",
    "zip_code": "22735"
  },
  {
    "id": 28306,
    "name": "PANOBASAN LOMBANG",
    "zip_code": "22735"
  },
  {
    "id": 28307,
    "name": "PARSALAKAN",
    "zip_code": "22735"
  },
  {
    "id": 28308,
    "name": "SIALOGO",
    "zip_code": "22735"
  },
  {
    "id": 28309,
    "name": "SIBANGKUA",
    "zip_code": "22735"
  },
  {
    "id": 28310,
    "name": "SIGUMURU",
    "zip_code": "22735"
  },
  {
    "id": 28311,
    "name": "SIMATORKIS SISOMA",
    "zip_code": "22735"
  },
  {
    "id": 28312,
    "name": "SISUNDUNG",
    "zip_code": "22735"
  },
  {
    "id": 28313,
    "name": "SITARATOIT",
    "zip_code": "22735"
  },
  {
    "id": 28314,
    "name": "SITINJAK",
    "zip_code": "22735"
  },
  {
    "id": 28315,
    "name": "SIUHOM",
    "zip_code": "22735"
  }
]