[
  {
    "id": 44276,
    "name": "ARGOPENI",
    "zip_code": "54473"
  },
  {
    "id": 44277,
    "name": "ARGOSARI",
    "zip_code": "54473"
  },
  {
    "id": 44278,
    "name": "AYAH",
    "zip_code": "54473"
  },
  {
    "id": 44279,
    "name": "BANJARARJO",
    "zip_code": "54473"
  },
  {
    "id": 44280,
    "name": "BULUREJO",
    "zip_code": "54473"
  },
  {
    "id": 44281,
    "name": "CANDIRENGGO",
    "zip_code": "54473"
  },
  {
    "id": 44282,
    "name": "DEMANGSARI",
    "zip_code": "54473"
  },
  {
    "id": 44283,
    "name": "JATIJAJAR",
    "zip_code": "54473"
  },
  {
    "id": 44284,
    "name": "JINTUNG",
    "zip_code": "54473"
  },
  {
    "id": 44285,
    "name": "KALIBANGKANG",
    "zip_code": "54473"
  },
  {
    "id": 44286,
    "name": "KALIPOH",
    "zip_code": "54473"
  },
  {
    "id": 44287,
    "name": "KARANGDUWUR",
    "zip_code": "54473"
  },
  {
    "id": 44288,
    "name": "KEDUNGWERU",
    "zip_code": "54473"
  },
  {
    "id": 44289,
    "name": "MANGUNWENI",
    "zip_code": "54473"
  },
  {
    "id": 44290,
    "name": "PASIR",
    "zip_code": "54473"
  },
  {
    "id": 44291,
    "name": "SRATI",
    "zip_code": "54473"
  },
  {
    "id": 44292,
    "name": "TLOGOSARI",
    "zip_code": "54473"
  },
  {
    "id": 44293,
    "name": "WATUKELIR",
    "zip_code": "54473"
  }
]