[
  {
    "id": 6728,
    "name": "CURUP (DUSUN CURUP)",
    "zip_code": "38575"
  },
  {
    "id": 6729,
    "name": "DATAR MACANG",
    "zip_code": "38575"
  },
  {
    "id": 6730,
    "name": "GENTING PERANGKAP",
    "zip_code": "38575"
  },
  {
    "id": 6731,
    "name": "KERTAPATI",
    "zip_code": "38575"
  },
  {
    "id": 6732,
    "name": "KOTA AGUNG",
    "zip_code": "38575"
  },
  {
    "id": 6733,
    "name": "LUBUK BALAM",
    "zip_code": "38575"
  },
  {
    "id": 6734,
    "name": "PENYANGKAK",
    "zip_code": "38575"
  },
  {
    "id": 6735,
    "name": "SUNGAI PURA",
    "zip_code": "38575"
  },
  {
    "id": 6736,
    "name": "TALANG BARU GINTING",
    "zip_code": "38575"
  },
  {
    "id": 6737,
    "name": "TALANG GINTING",
    "zip_code": "38575"
  },
  {
    "id": 6738,
    "name": "TALANG LEMBAK",
    "zip_code": "38575"
  },
  {
    "id": 6739,
    "name": "TALANG PUNGGUK",
    "zip_code": "38575"
  },
  {
    "id": 6740,
    "name": "TALANG RENAH",
    "zip_code": "38575"
  },
  {
    "id": 6741,
    "name": "TANJUNG GENTING",
    "zip_code": "38575"
  },
  {
    "id": 6742,
    "name": "TANJUNG KARET",
    "zip_code": "38575"
  }
]