[
  {
    "id": 70732,
    "name": "BAJRASOKAH",
    "zip_code": "69252"
  },
  {
    "id": 70733,
    "name": "BANJAR",
    "zip_code": "69252"
  },
  {
    "id": 70734,
    "name": "BANYUKAPAH",
    "zip_code": "69252"
  },
  {
    "id": 70735,
    "name": "BATOPORO BARAT",
    "zip_code": "69252"
  },
  {
    "id": 70736,
    "name": "BATOPORO TIMUR",
    "zip_code": "69252"
  },
  {
    "id": 70737,
    "name": "DALEMAN",
    "zip_code": "69252"
  },
  {
    "id": 70738,
    "name": "GUNUNG ELEH",
    "zip_code": "69252"
  },
  {
    "id": 70739,
    "name": "KEDUNGDUNG",
    "zip_code": "69252"
  },
  {
    "id": 70740,
    "name": "KOMIS",
    "zip_code": "69252"
  },
  {
    "id": 70741,
    "name": "KRAMAT",
    "zip_code": "69252"
  },
  {
    "id": 70742,
    "name": "MUKTESAREH (MOKTESAREH)",
    "zip_code": "69252"
  },
  {
    "id": 70743,
    "name": "NYELOH",
    "zip_code": "69252"
  },
  {
    "id": 70744,
    "name": "OMBUL",
    "zip_code": "69252"
  },
  {
    "id": 70745,
    "name": "PAJERUAN",
    "zip_code": "69252"
  },
  {
    "id": 70746,
    "name": "PALENGGIYAN (PALENGGIAN)",
    "zip_code": "69252"
  },
  {
    "id": 70747,
    "name": "PASARENAN",
    "zip_code": "69252"
  },
  {
    "id": 70748,
    "name": "RABASAN",
    "zip_code": "69252"
  },
  {
    "id": 70749,
    "name": "ROHAYU",
    "zip_code": "69252"
  }
]