[
  {
    "id": 24965,
    "name": "ESEMA HUSAGE",
    "zip_code": "99571"
  },
  {
    "id": 24966,
    "name": "HAGAWEN",
    "zip_code": "99571"
  },
  {
    "id": 24967,
    "name": "HANOASUOK",
    "zip_code": "99571"
  },
  {
    "id": 24968,
    "name": "HEPIA",
    "zip_code": "99571"
  },
  {
    "id": 24969,
    "name": "HESMAT",
    "zip_code": "99571"
  },
  {
    "id": 24970,
    "name": "LIBUK",
    "zip_code": "99571"
  },
  {
    "id": 24971,
    "name": "LOKON",
    "zip_code": "99571"
  },
  {
    "id": 24972,
    "name": "LUARIMA",
    "zip_code": "99571"
  },
  {
    "id": 24973,
    "name": "NESUWEN",
    "zip_code": "99571"
  },
  {
    "id": 24974,
    "name": "SUESI",
    "zip_code": "99571"
  },
  {
    "id": 24975,
    "name": "WERIAPUT",
    "zip_code": "99571"
  },
  {
    "id": 24976,
    "name": "WERIMA",
    "zip_code": "99571"
  },
  {
    "id": 24977,
    "name": "WESAGALEP",
    "zip_code": "99571"
  },
  {
    "id": 24978,
    "name": "WESAMA",
    "zip_code": "99571"
  }
]