[
  {
    "id": 1756,
    "name": "DURJELA",
    "zip_code": "97662"
  },
  {
    "id": 1757,
    "name": "GALAI DUBU",
    "zip_code": "97662"
  },
  {
    "id": 1758,
    "name": "GORAR",
    "zip_code": "97662"
  },
  {
    "id": 1759,
    "name": "JABULENGA",
    "zip_code": "97662"
  },
  {
    "id": 1760,
    "name": "KARANGGULI",
    "zip_code": "97662"
  },
  {
    "id": 1761,
    "name": "KOBRAUR",
    "zip_code": "97662"
  },
  {
    "id": 1762,
    "name": "LAU-LAU",
    "zip_code": "97662"
  },
  {
    "id": 1763,
    "name": "NAFAR (NAPAR)",
    "zip_code": "97662"
  },
  {
    "id": 1764,
    "name": "SAMANG",
    "zip_code": "97662"
  },
  {
    "id": 1765,
    "name": "SIWALIMA",
    "zip_code": "97662"
  },
  {
    "id": 1766,
    "name": "TUNGU",
    "zip_code": "97662"
  },
  {
    "id": 1767,
    "name": "TUNGUWATU",
    "zip_code": "97662"
  },
  {
    "id": 1768,
    "name": "UJIR",
    "zip_code": "97662"
  },
  {
    "id": 1769,
    "name": "WANGEL",
    "zip_code": "97662"
  },
  {
    "id": 1770,
    "name": "WOKAM",
    "zip_code": "97662"
  }
]