[
  {
    "id": 56121,
    "name": "ARGA KENCANA",
    "zip_code": "94765"
  },
  {
    "id": 56122,
    "name": "ARGO MULYO",
    "zip_code": "94765"
  },
  {
    "id": 56123,
    "name": "BUMI HARJO",
    "zip_code": "94765"
  },
  {
    "id": 56124,
    "name": "KARANG ANYAR",
    "zip_code": "94765"
  },
  {
    "id": 56125,
    "name": "KARYA JAYA",
    "zip_code": "94765"
  },
  {
    "id": 56126,
    "name": "MINAHAKI",
    "zip_code": "94765"
  },
  {
    "id": 56127,
    "name": "MINAKARYA",
    "zip_code": "94765"
  },
  {
    "id": 56128,
    "name": "MOILONG",
    "zip_code": "94765"
  },
  {
    "id": 56129,
    "name": "MULIO HARJO",
    "zip_code": "94765"
  },
  {
    "id": 56130,
    "name": "SALUAN",
    "zip_code": "94765"
  },
  {
    "id": 56131,
    "name": "SELAMET RAHARJO",
    "zip_code": "94765"
  },
  {
    "id": 56132,
    "name": "SIDO MAKMUR",
    "zip_code": "94765"
  },
  {
    "id": 56133,
    "name": "SIDOHARJO",
    "zip_code": "94765"
  },
  {
    "id": 56134,
    "name": "SUMBER HARJO",
    "zip_code": "94765"
  },
  {
    "id": 56135,
    "name": "TOILI",
    "zip_code": "94765"
  },
  {
    "id": 56136,
    "name": "TOU",
    "zip_code": "94765"
  }
]