[
  {
    "id": 14098,
    "name": "ABEUK LEUPON (LEUPEN)",
    "zip_code": "24382"
  },
  {
    "id": 14099,
    "name": "ALUE ABEE",
    "zip_code": "24382"
  },
  {
    "id": 14100,
    "name": "ALUE BUKET",
    "zip_code": "24382"
  },
  {
    "id": 14101,
    "name": "ALUE EUMPOK",
    "zip_code": "24382"
  },
  {
    "id": 14102,
    "name": "ALUE ITAM BAROH",
    "zip_code": "24382"
  },
  {
    "id": 14103,
    "name": "ALUE ITAM REUDEUP",
    "zip_code": "24382"
  },
  {
    "id": 14104,
    "name": "ALUE MEUDEM (MUDEM)",
    "zip_code": "24382"
  },
  {
    "id": 14105,
    "name": "ARA AB (MEUNASAH ARA)",
    "zip_code": "24382"
  },
  {
    "id": 14106,
    "name": "ARONGAN LT",
    "zip_code": "24382"
  },
  {
    "id": 14107,
    "name": "BABAH GEUDUBANG",
    "zip_code": "24382"
  },
  {
    "id": 14108,
    "name": "BEURINGIN LB (MEUNASAH BEURINGEN)",
    "zip_code": "24382"
  },
  {
    "id": 14109,
    "name": "BINTANG HU",
    "zip_code": "24382"
  },
  {
    "id": 14110,
    "name": "BLANG RUBEK",
    "zip_code": "24382"
  },
  {
    "id": 14111,
    "name": "BUKET HAGU",
    "zip_code": "24382"
  },
  {
    "id": 14112,
    "name": "BUKET KRUENG",
    "zip_code": "24382"
  },
  {
    "id": 14113,
    "name": "BUKET MEE LT",
    "zip_code": "24382"
  },
  {
    "id": 14114,
    "name": "BUKET SENTANG",
    "zip_code": "24382"
  },
  {
    "id": 14115,
    "name": "CEUBREK (MEUNASAH CEUBREK)",
    "zip_code": "24382"
  },
  {
    "id": 14116,
    "name": "COT ASAN",
    "zip_code": "24382"
  },
  {
    "id": 14117,
    "name": "COT GEULUMPANG AB",
    "zip_code": "24382"
  },
  {
    "id": 14118,
    "name": "DAYAH LB/LT",
    "zip_code": "24382"
  },
  {
    "id": 14119,
    "name": "GAMPONG BLANG AMAN",
    "zip_code": "24382"
  },
  {
    "id": 14120,
    "name": "GAMPONG COT ARA",
    "zip_code": "24382"
  },
  {
    "id": 14121,
    "name": "GAMPONG MATANG PUPANJI AB",
    "zip_code": "24382"
  },
  {
    "id": 14122,
    "name": "GAMPONG MEUNASAH RANTO",
    "zip_code": "24382"
  },
  {
    "id": 14123,
    "name": "GAMPONG NGA LT",
    "zip_code": "24382"
  },
  {
    "id": 14124,
    "name": "GEULUMPANG",
    "zip_code": "24382"
  },
  {
    "id": 14125,
    "name": "GEUMATA (MEUNASAH GEUMATA)",
    "zip_code": "24382"
  },
  {
    "id": 14126,
    "name": "GRONG GRONG",
    "zip_code": "24382"
  },
  {
    "id": 14127,
    "name": "KEUTAPANG",
    "zip_code": "24382"
  },
  {
    "id": 14128,
    "name": "KOTA LHOKSUKON",
    "zip_code": "24382"
  },
  {
    "id": 14129,
    "name": "KRUENG LT",
    "zip_code": "24382"
  },
  {
    "id": 14130,
    "name": "KUMBANG LT",
    "zip_code": "24382"
  },
  {
    "id": 14131,
    "name": "LHOK KAREUNG",
    "zip_code": "24382"
  },
  {
    "id": 14132,
    "name": "LHOK SENTANG",
    "zip_code": "24382"
  },
  {
    "id": 14133,
    "name": "MANCANG (MEUNASAH MANCANG)",
    "zip_code": "24382"
  },
  {
    "id": 14134,
    "name": "MANYANG (MEUNASAH MANYANG)",
    "zip_code": "24382"
  },
  {
    "id": 14135,
    "name": "MATA IE",
    "zip_code": "24382"
  },
  {
    "id": 14136,
    "name": "MATA U",
    "zip_code": "24382"
  },
  {
    "id": 14137,
    "name": "MATANG MEUNYE",
    "zip_code": "24382"
  },
  {
    "id": 14138,
    "name": "MATANG TEUNGOH AB. (MEUNASAH MATANG TEUNGOH)",
    "zip_code": "24382"
  },
  {
    "id": 14139,
    "name": "MEUCAT",
    "zip_code": "24382"
  },
  {
    "id": 14140,
    "name": "MEUNASAH ALUE DRIEN LB",
    "zip_code": "24382"
  },
  {
    "id": 14141,
    "name": "MEUNASAH ARONGAN AB",
    "zip_code": "24382"
  },
  {
    "id": 14142,
    "name": "MEUNASAH ASAN AB",
    "zip_code": "24382"
  },
  {
    "id": 14143,
    "name": "MEUNASAH ASAN LHOKSUKON BARAT",
    "zip_code": "24382"
  },
  {
    "id": 14144,
    "name": "MEUNASAH BLANG",
    "zip_code": "24382"
  },
  {
    "id": 14145,
    "name": "MEUNASAH BULOH",
    "zip_code": "24382"
  },
  {
    "id": 14146,
    "name": "MEUNASAH COT USIBAK",
    "zip_code": "24382"
  },
  {
    "id": 14147,
    "name": "MEUNASAH DAYAH LT/LB",
    "zip_code": "24382"
  },
  {
    "id": 14148,
    "name": "MEUNASAH GEULINGGANG",
    "zip_code": "24382"
  },
  {
    "id": 14149,
    "name": "MEUNASAH JOK",
    "zip_code": "24382"
  },
  {
    "id": 14150,
    "name": "MEUNASAH LEUBOK AB",
    "zip_code": "24382"
  },
  {
    "id": 14151,
    "name": "MEUNASAH MEURBO (MEUREUBO)",
    "zip_code": "24382"
  },
  {
    "id": 14152,
    "name": "MEUNASAH MEURIA (MEURIYA)",
    "zip_code": "24382"
  },
  {
    "id": 14153,
    "name": "MEUNASAH NGA LHOKSUKON BARAT",
    "zip_code": "24382"
  },
  {
    "id": 14154,
    "name": "MEUNASAH RAYEUK LB",
    "zip_code": "24382"
  },
  {
    "id": 14155,
    "name": "MEUNASAH TEUNGOH LB",
    "zip_code": "24382"
  },
  {
    "id": 14156,
    "name": "MEUNASAH TEUNGOH LT",
    "zip_code": "24382"
  },
  {
    "id": 14157,
    "name": "MEUNASAH TUHA",
    "zip_code": "24382"
  },
  {
    "id": 14158,
    "name": "MEUNASAH TUTONG",
    "zip_code": "24382"
  },
  {
    "id": 14159,
    "name": "MEUYE/MUNYE MATANG UBI",
    "zip_code": "24382"
  },
  {
    "id": 14160,
    "name": "NGA LHOKSUKON TENGAH",
    "zip_code": "24382"
  },
  {
    "id": 14161,
    "name": "NGA MATANG UBI",
    "zip_code": "24382"
  },
  {
    "id": 14162,
    "name": "PANTE",
    "zip_code": "24382"
  },
  {
    "id": 14163,
    "name": "PULO DULANG (MEUNASAH PULO DOLANG)",
    "zip_code": "24382"
  },
  {
    "id": 14164,
    "name": "RAMBOT",
    "zip_code": "24382"
  },
  {
    "id": 14165,
    "name": "RAWA (MEUNASAH RAWA)",
    "zip_code": "24382"
  },
  {
    "id": 14166,
    "name": "SEUNEUBOK DALAM",
    "zip_code": "24382"
  },
  {
    "id": 14167,
    "name": "TEUPIN KEUBEU",
    "zip_code": "24382"
  },
  {
    "id": 14168,
    "name": "TRIENG MATANG UBI",
    "zip_code": "24382"
  },
  {
    "id": 14169,
    "name": "TRIENG PANTANG",
    "zip_code": "24382"
  },
  {
    "id": 14170,
    "name": "TUALANG TUHA",
    "zip_code": "24382"
  },
  {
    "id": 14171,
    "name": "ULEE BARAT (MEUNASAH ULEE BARAT)",
    "zip_code": "24382"
  },
  {
    "id": 14172,
    "name": "ULEE GUNONG",
    "zip_code": "24382"
  },
  {
    "id": 82855,
    "name": "MEUNASAH REUDEUP",
    "zip_code": "24382"
  }
]