[
  {
    "id": 57183,
    "name": "BAHONTULA",
    "zip_code": "94971"
  },
  {
    "id": 57184,
    "name": "BAHOUE",
    "zip_code": "94971"
  },
  {
    "id": 57185,
    "name": "GANDA GANDA",
    "zip_code": "94971"
  },
  {
    "id": 57186,
    "name": "GILILANA",
    "zip_code": "94971"
  },
  {
    "id": 57187,
    "name": "KOLONODALE",
    "zip_code": "94971"
  },
  {
    "id": 57188,
    "name": "KOROLAKI",
    "zip_code": "94971"
  },
  {
    "id": 57189,
    "name": "KOROLOLAMA",
    "zip_code": "94971"
  },
  {
    "id": 57190,
    "name": "KOROMATANTU",
    "zip_code": "94971"
  },
  {
    "id": 57191,
    "name": "KOYA",
    "zip_code": "94971"
  },
  {
    "id": 57192,
    "name": "MARALEE",
    "zip_code": "94971"
  },
  {
    "id": 57193,
    "name": "MOLEONO",
    "zip_code": "94971"
  },
  {
    "id": 57194,
    "name": "MONDOWE",
    "zip_code": "94971"
  },
  {
    "id": 57195,
    "name": "ONEPUTE",
    "zip_code": "94971"
  },
  {
    "id": 57196,
    "name": "SAMPALOWO",
    "zip_code": "94971"
  },
  {
    "id": 57197,
    "name": "TADAKU JAYA",
    "zip_code": "94971"
  },
  {
    "id": 57198,
    "name": "TANAUGE",
    "zip_code": "94971"
  },
  {
    "id": 57199,
    "name": "TIU",
    "zip_code": "94971"
  },
  {
    "id": 57200,
    "name": "TOGOMULYO",
    "zip_code": "94971"
  },
  {
    "id": 57201,
    "name": "TONTOWEA",
    "zip_code": "94971"
  },
  {
    "id": 57202,
    "name": "ULU LAA",
    "zip_code": "94971"
  }
]