[
  {
    "id": 56647,
    "name": "BOKAT",
    "zip_code": "94566"
  },
  {
    "id": 56648,
    "name": "BOKAT IV",
    "zip_code": "94566"
  },
  {
    "id": 56649,
    "name": "BONGO",
    "zip_code": "94566"
  },
  {
    "id": 56650,
    "name": "BUKAMOG",
    "zip_code": "94564"
  },
  {
    "id": 56651,
    "name": "BUTUKAN",
    "zip_code": "94564"
  },
  {
    "id": 56652,
    "name": "DOULAN",
    "zip_code": "94566"
  },
  {
    "id": 56653,
    "name": "DUAMAYO (DUWAMAYO)",
    "zip_code": "94564"
  },
  {
    "id": 56654,
    "name": "KANTANAN",
    "zip_code": "94564"
  },
  {
    "id": 56655,
    "name": "KODOLAGON",
    "zip_code": "94566"
  },
  {
    "id": 56656,
    "name": "LANGUDON",
    "zip_code": "94564"
  },
  {
    "id": 56657,
    "name": "NEGERI LAMA",
    "zip_code": "94564"
  },
  {
    "id": 56658,
    "name": "POONGAN",
    "zip_code": "94566"
  },
  {
    "id": 56659,
    "name": "TANG",
    "zip_code": "94564"
  },
  {
    "id": 56660,
    "name": "TAYADUN",
    "zip_code": "94566"
  },
  {
    "id": 56661,
    "name": "TIKOPO",
    "zip_code": "94564"
  }
]