[
  {
    "id": 63802,
    "name": "AFKREM",
    "zip_code": "98462"
  },
  {
    "id": 63803,
    "name": "AITINYO",
    "zip_code": "98462"
  },
  {
    "id": 63804,
    "name": "BOFAIT",
    "zip_code": "98462"
  },
  {
    "id": 63805,
    "name": "IBASUF",
    "zip_code": "98462"
  },
  {
    "id": 63806,
    "name": "IHORE",
    "zip_code": "98462"
  },
  {
    "id": 63807,
    "name": "IROHMRAR",
    "zip_code": "98462"
  },
  {
    "id": 63808,
    "name": "KAMRO",
    "zip_code": "98462"
  },
  {
    "id": 63809,
    "name": "KAMRO SELATAN",
    "zip_code": "98462"
  },
  {
    "id": 63810,
    "name": "KARSU",
    "zip_code": "98462"
  },
  {
    "id": 63811,
    "name": "KOROM",
    "zip_code": "98462"
  },
  {
    "id": 63812,
    "name": "SIRA AYA",
    "zip_code": "98462"
  },
  {
    "id": 63813,
    "name": "SOWAI SAU",
    "zip_code": "98462"
  },
  {
    "id": 63814,
    "name": "SRIS",
    "zip_code": "98462"
  },
  {
    "id": 63815,
    "name": "SUBIN",
    "zip_code": "98462"
  },
  {
    "id": 63816,
    "name": "SUMANIS",
    "zip_code": "98462"
  },
  {
    "id": 63817,
    "name": "TEHAK KECIL",
    "zip_code": "98462"
  },
  {
    "id": 63818,
    "name": "WIHO",
    "zip_code": "98462"
  }
]