[
  {
    "id": 61733,
    "name": "BAKULAN",
    "zip_code": "57362"
  },
  {
    "id": 61734,
    "name": "CABEAN KUNTI",
    "zip_code": "57362"
  },
  {
    "id": 61735,
    "name": "CANDIGATAK",
    "zip_code": "57362"
  },
  {
    "id": 61736,
    "name": "CEPOGO",
    "zip_code": "57362"
  },
  {
    "id": 61737,
    "name": "GEDANGAN",
    "zip_code": "57362"
  },
  {
    "id": 61738,
    "name": "GENTING",
    "zip_code": "57362"
  },
  {
    "id": 61739,
    "name": "GUBUG",
    "zip_code": "57362"
  },
  {
    "id": 61740,
    "name": "JELOK",
    "zip_code": "57362"
  },
  {
    "id": 61741,
    "name": "JOMBONG",
    "zip_code": "57362"
  },
  {
    "id": 61742,
    "name": "KEMBANG KUNING",
    "zip_code": "57362"
  },
  {
    "id": 61743,
    "name": "MLIWIS",
    "zip_code": "57362"
  },
  {
    "id": 61744,
    "name": "PARAS",
    "zip_code": "57362"
  },
  {
    "id": 61745,
    "name": "SUKABUMI",
    "zip_code": "57362"
  },
  {
    "id": 61746,
    "name": "SUMBUNG",
    "zip_code": "57362"
  },
  {
    "id": 61747,
    "name": "WONODOYO",
    "zip_code": "57362"
  }
]