[
  {
    "id": 12695,
    "name": "ALUR MAS",
    "zip_code": "23771"
  },
  {
    "id": 12696,
    "name": "FAJAR HARAPAN",
    "zip_code": "23771"
  },
  {
    "id": 12697,
    "name": "GUNONG PULO",
    "zip_code": "23771"
  },
  {
    "id": 12698,
    "name": "GUNUNG PUDUNG",
    "zip_code": "23771"
  },
  {
    "id": 12699,
    "name": "JAMBO MANYANG",
    "zip_code": "23771"
  },
  {
    "id": 12700,
    "name": "KAMPUNG PAYA",
    "zip_code": "23771"
  },
  {
    "id": 12701,
    "name": "KAMPUNG RUAK",
    "zip_code": "23771"
  },
  {
    "id": 12702,
    "name": "KAMPUNG TINGGI",
    "zip_code": "23771"
  },
  {
    "id": 12703,
    "name": "KEDAI PADANG",
    "zip_code": "23771"
  },
  {
    "id": 12704,
    "name": "KOTAFAJAR",
    "zip_code": "23771"
  },
  {
    "id": 12705,
    "name": "KRUENG BATEE",
    "zip_code": "23771"
  },
  {
    "id": 12706,
    "name": "KRUENG BATU",
    "zip_code": "23771"
  },
  {
    "id": 12707,
    "name": "KRUENG KLUET",
    "zip_code": "23771"
  },
  {
    "id": 12708,
    "name": "LIMAU PURUT (KOTA FAJAR)",
    "zip_code": "23771"
  },
  {
    "id": 12709,
    "name": "PASI KUALA ASAHAN",
    "zip_code": "23771"
  },
  {
    "id": 12710,
    "name": "PASI KUALA BAU",
    "zip_code": "23771"
  },
  {
    "id": 12711,
    "name": "PULO IE I",
    "zip_code": "23771"
  },
  {
    "id": 12712,
    "name": "PULO KAMBING",
    "zip_code": "23771"
  },
  {
    "id": 12713,
    "name": "SIMPANG EMPAT",
    "zip_code": "23771"
  },
  {
    "id": 12714,
    "name": "SIMPANG LHEE",
    "zip_code": "23771"
  },
  {
    "id": 12715,
    "name": "SUAQ GEURINGGENG (GERINGGENG)",
    "zip_code": "23771"
  }
]