[
  {
    "id": 57972,
    "name": "BALAI PINANG",
    "zip_code": "78854"
  },
  {
    "id": 57973,
    "name": "BALAI PINANG HULU",
    "zip_code": "78854"
  },
  {
    "id": 57974,
    "name": "KENANGA",
    "zip_code": "78854"
  },
  {
    "id": 57975,
    "name": "KUALAN HILIR",
    "zip_code": "78854"
  },
  {
    "id": 57976,
    "name": "KUALAN HULU",
    "zip_code": "78854"
  },
  {
    "id": 57977,
    "name": "KUALAN TENGAH",
    "zip_code": "78854"
  },
  {
    "id": 57978,
    "name": "LABAI HILIR",
    "zip_code": "78854"
  },
  {
    "id": 57979,
    "name": "LEGONG",
    "zip_code": "78854"
  },
  {
    "id": 57980,
    "name": "MERAWA",
    "zip_code": "78854"
  },
  {
    "id": 57981,
    "name": "PAOH CONCONG",
    "zip_code": "78854"
  },
  {
    "id": 57982,
    "name": "SEKUCING KUALAN",
    "zip_code": "78854"
  },
  {
    "id": 57983,
    "name": "SEKUCING LABAI",
    "zip_code": "78854"
  },
  {
    "id": 57984,
    "name": "SEMANDANG HULU",
    "zip_code": "78854"
  },
  {
    "id": 57985,
    "name": "SEMANDANG KIRI",
    "zip_code": "78854"
  }
]