[
  {
    "id": 27817,
    "name": "AMBUKHA",
    "zip_code": "22873"
  },
  {
    "id": 27818,
    "name": "BALOHILI MOLA",
    "zip_code": "22873"
  },
  {
    "id": 27819,
    "name": "FOIKHUGAGA",
    "zip_code": "22873"
  },
  {
    "id": 27820,
    "name": "HILIBADALU",
    "zip_code": "22873"
  },
  {
    "id": 27821,
    "name": "HILIUSO",
    "zip_code": "22873"
  },
  {
    "id": 27822,
    "name": "LAWINDRA",
    "zip_code": "22873"
  },
  {
    "id": 27823,
    "name": "LOLOZUKHU",
    "zip_code": "22873"
  },
  {
    "id": 27824,
    "name": "ORAHILI MOLA",
    "zip_code": "22873"
  },
  {
    "id": 27825,
    "name": "ORLIN",
    "zip_code": "22873"
  },
  {
    "id": 27826,
    "name": "SIFAOROASI MOLA",
    "zip_code": "22873"
  },
  {
    "id": 27827,
    "name": "SILIMA BANUA UMBUNASI",
    "zip_code": "22873"
  },
  {
    "id": 27828,
    "name": "SINDROLO",
    "zip_code": "22873"
  },
  {
    "id": 27829,
    "name": "TOBUALO",
    "zip_code": "22873"
  },
  {
    "id": 27830,
    "name": "UMBUNASI",
    "zip_code": "22873"
  }
]