[
  {
    "id": 35094,
    "name": "BUGALIMA",
    "zip_code": "86262"
  },
  {
    "id": 35095,
    "name": "BUKIT SEBURI I",
    "zip_code": "86262"
  },
  {
    "id": 35096,
    "name": "BUKIT SEBURI II",
    "zip_code": "86262"
  },
  {
    "id": 35097,
    "name": "DANIBAO",
    "zip_code": "86262"
  },
  {
    "id": 35098,
    "name": "DUANUR (DUWANUR)",
    "zip_code": "86262"
  },
  {
    "id": 35099,
    "name": "HOMA",
    "zip_code": "86262"
  },
  {
    "id": 35100,
    "name": "HURUNG",
    "zip_code": "86262"
  },
  {
    "id": 35101,
    "name": "ILEPATI",
    "zip_code": "86262"
  },
  {
    "id": 35102,
    "name": "KIMA KAMAK",
    "zip_code": "86262"
  },
  {
    "id": 35103,
    "name": "NIMUN DANI BAO",
    "zip_code": "86262"
  },
  {
    "id": 35104,
    "name": "PAJINIAN",
    "zip_code": "86262"
  },
  {
    "id": 35105,
    "name": "RIANGPADU",
    "zip_code": "86262"
  },
  {
    "id": 35106,
    "name": "TONUWOTAN",
    "zip_code": "86262"
  },
  {
    "id": 35107,
    "name": "WAI TUKAN",
    "zip_code": "86262"
  },
  {
    "id": 35108,
    "name": "WAIWADAN",
    "zip_code": "86262"
  },
  {
    "id": 35109,
    "name": "WATO BAYA",
    "zip_code": "86262"
  },
  {
    "id": 35110,
    "name": "WOLOKIBANG",
    "zip_code": "86262"
  },
  {
    "id": 35111,
    "name": "WUREH",
    "zip_code": "86262"
  }
]