[
  {
    "id": 56823,
    "name": "AMPERA",
    "zip_code": "94364"
  },
  {
    "id": 56824,
    "name": "BAHAGIA",
    "zip_code": "94364"
  },
  {
    "id": 56825,
    "name": "BAKUBAKULU",
    "zip_code": "94364"
  },
  {
    "id": 56826,
    "name": "BERDIKARI",
    "zip_code": "94364"
  },
  {
    "id": 56827,
    "name": "BOBO",
    "zip_code": "94364"
  },
  {
    "id": 56828,
    "name": "BUNGA",
    "zip_code": "94364"
  },
  {
    "id": 56829,
    "name": "KAPIROE",
    "zip_code": "94364"
  },
  {
    "id": 56830,
    "name": "KARUNIA",
    "zip_code": "94364"
  },
  {
    "id": 56831,
    "name": "LEMBANTONGOA",
    "zip_code": "94364"
  },
  {
    "id": 56832,
    "name": "MAKMUR",
    "zip_code": "94364"
  },
  {
    "id": 56833,
    "name": "PETIMBE",
    "zip_code": "94364"
  },
  {
    "id": 56834,
    "name": "RAHMAT",
    "zip_code": "94364"
  },
  {
    "id": 56835,
    "name": "RANTELEDA",
    "zip_code": "94364"
  },
  {
    "id": 56836,
    "name": "REJEKI",
    "zip_code": "94364"
  },
  {
    "id": 56837,
    "name": "SARUMANA",
    "zip_code": "94364"
  },
  {
    "id": 56838,
    "name": "SEJAHTERA",
    "zip_code": "94364"
  },
  {
    "id": 56839,
    "name": "SIGIMPU",
    "zip_code": "94364"
  },
  {
    "id": 56840,
    "name": "SINTUWU",
    "zip_code": "94364"
  },
  {
    "id": 56841,
    "name": "TANAH HARAPAN",
    "zip_code": "94364"
  },
  {
    "id": 56842,
    "name": "TONGOA",
    "zip_code": "94364"
  },
  {
    "id": 56843,
    "name": "UE RANI",
    "zip_code": "94364"
  },
  {
    "id": 56844,
    "name": "UWE NUNI",
    "zip_code": "94364"
  }
]