[
  {
    "id": 50232,
    "name": "AIR JERNIH",
    "zip_code": "29351"
  },
  {
    "id": 50233,
    "name": "ALANG KEPAYANG",
    "zip_code": "29351"
  },
  {
    "id": 50234,
    "name": "BARANGAN",
    "zip_code": "29351"
  },
  {
    "id": 50235,
    "name": "BUKIT PETALING",
    "zip_code": "29351"
  },
  {
    "id": 50236,
    "name": "DANAU BARU",
    "zip_code": "29351"
  },
  {
    "id": 50237,
    "name": "DANAU TIGA",
    "zip_code": "29351"
  },
  {
    "id": 50238,
    "name": "KOTA LAMA",
    "zip_code": "29351"
  },
  {
    "id": 50239,
    "name": "PEKAN HERAN",
    "zip_code": "29351"
  },
  {
    "id": 50240,
    "name": "PEMATANG JAYA",
    "zip_code": "29351"
  },
  {
    "id": 50241,
    "name": "PEMATANG REBA",
    "zip_code": "29351"
  },
  {
    "id": 50242,
    "name": "RANTAU BAKUNG",
    "zip_code": "29345"
  },
  {
    "id": 50243,
    "name": "REDANG",
    "zip_code": "29351"
  },
  {
    "id": 50244,
    "name": "SIALANG DUA DAHAN",
    "zip_code": "29344"
  },
  {
    "id": 50245,
    "name": "SUNGAI BAUNG",
    "zip_code": "29351"
  },
  {
    "id": 50246,
    "name": "SUNGAI DAWU",
    "zip_code": "29351"
  },
  {
    "id": 50247,
    "name": "TALANG JERINJING",
    "zip_code": "29351"
  },
  {
    "id": 50248,
    "name": "TANAH DATAR",
    "zip_code": "29351"
  },
  {
    "id": 50249,
    "name": "TANAH MAKMUR",
    "zip_code": "29351"
  }
]