[
  {
    "id": 30347,
    "name": "BONGO DUA",
    "zip_code": "96262"
  },
  {
    "id": 30348,
    "name": "BONGO TIGA",
    "zip_code": "96262"
  },
  {
    "id": 30349,
    "name": "DIMITO",
    "zip_code": "96262"
  },
  {
    "id": 30350,
    "name": "DULOHUPA",
    "zip_code": "96262"
  },
  {
    "id": 30351,
    "name": "HARAPAN",
    "zip_code": "96262"
  },
  {
    "id": 30352,
    "name": "JATIMULYA",
    "zip_code": "96262"
  },
  {
    "id": 30353,
    "name": "MEKAR JAYA",
    "zip_code": "96262"
  },
  {
    "id": 30354,
    "name": "PANGEYA",
    "zip_code": "96262"
  },
  {
    "id": 30355,
    "name": "RAHARJA",
    "zip_code": "96262"
  },
  {
    "id": 30356,
    "name": "SARI TANI",
    "zip_code": "96262"
  },
  {
    "id": 30357,
    "name": "SUKAMAJU",
    "zip_code": "96262"
  },
  {
    "id": 30358,
    "name": "SUKAMULYA",
    "zip_code": "96262"
  },
  {
    "id": 30359,
    "name": "TANJUNG HARAPAN",
    "zip_code": "96262"
  },
  {
    "id": 30360,
    "name": "TRI RUKUN",
    "zip_code": "96262"
  }
]