[
  {
    "id": 27628,
    "name": "BAWOGOSALI",
    "zip_code": "22865"
  },
  {
    "id": 27629,
    "name": "BAWOHOSI MANIAMOLO",
    "zip_code": "22865"
  },
  {
    "id": 27630,
    "name": "BAWOMAENAMOLO",
    "zip_code": "22865"
  },
  {
    "id": 27631,
    "name": "BAWOSAODANO",
    "zip_code": "22865"
  },
  {
    "id": 27632,
    "name": "BONIA HILISIMAETANO",
    "zip_code": "22865"
  },
  {
    "id": 27633,
    "name": "EHO HILISIMAETANO",
    "zip_code": "22865"
  },
  {
    "id": 27634,
    "name": "FAOMASI HILISIMAETANO",
    "zip_code": "22865"
  },
  {
    "id": 27635,
    "name": "HILIAURIFA HILISIMAETANO",
    "zip_code": "22865"
  },
  {
    "id": 27636,
    "name": "HILIFALAWU",
    "zip_code": "22865"
  },
  {
    "id": 27637,
    "name": "HILIMAE NAMOLO",
    "zip_code": "22865"
  },
  {
    "id": 27638,
    "name": "HILISIMAETANO",
    "zip_code": "22865"
  },
  {
    "id": 27639,
    "name": "IDALA JAYA",
    "zip_code": "22865"
  },
  {
    "id": 27640,
    "name": "NDRASO HILISIMAETANO",
    "zip_code": "22865"
  },
  {
    "id": 27641,
    "name": "PEKAN HILISIMAETANO",
    "zip_code": "22865"
  },
  {
    "id": 27642,
    "name": "SAMADAYA HILISIMAETANO",
    "zip_code": "22865"
  },
  {
    "id": 27643,
    "name": "SOTO'O HILISIMAETANO",
    "zip_code": "22865"
  }
]