[
  {
    "id": 34158,
    "name": "BADAL",
    "zip_code": "64171"
  },
  {
    "id": 34159,
    "name": "BADALPANDEAN",
    "zip_code": "64171"
  },
  {
    "id": 34160,
    "name": "BANGGLE",
    "zip_code": "64171"
  },
  {
    "id": 34161,
    "name": "BANJAREJO",
    "zip_code": "64171"
  },
  {
    "id": 34162,
    "name": "BEDUG",
    "zip_code": "64171"
  },
  {
    "id": 34163,
    "name": "BRANGGAHAN",
    "zip_code": "64171"
  },
  {
    "id": 34164,
    "name": "DUKUH",
    "zip_code": "64171"
  },
  {
    "id": 34165,
    "name": "MANGUNREJO",
    "zip_code": "64171"
  },
  {
    "id": 34166,
    "name": "NGADILUWIH",
    "zip_code": "64171"
  },
  {
    "id": 34167,
    "name": "PURWOKERTO",
    "zip_code": "64171"
  },
  {
    "id": 34168,
    "name": "REMBANG",
    "zip_code": "64171"
  },
  {
    "id": 34169,
    "name": "REMBANGKEPUH",
    "zip_code": "64171"
  },
  {
    "id": 34170,
    "name": "SEKETI",
    "zip_code": "64171"
  },
  {
    "id": 34171,
    "name": "SLUMBUNG",
    "zip_code": "64171"
  },
  {
    "id": 34172,
    "name": "TALES",
    "zip_code": "64171"
  },
  {
    "id": 34173,
    "name": "WONOREJO",
    "zip_code": "64171"
  }
]