[
  {
    "id": 13560,
    "name": "ALUR JAMBU",
    "zip_code": "24478"
  },
  {
    "id": 13561,
    "name": "ARAS SEMBILAN",
    "zip_code": "24478"
  },
  {
    "id": 13562,
    "name": "BABO",
    "zip_code": "24478"
  },
  {
    "id": 13563,
    "name": "BATANG ARA",
    "zip_code": "24478"
  },
  {
    "id": 13564,
    "name": "BATU BEDULANG",
    "zip_code": "24478"
  },
  {
    "id": 13565,
    "name": "BENGKELANG",
    "zip_code": "24478"
  },
  {
    "id": 13566,
    "name": "BLANG KANDIS",
    "zip_code": "24478"
  },
  {
    "id": 13567,
    "name": "JAMBO/JAMBU RAMBONG",
    "zip_code": "24478"
  },
  {
    "id": 13568,
    "name": "PANTAI CEMPA",
    "zip_code": "24478"
  },
  {
    "id": 13569,
    "name": "PENGIDAM",
    "zip_code": "24478"
  },
  {
    "id": 13570,
    "name": "PERKEBUNAN ALUR JAMBU",
    "zip_code": "24478"
  },
  {
    "id": 13571,
    "name": "PERUPUK",
    "zip_code": "24478"
  },
  {
    "id": 13572,
    "name": "RANTAU BINTANG",
    "zip_code": "24478"
  },
  {
    "id": 13573,
    "name": "SERBA",
    "zip_code": "24478"
  },
  {
    "id": 13574,
    "name": "SUNTING",
    "zip_code": "24478"
  }
]