[
  {
    "id": 28912,
    "name": "AEK BARGOT",
    "zip_code": "22753"
  },
  {
    "id": 28913,
    "name": "BALAKKA (BALANGKA)",
    "zip_code": "22753"
  },
  {
    "id": 28914,
    "name": "BALIMBING JAE",
    "zip_code": "22753"
  },
  {
    "id": 28915,
    "name": "BALIMBING JULU",
    "zip_code": "22753"
  },
  {
    "id": 28916,
    "name": "BATU GANA",
    "zip_code": "22753"
  },
  {
    "id": 28917,
    "name": "BATU RANCANG",
    "zip_code": "22753"
  },
  {
    "id": 28918,
    "name": "GARIANG",
    "zip_code": "22753"
  },
  {
    "id": 28919,
    "name": "HASAMBI",
    "zip_code": "22753"
  },
  {
    "id": 28920,
    "name": "LANTOSAN II",
    "zip_code": "22753"
  },
  {
    "id": 28921,
    "name": "PADANG BARUAS",
    "zip_code": "22753"
  },
  {
    "id": 28922,
    "name": "PADANG BUJUR",
    "zip_code": "22753"
  },
  {
    "id": 28923,
    "name": "PAMUNTARAN",
    "zip_code": "22753"
  },
  {
    "id": 28924,
    "name": "PANCUR PANGKO",
    "zip_code": "22753"
  },
  {
    "id": 28925,
    "name": "PARAN GADUNG",
    "zip_code": "22753"
  },
  {
    "id": 28926,
    "name": "PARAN NANGKA",
    "zip_code": "22753"
  },
  {
    "id": 28927,
    "name": "PARUPUK JAE",
    "zip_code": "22753"
  },
  {
    "id": 28928,
    "name": "PARUPUK JULU",
    "zip_code": "22753"
  },
  {
    "id": 28929,
    "name": "SIALANG",
    "zip_code": "22753"
  },
  {
    "id": 28930,
    "name": "SIPUPUS LOMBANG",
    "zip_code": "22753"
  },
  {
    "id": 28931,
    "name": "SITANGGORU",
    "zip_code": "22753"
  },
  {
    "id": 28932,
    "name": "SIUNGGAM DOLOK",
    "zip_code": "22753"
  },
  {
    "id": 28933,
    "name": "SOBAR",
    "zip_code": "22753"
  },
  {
    "id": 28934,
    "name": "UBAR",
    "zip_code": "22753"
  }
]