[
  {
    "id": 47502,
    "name": "DRINGU",
    "zip_code": "67271"
  },
  {
    "id": 47503,
    "name": "KALIREJO",
    "zip_code": "67271"
  },
  {
    "id": 47504,
    "name": "KALISALAM",
    "zip_code": "67271"
  },
  {
    "id": 47505,
    "name": "KEDUNGDALEM",
    "zip_code": "67271"
  },
  {
    "id": 47506,
    "name": "MRANGGON LAWANG",
    "zip_code": "67271"
  },
  {
    "id": 47507,
    "name": "NGEPOH",
    "zip_code": "67271"
  },
  {
    "id": 47508,
    "name": "PABEAN",
    "zip_code": "67271"
  },
  {
    "id": 47509,
    "name": "RANDUPUTIH",
    "zip_code": "67271"
  },
  {
    "id": 47510,
    "name": "SEKARKARE",
    "zip_code": "67271"
  },
  {
    "id": 47511,
    "name": "SUMBER AGUNG",
    "zip_code": "67271"
  },
  {
    "id": 47512,
    "name": "SUMBER SUKO",
    "zip_code": "67271"
  },
  {
    "id": 47513,
    "name": "TAMAN SARI",
    "zip_code": "67271"
  },
  {
    "id": 47514,
    "name": "TEGALREJO",
    "zip_code": "67271"
  },
  {
    "id": 47515,
    "name": "WATUWUNGKUK",
    "zip_code": "67271"
  }
]