[
  {
    "id": 51923,
    "name": "BATU NYAPAU",
    "zip_code": "74552"
  },
  {
    "id": 51924,
    "name": "BATU NYIWUH",
    "zip_code": "74552"
  },
  {
    "id": 51925,
    "name": "KARASON RAYA",
    "zip_code": "74552"
  },
  {
    "id": 51926,
    "name": "KASINTU",
    "zip_code": "74552"
  },
  {
    "id": 51927,
    "name": "RANGAN MIHING",
    "zip_code": "74552"
  },
  {
    "id": 51928,
    "name": "SANDUNG TAMBUN",
    "zip_code": "74552"
  },
  {
    "id": 51929,
    "name": "SARERANGAN",
    "zip_code": "74552"
  },
  {
    "id": 51930,
    "name": "SEI/SUNGAI RIANG",
    "zip_code": "74552"
  },
  {
    "id": 51931,
    "name": "SUMUR MAS",
    "zip_code": "74552"
  },
  {
    "id": 51932,
    "name": "TAJAU URAP",
    "zip_code": "74552"
  },
  {
    "id": 51933,
    "name": "TANJUNG UNTUNG",
    "zip_code": "74552"
  },
  {
    "id": 51934,
    "name": "TELUK LAWAH",
    "zip_code": "74552"
  },
  {
    "id": 51935,
    "name": "TEWAH",
    "zip_code": "74552"
  },
  {
    "id": 51936,
    "name": "TUMBANG HABAON",
    "zip_code": "74552"
  },
  {
    "id": 51937,
    "name": "TUMBANG PAJANGEI",
    "zip_code": "74552"
  },
  {
    "id": 51938,
    "name": "UPUN BATU",
    "zip_code": "74552"
  }
]