[
  {
    "id": 49406,
    "name": "AIR BULUH",
    "zip_code": "33173"
  },
  {
    "id": 49407,
    "name": "AIR DUREN",
    "zip_code": "33173"
  },
  {
    "id": 49408,
    "name": "CENGKONG ABANG",
    "zip_code": "33173"
  },
  {
    "id": 49409,
    "name": "KACE",
    "zip_code": "33173"
  },
  {
    "id": 49410,
    "name": "KACE TIMUR",
    "zip_code": "33173"
  },
  {
    "id": 49411,
    "name": "KEMUJA",
    "zip_code": "33173"
  },
  {
    "id": 49412,
    "name": "KOTA KAPUR",
    "zip_code": "33173"
  },
  {
    "id": 49413,
    "name": "LABUH AIR PANDAN",
    "zip_code": "33173"
  },
  {
    "id": 49414,
    "name": "MENDO (MENDUK)",
    "zip_code": "33173"
  },
  {
    "id": 49415,
    "name": "PAYABENUA",
    "zip_code": "33173"
  },
  {
    "id": 49416,
    "name": "PENAGAN",
    "zip_code": "33173"
  },
  {
    "id": 49417,
    "name": "PETALING",
    "zip_code": "33173"
  },
  {
    "id": 49418,
    "name": "PETALING BANJAR",
    "zip_code": "33173"
  },
  {
    "id": 49419,
    "name": "RUKAM",
    "zip_code": "33173"
  },
  {
    "id": 49420,
    "name": "ZED",
    "zip_code": "33173"
  }
]