[
  {
    "id": 54719,
    "name": "BENTAYAN",
    "zip_code": "30959"
  },
  {
    "id": 54720,
    "name": "BUMI SERDANG",
    "zip_code": "30959"
  },
  {
    "id": 54721,
    "name": "KARANG ANYAR",
    "zip_code": "30959"
  },
  {
    "id": 54722,
    "name": "KARANG ASEM",
    "zip_code": "30959"
  },
  {
    "id": 54723,
    "name": "KARANG MULYA",
    "zip_code": "30959"
  },
  {
    "id": 54724,
    "name": "KELUANG",
    "zip_code": "30959"
  },
  {
    "id": 54725,
    "name": "MARGA RAHAYU",
    "zip_code": "30959"
  },
  {
    "id": 54726,
    "name": "PANCAMULYA",
    "zip_code": "30959"
  },
  {
    "id": 54727,
    "name": "SIDOMULYO",
    "zip_code": "30959"
  },
  {
    "id": 54728,
    "name": "SUKA KARYA",
    "zip_code": "30959"
  },
  {
    "id": 54729,
    "name": "SUKA RAJA",
    "zip_code": "30959"
  },
  {
    "id": 54730,
    "name": "SUKAJAYA",
    "zip_code": "30959"
  },
  {
    "id": 54731,
    "name": "SUKAMULYA",
    "zip_code": "30959"
  },
  {
    "id": 54732,
    "name": "TELUK TENGGULANG",
    "zip_code": "30959"
  }
]