[
  {
    "id": 39099,
    "name": "BINJEITA",
    "zip_code": "95764"
  },
  {
    "id": 39100,
    "name": "BINJEITA I",
    "zip_code": "95764"
  },
  {
    "id": 39101,
    "name": "BINJEITA II",
    "zip_code": "95764"
  },
  {
    "id": 39102,
    "name": "BINUANGA",
    "zip_code": "95764"
  },
  {
    "id": 39103,
    "name": "BINUNI",
    "zip_code": "95764"
  },
  {
    "id": 39104,
    "name": "BIONTONG",
    "zip_code": "95764"
  },
  {
    "id": 39105,
    "name": "BIONTONG I",
    "zip_code": "95764"
  },
  {
    "id": 39106,
    "name": "BIONTONG II",
    "zip_code": "95764"
  },
  {
    "id": 39107,
    "name": "BOHABAK I",
    "zip_code": "95764"
  },
  {
    "id": 39108,
    "name": "BOHABAK II",
    "zip_code": "95764"
  },
  {
    "id": 39109,
    "name": "BOHABAK III",
    "zip_code": "95764"
  },
  {
    "id": 39110,
    "name": "BOHABAK IV",
    "zip_code": "95764"
  },
  {
    "id": 39111,
    "name": "LIPU BOGU",
    "zip_code": "95764"
  },
  {
    "id": 39112,
    "name": "MOKODITEK (MOOKODITEK)",
    "zip_code": "95764"
  },
  {
    "id": 39113,
    "name": "MOKODITEK I (MOOKODITEK I)",
    "zip_code": "95764"
  },
  {
    "id": 39114,
    "name": "NAGARA",
    "zip_code": "95764"
  },
  {
    "id": 39115,
    "name": "NUNUKAN",
    "zip_code": "95764"
  },
  {
    "id": 39116,
    "name": "SALEO",
    "zip_code": "95764"
  },
  {
    "id": 39117,
    "name": "SALEO SATU",
    "zip_code": "95764"
  },
  {
    "id": 39118,
    "name": "TANJUNG LABOU",
    "zip_code": "95764"
  }
]