[
  {
    "id": 43978,
    "name": "BOJONGSARI",
    "zip_code": "54352"
  },
  {
    "id": 43979,
    "name": "JATIMULYO",
    "zip_code": "54352"
  },
  {
    "id": 43980,
    "name": "KALIJAYA",
    "zip_code": "54352"
  },
  {
    "id": 43981,
    "name": "KALIPUTIH",
    "zip_code": "54352"
  },
  {
    "id": 43982,
    "name": "KALIRANCANG",
    "zip_code": "54352"
  },
  {
    "id": 43983,
    "name": "KAMBANGSARI",
    "zip_code": "54352"
  },
  {
    "id": 43984,
    "name": "KARANGKEMBANG",
    "zip_code": "54352"
  },
  {
    "id": 43985,
    "name": "KARANGTANJUNG",
    "zip_code": "54352"
  },
  {
    "id": 43986,
    "name": "KEMANGGUHAN",
    "zip_code": "54352"
  },
  {
    "id": 43987,
    "name": "KRAKAL",
    "zip_code": "54352"
  },
  {
    "id": 43988,
    "name": "SAWANGAN",
    "zip_code": "54352"
  },
  {
    "id": 43989,
    "name": "SELILING",
    "zip_code": "54352"
  },
  {
    "id": 43990,
    "name": "SUROTRUNAN",
    "zip_code": "54352"
  },
  {
    "id": 43991,
    "name": "TANUHARJO",
    "zip_code": "54352"
  },
  {
    "id": 43992,
    "name": "TLOGOWULUNG",
    "zip_code": "54352"
  },
  {
    "id": 43993,
    "name": "WONOKROMO",
    "zip_code": "54352"
  }
]