[
  {
    "id": 21694,
    "name": "AMBAIDIRU",
    "zip_code": "98215"
  },
  {
    "id": 21695,
    "name": "ARIEPI",
    "zip_code": "98215"
  },
  {
    "id": 21696,
    "name": "ARIEPI DUA",
    "zip_code": "98215"
  },
  {
    "id": 21697,
    "name": "AROMAREA",
    "zip_code": "98215"
  },
  {
    "id": 21698,
    "name": "KAMANAP",
    "zip_code": "98215"
  },
  {
    "id": 21699,
    "name": "KANAWA",
    "zip_code": "98215"
  },
  {
    "id": 21700,
    "name": "MAMBO",
    "zip_code": "98215"
  },
  {
    "id": 21701,
    "name": "MANAININ",
    "zip_code": "98215"
  },
  {
    "id": 21702,
    "name": "MARIAROTU (MARIAR ROTU)",
    "zip_code": "98215"
  },
  {
    "id": 21703,
    "name": "NUMAMAN",
    "zip_code": "98215"
  },
  {
    "id": 21704,
    "name": "PANDUAMI (PANDOAMI/PANDUANI)",
    "zip_code": "98215"
  },
  {
    "id": 21705,
    "name": "RAMANGKURANI",
    "zip_code": "98215"
  },
  {
    "id": 21706,
    "name": "SARAWANDORI DUA",
    "zip_code": "98215"
  },
  {
    "id": 21707,
    "name": "SERAWANDORI (SARAWANDORI)",
    "zip_code": "98215"
  },
  {
    "id": 21708,
    "name": "TATUI",
    "zip_code": "98215"
  }
]