[
  {
    "id": 20081,
    "name": "CEMPAKA",
    "zip_code": "37152"
  },
  {
    "id": 20082,
    "name": "DUSUN DIILIR",
    "zip_code": "37152"
  },
  {
    "id": 20083,
    "name": "KAMPUNG DALAM",
    "zip_code": "37152"
  },
  {
    "id": 20084,
    "name": "KAMPUNG DIILIR",
    "zip_code": "37152"
  },
  {
    "id": 20085,
    "name": "KOTO BERINGIN",
    "zip_code": "37152"
  },
  {
    "id": 20086,
    "name": "KOTO DIAN",
    "zip_code": "37152"
  },
  {
    "id": 20087,
    "name": "KOTO TELUK",
    "zip_code": "37152"
  },
  {
    "id": 20088,
    "name": "LARIK KEMAHAN",
    "zip_code": "37152"
  },
  {
    "id": 20089,
    "name": "MALIKI AIR",
    "zip_code": "37152"
  },
  {
    "id": 20090,
    "name": "PALING SERUMPUN",
    "zip_code": "37152"
  },
  {
    "id": 20091,
    "name": "SIMPANG TIGA RAWANG",
    "zip_code": "37152"
  },
  {
    "id": 20092,
    "name": "TANJUNG",
    "zip_code": "37152"
  },
  {
    "id": 20093,
    "name": "TANJUNG MUDA/MUDO",
    "zip_code": "37152"
  }
]