[
  {
    "id": 75758,
    "name": "BANGUN JAYA",
    "zip_code": "34598"
  },
  {
    "id": 75759,
    "name": "BERASAN MAKMUR",
    "zip_code": "34598"
  },
  {
    "id": 75760,
    "name": "BRABASAN",
    "zip_code": "34598"
  },
  {
    "id": 75761,
    "name": "BUJUNG BURING",
    "zip_code": "34598"
  },
  {
    "id": 75762,
    "name": "BUJUNG BURING BARU",
    "zip_code": "34598"
  },
  {
    "id": 75763,
    "name": "GEDUNG MULYA",
    "zip_code": "34598"
  },
  {
    "id": 75764,
    "name": "GEDUNG RAM",
    "zip_code": "34598"
  },
  {
    "id": 75765,
    "name": "HARAPAN MUKTI",
    "zip_code": "34598"
  },
  {
    "id": 75766,
    "name": "KAGUNGAN DALAM",
    "zip_code": "34598"
  },
  {
    "id": 75767,
    "name": "MEKAR JAYA",
    "zip_code": "34598"
  },
  {
    "id": 75768,
    "name": "MEKAR SARI",
    "zip_code": "34598"
  },
  {
    "id": 75769,
    "name": "MUARA TENANG",
    "zip_code": "34598"
  },
  {
    "id": 75770,
    "name": "MUARA TENANG TIMUR",
    "zip_code": "34598"
  },
  {
    "id": 75771,
    "name": "MUKTI JAYA",
    "zip_code": "34598"
  },
  {
    "id": 75772,
    "name": "SINAR LAGA",
    "zip_code": "34598"
  },
  {
    "id": 75773,
    "name": "SRI TANJUNG",
    "zip_code": "34598"
  },
  {
    "id": 75774,
    "name": "SRIWIJAYA",
    "zip_code": "34598"
  },
  {
    "id": 75775,
    "name": "TANJUNG HARAPAN",
    "zip_code": "34598"
  },
  {
    "id": 75776,
    "name": "TANJUNG SARI",
    "zip_code": "34598"
  },
  {
    "id": 75777,
    "name": "TRI KARYA MULYA",
    "zip_code": "34598"
  },
  {
    "id": 75778,
    "name": "WIRA JAYA",
    "zip_code": "34598"
  }
]