[
  {
    "id": 11304,
    "name": "BERIRING NARU",
    "zip_code": "24651"
  },
  {
    "id": 11305,
    "name": "BUNGA MELUR GABUNGAN",
    "zip_code": "24651"
  },
  {
    "id": 11306,
    "name": "GUSUNG BATU",
    "zip_code": "24652"
  },
  {
    "id": 11307,
    "name": "KANE LOT",
    "zip_code": "24651"
  },
  {
    "id": 11308,
    "name": "KATI JEROH",
    "zip_code": "24651"
  },
  {
    "id": 11309,
    "name": "KAYA PANGUR",
    "zip_code": "24652"
  },
  {
    "id": 11310,
    "name": "LAWE HAKHUM",
    "zip_code": "24651"
  },
  {
    "id": 11311,
    "name": "LAWE PANGKAT",
    "zip_code": "24651"
  },
  {
    "id": 11312,
    "name": "LEMBAH ALAS",
    "zip_code": "24652"
  },
  {
    "id": 11313,
    "name": "MUHAJIRIN",
    "zip_code": "24651"
  },
  {
    "id": 11314,
    "name": "PENAMPAAN",
    "zip_code": "24651"
  },
  {
    "id": 11315,
    "name": "PESULUK PESIMBE",
    "zip_code": "24651"
  },
  {
    "id": 11316,
    "name": "RANTO DIOR/DIUR",
    "zip_code": "24652"
  },
  {
    "id": 11317,
    "name": "SALANG BARU",
    "zip_code": "24652"
  },
  {
    "id": 11318,
    "name": "SALANG MUARA",
    "zip_code": "24652"
  },
  {
    "id": 11319,
    "name": "SALANG SIGOTOM",
    "zip_code": "24652"
  },
  {
    "id": 11320,
    "name": "SEPAKAT",
    "zip_code": "24652"
  },
  {
    "id": 11321,
    "name": "TADING NIULIHI",
    "zip_code": "24651"
  },
  {
    "id": 11322,
    "name": "TANOH KHUKAHEN",
    "zip_code": "24651"
  },
  {
    "id": 11323,
    "name": "TENEMBAK/TENEBAK LANG-LANG",
    "zip_code": "24651"
  },
  {
    "id": 11324,
    "name": "TERUTUNG MBELANG",
    "zip_code": "24651"
  },
  {
    "id": 11325,
    "name": "TUALANG LAMA",
    "zip_code": "24651"
  }
]