[
  {
    "id": 41614,
    "name": "AMPLAS",
    "zip_code": "20371"
  },
  {
    "id": 41615,
    "name": "BANDAR KHALIFAH (KLIPPA)",
    "zip_code": "20371"
  },
  {
    "id": 41616,
    "name": "BANDAR KHALIPAH KEBON",
    "zip_code": "20371"
  },
  {
    "id": 41617,
    "name": "BANDAR SETIA",
    "zip_code": "20371"
  },
  {
    "id": 41618,
    "name": "CINTA DAMAI (DAME)",
    "zip_code": "20371"
  },
  {
    "id": 41619,
    "name": "CINTA RAKYAT",
    "zip_code": "20371"
  },
  {
    "id": 41620,
    "name": "KENANGAN",
    "zip_code": "20371"
  },
  {
    "id": 41621,
    "name": "KENANGAN BARU",
    "zip_code": "20371"
  },
  {
    "id": 41622,
    "name": "KOLAM",
    "zip_code": "20371"
  },
  {
    "id": 41623,
    "name": "LAUT DENDANG",
    "zip_code": "20371"
  },
  {
    "id": 41624,
    "name": "MEDAN ESTATE",
    "zip_code": "20371"
  },
  {
    "id": 41625,
    "name": "PEMATANG LALANG",
    "zip_code": "20371"
  },
  {
    "id": 41626,
    "name": "PERCUT",
    "zip_code": "20371"
  },
  {
    "id": 41627,
    "name": "SAENTIS",
    "zip_code": "20371"
  },
  {
    "id": 41628,
    "name": "SAMPALI",
    "zip_code": "20371"
  },
  {
    "id": 41629,
    "name": "SEI ROTAN",
    "zip_code": "20371"
  },
  {
    "id": 41630,
    "name": "SUMBER REJO TIMUR",
    "zip_code": "20371"
  },
  {
    "id": 41631,
    "name": "TANJUNG REJO",
    "zip_code": "20371"
  },
  {
    "id": 41632,
    "name": "TANJUNG SELAMAT",
    "zip_code": "20371"
  },
  {
    "id": 41633,
    "name": "TEMBUNG",
    "zip_code": "20371"
  }
]