[
  {
    "id": 55609,
    "name": "ALUN DUA",
    "zip_code": "32272"
  },
  {
    "id": 55610,
    "name": "BANDAR ALAM BARU",
    "zip_code": "32272"
  },
  {
    "id": 55611,
    "name": "BAYUR TENGAH",
    "zip_code": "32272"
  },
  {
    "id": 55612,
    "name": "DUSUN TENGAH",
    "zip_code": "32272"
  },
  {
    "id": 55613,
    "name": "GUNUNG GARE",
    "zip_code": "32272"
  },
  {
    "id": 55614,
    "name": "LAWANG AGUNG",
    "zip_code": "32272"
  },
  {
    "id": 55615,
    "name": "MUARA DUA KISAM",
    "zip_code": "32272"
  },
  {
    "id": 55616,
    "name": "PAGAR DEWA",
    "zip_code": "32272"
  },
  {
    "id": 55617,
    "name": "PENANTIAN",
    "zip_code": "32272"
  },
  {
    "id": 55618,
    "name": "PENYANDINGAN",
    "zip_code": "32272"
  },
  {
    "id": 55619,
    "name": "SIMPANG LUBUK DALAM",
    "zip_code": "32272"
  },
  {
    "id": 55620,
    "name": "SUGIHAN",
    "zip_code": "32272"
  },
  {
    "id": 55621,
    "name": "SUKANANTI",
    "zip_code": "32272"
  },
  {
    "id": 55622,
    "name": "SUKARAJA",
    "zip_code": "32272"
  },
  {
    "id": 55623,
    "name": "TANJUNG BERINGIN",
    "zip_code": "32272"
  },
  {
    "id": 55624,
    "name": "TANJUNG TEBAT",
    "zip_code": "32272"
  },
  {
    "id": 55625,
    "name": "ULAK AGUNG ILIR",
    "zip_code": "32272"
  },
  {
    "id": 55626,
    "name": "ULAK AGUNG ULU",
    "zip_code": "32272"
  }
]