[
  {
    "id": 51007,
    "name": "BATANG KULIM",
    "zip_code": "28382"
  },
  {
    "id": 51008,
    "name": "BERINGIN INDAH",
    "zip_code": "28382"
  },
  {
    "id": 51009,
    "name": "BETUNG",
    "zip_code": "28382"
  },
  {
    "id": 51010,
    "name": "DUNDANGAN",
    "zip_code": "28382"
  },
  {
    "id": 51011,
    "name": "HARAPAN JAYA",
    "zip_code": "28382"
  },
  {
    "id": 51012,
    "name": "KEMANG",
    "zip_code": "28382"
  },
  {
    "id": 51013,
    "name": "KESUMA",
    "zip_code": "28382"
  },
  {
    "id": 51014,
    "name": "MERANTI",
    "zip_code": "28382"
  },
  {
    "id": 51015,
    "name": "PALAS",
    "zip_code": "28382"
  },
  {
    "id": 51016,
    "name": "SIALANG INDAH",
    "zip_code": "28382"
  },
  {
    "id": 51017,
    "name": "SIDOMUKTI",
    "zip_code": "28382"
  },
  {
    "id": 51018,
    "name": "SOREK DUA",
    "zip_code": "28382"
  },
  {
    "id": 51019,
    "name": "SOREK SATU",
    "zip_code": "28382"
  },
  {
    "id": 51020,
    "name": "SURYA INDAH",
    "zip_code": "28382"
  },
  {
    "id": 51021,
    "name": "TALAU",
    "zip_code": "28382"
  },
  {
    "id": 51022,
    "name": "TANJUNG BERINGIN",
    "zip_code": "28382"
  },
  {
    "id": 51023,
    "name": "TERANTANG MANUK",
    "zip_code": "28382"
  }
]