[
  {
    "id": 20167,
    "name": "AIR HANGAT",
    "zip_code": "37161"
  },
  {
    "id": 20168,
    "name": "AIR PANAS SUNGAIABU",
    "zip_code": "37161"
  },
  {
    "id": 20169,
    "name": "BARU AIR HANGAT",
    "zip_code": "37161"
  },
  {
    "id": 20170,
    "name": "BARU SUNGAI TUTUNG",
    "zip_code": "37161"
  },
  {
    "id": 20171,
    "name": "BARU SUNGAIABU",
    "zip_code": "37161"
  },
  {
    "id": 20172,
    "name": "BARU SUNGAIDERAS",
    "zip_code": "37161"
  },
  {
    "id": 20173,
    "name": "BARU SUNGAIMEDANG",
    "zip_code": "37161"
  },
  {
    "id": 20174,
    "name": "KEMANTAN AGUNG",
    "zip_code": "37161"
  },
  {
    "id": 20175,
    "name": "KEMANTAN DARAT",
    "zip_code": "37161"
  },
  {
    "id": 20176,
    "name": "KEMANTAN HILIR",
    "zip_code": "37161"
  },
  {
    "id": 20177,
    "name": "KEMANTAN KEBALAI",
    "zip_code": "37161"
  },
  {
    "id": 20178,
    "name": "KEMANTAN MUDIK",
    "zip_code": "37161"
  },
  {
    "id": 20179,
    "name": "KEMANTAN RAYA",
    "zip_code": "37161"
  },
  {
    "id": 20180,
    "name": "KEMANTAN TINGGI",
    "zip_code": "37161"
  },
  {
    "id": 20181,
    "name": "KOTO TEBAT",
    "zip_code": "37161"
  },
  {
    "id": 20182,
    "name": "PONDOK SUNGAI ABU",
    "zip_code": "37161"
  },
  {
    "id": 20183,
    "name": "PUNGUT HILIR",
    "zip_code": "37161"
  },
  {
    "id": 20184,
    "name": "PUNGUT MUDIK",
    "zip_code": "37161"
  },
  {
    "id": 20185,
    "name": "PUNGUT TENGAH",
    "zip_code": "37161"
  },
  {
    "id": 20186,
    "name": "SIMPANG EMPAT SUNGAI TUTUNG",
    "zip_code": "37161"
  },
  {
    "id": 20187,
    "name": "SUNGAI ABU",
    "zip_code": "37161"
  },
  {
    "id": 20188,
    "name": "SUNGAI DERAS",
    "zip_code": "37152"
  },
  {
    "id": 20189,
    "name": "SUNGAI MEDANG",
    "zip_code": "37161"
  },
  {
    "id": 20190,
    "name": "SUNGAI TUTUNG",
    "zip_code": "37161"
  },
  {
    "id": 20191,
    "name": "TAMAN JERNIH SUNGAITUTUNG",
    "zip_code": "37161"
  }
]