[
  {
    "id": 47263,
    "name": "ARGOSUKO",
    "zip_code": "65157"
  },
  {
    "id": 47264,
    "name": "BELUNG",
    "zip_code": "65157"
  },
  {
    "id": 47265,
    "name": "DAWUHAN",
    "zip_code": "65157"
  },
  {
    "id": 47266,
    "name": "GUBUKKLAKAH",
    "zip_code": "65157"
  },
  {
    "id": 47267,
    "name": "JAMBESARI",
    "zip_code": "65157"
  },
  {
    "id": 47268,
    "name": "KARANGANYAR",
    "zip_code": "65157"
  },
  {
    "id": 47269,
    "name": "KARANGNONGKO",
    "zip_code": "65157"
  },
  {
    "id": 47270,
    "name": "NGADAS",
    "zip_code": "65157"
  },
  {
    "id": 47271,
    "name": "NGADIRESO",
    "zip_code": "65157"
  },
  {
    "id": 47272,
    "name": "NGEBRUK",
    "zip_code": "65157"
  },
  {
    "id": 47273,
    "name": "PAJARAN",
    "zip_code": "65157"
  },
  {
    "id": 47274,
    "name": "PANDANSARI",
    "zip_code": "65157"
  },
  {
    "id": 47275,
    "name": "PONCOKUSUMO",
    "zip_code": "65157"
  },
  {
    "id": 47276,
    "name": "SUMBEREJO",
    "zip_code": "65157"
  },
  {
    "id": 47277,
    "name": "WONOMULYO",
    "zip_code": "65157"
  },
  {
    "id": 47278,
    "name": "WONOREJO",
    "zip_code": "65157"
  },
  {
    "id": 47279,
    "name": "WRINGINANOM",
    "zip_code": "65157"
  }
]