[
  {
    "id": 8368,
    "name": "BALEKAMBANG",
    "zip_code": "16830"
  },
  {
    "id": 8369,
    "name": "BENDUNGAN",
    "zip_code": "16830"
  },
  {
    "id": 8370,
    "name": "CIBODAS",
    "zip_code": "16830"
  },
  {
    "id": 8371,
    "name": "JONGGOL",
    "zip_code": "16830"
  },
  {
    "id": 8372,
    "name": "SINGAJAYA",
    "zip_code": "16830"
  },
  {
    "id": 8373,
    "name": "SINGASARI",
    "zip_code": "16830"
  },
  {
    "id": 8374,
    "name": "SIRNAGALIH",
    "zip_code": "16830"
  },
  {
    "id": 8375,
    "name": "SUKAGALIH",
    "zip_code": "16830"
  },
  {
    "id": 8376,
    "name": "SUKAJAYA",
    "zip_code": "16830"
  },
  {
    "id": 8377,
    "name": "SUKAMAJU",
    "zip_code": "16830"
  },
  {
    "id": 8378,
    "name": "SUKAMANAH",
    "zip_code": "16830"
  },
  {
    "id": 8379,
    "name": "SUKANEGARA",
    "zip_code": "16830"
  },
  {
    "id": 8380,
    "name": "SUKASIRNA",
    "zip_code": "16830"
  },
  {
    "id": 8381,
    "name": "WENINGGALIH",
    "zip_code": "16830"
  }
]