[
  {
    "id": 2880,
    "name": "BAHARU SELATAN",
    "zip_code": "72115"
  },
  {
    "id": 2881,
    "name": "BAHARU UTARA",
    "zip_code": "72112"
  },
  {
    "id": 2882,
    "name": "BATUAH",
    "zip_code": "72112"
  },
  {
    "id": 2883,
    "name": "DIRGAHAYU",
    "zip_code": "72116"
  },
  {
    "id": 2884,
    "name": "GEDAMBAAN",
    "zip_code": "72114"
  },
  {
    "id": 2885,
    "name": "GUNUNG SARI",
    "zip_code": "72114"
  },
  {
    "id": 2886,
    "name": "GUNUNG ULIN",
    "zip_code": "72114"
  },
  {
    "id": 2887,
    "name": "HILIR MUARA",
    "zip_code": "72111"
  },
  {
    "id": 2888,
    "name": "KOTABARU HILIR",
    "zip_code": "72111"
  },
  {
    "id": 2889,
    "name": "KOTABARU HULU",
    "zip_code": "72114"
  },
  {
    "id": 2890,
    "name": "KOTABARU TENGAH",
    "zip_code": "72113"
  },
  {
    "id": 2891,
    "name": "MEGA SARI",
    "zip_code": "72114"
  },
  {
    "id": 2892,
    "name": "RAMPA",
    "zip_code": "72114"
  },
  {
    "id": 2893,
    "name": "SARANG TIUNG",
    "zip_code": "72114"
  },
  {
    "id": 2894,
    "name": "SEBATUNG",
    "zip_code": "72113"
  },
  {
    "id": 2895,
    "name": "SEBELIMBINGAN",
    "zip_code": "72114"
  },
  {
    "id": 2896,
    "name": "SEI/SUNGAI TAIB",
    "zip_code": "72114"
  },
  {
    "id": 2897,
    "name": "SEMAYAP",
    "zip_code": "72117"
  },
  {
    "id": 2898,
    "name": "SIGAM",
    "zip_code": "72112"
  },
  {
    "id": 2899,
    "name": "STAGEN",
    "zip_code": "72114"
  },
  {
    "id": 2900,
    "name": "TIRAWAN",
    "zip_code": "72112"
  }
]