[
  {
    "id": 23656,
    "name": "AGOPAGA",
    "zip_code": "98916"
  },
  {
    "id": 23657,
    "name": "AMBIT-MBIT",
    "zip_code": "98916"
  },
  {
    "id": 23658,
    "name": "ANDIRON",
    "zip_code": "98916"
  },
  {
    "id": 23659,
    "name": "ANGGUTARE",
    "zip_code": "98916"
  },
  {
    "id": 23660,
    "name": "AULAKME",
    "zip_code": "98916"
  },
  {
    "id": 23661,
    "name": "GINILOME",
    "zip_code": "98916"
  },
  {
    "id": 23662,
    "name": "JIMBINGGAME",
    "zip_code": "98916"
  },
  {
    "id": 23663,
    "name": "JIOGOBAK",
    "zip_code": "98916"
  },
  {
    "id": 23664,
    "name": "LERAWERA",
    "zip_code": "98916"
  },
  {
    "id": 23665,
    "name": "MONDOGONERI",
    "zip_code": "98916"
  },
  {
    "id": 23666,
    "name": "NAKONGWE",
    "zip_code": "98916"
  },
  {
    "id": 23667,
    "name": "ORILUK",
    "zip_code": "98916"
  },
  {
    "id": 23668,
    "name": "PAGARGOM",
    "zip_code": "98916"
  },
  {
    "id": 23669,
    "name": "TENOLOK",
    "zip_code": "98916"
  },
  {
    "id": 23670,
    "name": "TENOMANGGEN",
    "zip_code": "98916"
  },
  {
    "id": 23671,
    "name": "TIRIGOI",
    "zip_code": "98916"
  },
  {
    "id": 23672,
    "name": "TOWOLUK",
    "zip_code": "98916"
  },
  {
    "id": 23673,
    "name": "WURUNGKIME",
    "zip_code": "98916"
  },
  {
    "id": 23674,
    "name": "YALIBATE",
    "zip_code": "98916"
  }
]