[
  {
    "id": 6862,
    "name": "BAJAK I",
    "zip_code": "38386"
  },
  {
    "id": 6863,
    "name": "DATAR LEBAR",
    "zip_code": "38386"
  },
  {
    "id": 6864,
    "name": "KARANG TENGAH",
    "zip_code": "38386"
  },
  {
    "id": 6865,
    "name": "KOTA NIUR",
    "zip_code": "38386"
  },
  {
    "id": 6866,
    "name": "LUBUK SINI",
    "zip_code": "38386"
  },
  {
    "id": 6867,
    "name": "PENUM",
    "zip_code": "38386"
  },
  {
    "id": 6868,
    "name": "RINDU HATI",
    "zip_code": "38386"
  },
  {
    "id": 6869,
    "name": "SUKA RAMI",
    "zip_code": "38386"
  },
  {
    "id": 6870,
    "name": "SURAU",
    "zip_code": "38386"
  },
  {
    "id": 6871,
    "name": "TABA BARU",
    "zip_code": "38386"
  },
  {
    "id": 6872,
    "name": "TABA PENANJUNG",
    "zip_code": "38386"
  },
  {
    "id": 6873,
    "name": "TABA TERET",
    "zip_code": "38386"
  },
  {
    "id": 6874,
    "name": "TANJUNG HERAN",
    "zip_code": "38386"
  },
  {
    "id": 6875,
    "name": "TANJUNG RAMAN",
    "zip_code": "38386"
  }
]