[
  {
    "id": 3193,
    "name": "BANYU TAJUN DALAM",
    "zip_code": "71455"
  },
  {
    "id": 3194,
    "name": "BANYU TAJUN HILIR",
    "zip_code": "71455"
  },
  {
    "id": 3195,
    "name": "BANYU TAJUN HULU",
    "zip_code": "71455"
  },
  {
    "id": 3196,
    "name": "BANYU TAJUN PANGKALAN",
    "zip_code": "71455"
  },
  {
    "id": 3197,
    "name": "HAMBUKU HULU",
    "zip_code": "71455"
  },
  {
    "id": 3198,
    "name": "HAMBUKU PASAR",
    "zip_code": "71455"
  },
  {
    "id": 3199,
    "name": "HAMBUKU RAYA",
    "zip_code": "71455"
  },
  {
    "id": 3200,
    "name": "HAMBUKU TENGAH",
    "zip_code": "71455"
  },
  {
    "id": 3201,
    "name": "JALAN LURUS",
    "zip_code": "71455"
  },
  {
    "id": 3202,
    "name": "MURUNG ASAM",
    "zip_code": "71455"
  },
  {
    "id": 3203,
    "name": "PADANG BANGKAL",
    "zip_code": "71455"
  },
  {
    "id": 3204,
    "name": "PANDULANGAN",
    "zip_code": "71455"
  },
  {
    "id": 3205,
    "name": "PANGKALAN SARI",
    "zip_code": "71455"
  },
  {
    "id": 3206,
    "name": "PONDOK BABARIS",
    "zip_code": "71455"
  },
  {
    "id": 3207,
    "name": "PUTAT ATAS /TATAU",
    "zip_code": "71455"
  },
  {
    "id": 3208,
    "name": "RANTAU KARAU HILIR",
    "zip_code": "71455"
  },
  {
    "id": 3209,
    "name": "RANTAU KARAU HULU",
    "zip_code": "71455"
  },
  {
    "id": 3210,
    "name": "RANTAU KARAU RAYA",
    "zip_code": "71455"
  },
  {
    "id": 3211,
    "name": "RANTAU KARAU TENGAH",
    "zip_code": "71455"
  },
  {
    "id": 3212,
    "name": "SEI/SUNGAI KUINI",
    "zip_code": "71455"
  },
  {
    "id": 3213,
    "name": "SEI/SUNGAI PANDAN HILIR",
    "zip_code": "71455"
  },
  {
    "id": 3214,
    "name": "SEI/SUNGAI PANDAN HULU",
    "zip_code": "71455"
  },
  {
    "id": 3215,
    "name": "SEI/SUNGAI PANDAN TENGAH",
    "zip_code": "71455"
  },
  {
    "id": 3216,
    "name": "SEI/SUNGAI PINANG",
    "zip_code": "71455"
  },
  {
    "id": 3217,
    "name": "SEI/SUNGAI SANDUNG",
    "zip_code": "71455"
  },
  {
    "id": 3218,
    "name": "TAMBALANG",
    "zip_code": "71455"
  },
  {
    "id": 3219,
    "name": "TAMBALANG KECIL",
    "zip_code": "71455"
  },
  {
    "id": 3220,
    "name": "TAMBALANG TENGAH",
    "zip_code": "71455"
  },
  {
    "id": 3221,
    "name": "TAPUS DALAM",
    "zip_code": "71455"
  },
  {
    "id": 3222,
    "name": "TATAH LABAN",
    "zip_code": "71455"
  },
  {
    "id": 3223,
    "name": "TELUK BETUNG",
    "zip_code": "71455"
  },
  {
    "id": 3224,
    "name": "TELUK MESJID",
    "zip_code": "71455"
  },
  {
    "id": 3225,
    "name": "TELUK SINAR",
    "zip_code": "71455"
  }
]