[
  {
    "id": 77961,
    "name": "GAMALAMA",
    "zip_code": "97721"
  },
  {
    "id": 77962,
    "name": "KALUMPANG",
    "zip_code": "97722"
  },
  {
    "id": 77963,
    "name": "KAMPUNG PISANG",
    "zip_code": "97712"
  },
  {
    "id": 77964,
    "name": "KOTA BARU",
    "zip_code": "97751"
  },
  {
    "id": 77965,
    "name": "MAKASAR BARAT",
    "zip_code": "97724"
  },
  {
    "id": 77966,
    "name": "MAKASAR TIMUR",
    "zip_code": "97724"
  },
  {
    "id": 77967,
    "name": "MALIARO",
    "zip_code": "97711"
  },
  {
    "id": 77968,
    "name": "MARIKURUBU",
    "zip_code": "97711"
  },
  {
    "id": 77969,
    "name": "MOYA",
    "zip_code": "97723"
  },
  {
    "id": 77970,
    "name": "MUHAJIRIN",
    "zip_code": "97713"
  },
  {
    "id": 77971,
    "name": "SALAHUDDIN",
    "zip_code": "97751"
  },
  {
    "id": 77972,
    "name": "SANTIONG",
    "zip_code": "97722"
  },
  {
    "id": 77973,
    "name": "STADION",
    "zip_code": "97712"
  },
  {
    "id": 77974,
    "name": "TAKOMA",
    "zip_code": "97714"
  },
  {
    "id": 77975,
    "name": "TANAH RAJA",
    "zip_code": "97713"
  }
]