[
  {
    "id": 7215,
    "name": "AIR UMBAN",
    "zip_code": "38571"
  },
  {
    "id": 7216,
    "name": "ANGGUT",
    "zip_code": "38571"
  },
  {
    "id": 7217,
    "name": "BATU BANDUNG",
    "zip_code": "38571"
  },
  {
    "id": 7218,
    "name": "BERINGIN DATAR",
    "zip_code": "38571"
  },
  {
    "id": 7219,
    "name": "GANJUH",
    "zip_code": "38571"
  },
  {
    "id": 7220,
    "name": "GEDUNG AGUNG",
    "zip_code": "38571"
  },
  {
    "id": 7221,
    "name": "KOTA BUMI",
    "zip_code": "38571"
  },
  {
    "id": 7222,
    "name": "MASAT",
    "zip_code": "38571"
  },
  {
    "id": 7223,
    "name": "PADANG LEBAR",
    "zip_code": "38571"
  },
  {
    "id": 7224,
    "name": "PADANG MUMPO",
    "zip_code": "38571"
  },
  {
    "id": 7225,
    "name": "PADANG TAMBAK",
    "zip_code": "38571"
  },
  {
    "id": 7226,
    "name": "PUDING",
    "zip_code": "38571"
  },
  {
    "id": 7227,
    "name": "SEBILO",
    "zip_code": "38571"
  },
  {
    "id": 7228,
    "name": "TANJUNG AUR I",
    "zip_code": "38571"
  },
  {
    "id": 7229,
    "name": "TANJUNG ERAN",
    "zip_code": "38571"
  },
  {
    "id": 7230,
    "name": "ULAK LEBAR",
    "zip_code": "38571"
  }
]