[
  {
    "id": 54572,
    "name": "BANJARSARI (AIR SENDA IV)",
    "zip_code": "30959"
  },
  {
    "id": 54573,
    "name": "BUANA MURTI (AIR SENDA III)",
    "zip_code": "30959"
  },
  {
    "id": 54574,
    "name": "BUDI ASIH",
    "zip_code": "30959"
  },
  {
    "id": 54575,
    "name": "BUMI REJO",
    "zip_code": "30959"
  },
  {
    "id": 54576,
    "name": "DANA MULYA",
    "zip_code": "30959"
  },
  {
    "id": 54577,
    "name": "KARANG MANUNGGAL",
    "zip_code": "30959"
  },
  {
    "id": 54578,
    "name": "KELAPA DUA",
    "zip_code": "30959"
  },
  {
    "id": 54579,
    "name": "MAJATRA",
    "zip_code": "30959"
  },
  {
    "id": 54580,
    "name": "MEKAR SARI",
    "zip_code": "30959"
  },
  {
    "id": 54581,
    "name": "MUKUT",
    "zip_code": "30959"
  },
  {
    "id": 54582,
    "name": "NUNGGAL SARI",
    "zip_code": "30959"
  },
  {
    "id": 54583,
    "name": "PENUGUAN",
    "zip_code": "30959"
  },
  {
    "id": 54584,
    "name": "PURWODADI",
    "zip_code": "30959"
  },
  {
    "id": 54585,
    "name": "RAWA BANDA",
    "zip_code": "30959"
  },
  {
    "id": 54586,
    "name": "RINGIN HARJO",
    "zip_code": "30959"
  },
  {
    "id": 54587,
    "name": "RUKUN MAKMUR",
    "zip_code": "30959"
  },
  {
    "id": 54588,
    "name": "SENDA MUKTI (AIR SENDA II)",
    "zip_code": "30959"
  },
  {
    "id": 54589,
    "name": "SONGO MAKMUR",
    "zip_code": "30959"
  },
  {
    "id": 54590,
    "name": "SUMBER AGUNG",
    "zip_code": "30959"
  },
  {
    "id": 54591,
    "name": "SUMBER MUKTI",
    "zip_code": "30959"
  },
  {
    "id": 54592,
    "name": "SUMBER MULYA/MULYO",
    "zip_code": "30959"
  },
  {
    "id": 54593,
    "name": "SUMBER REJEKI",
    "zip_code": "30959"
  },
  {
    "id": 54594,
    "name": "SUMBER REJO",
    "zip_code": "30959"
  },
  {
    "id": 54595,
    "name": "TABUAN ASRI",
    "zip_code": "30959"
  },
  {
    "id": 54596,
    "name": "TELUK BETUNG",
    "zip_code": "30959"
  },
  {
    "id": 54597,
    "name": "TIRTA MULYA (TIRTO MULYO)",
    "zip_code": "30959"
  },
  {
    "id": 54598,
    "name": "WANA MUKTI",
    "zip_code": "30959"
  },
  {
    "id": 54599,
    "name": "WONODADI",
    "zip_code": "30959"
  },
  {
    "id": 54600,
    "name": "WONOSARI",
    "zip_code": "30959"
  }
]