[
  {
    "id": 40786,
    "name": "BANCAR",
    "zip_code": "63462"
  },
  {
    "id": 40787,
    "name": "BEDI KULON",
    "zip_code": "63462"
  },
  {
    "id": 40788,
    "name": "BEDI WETAN",
    "zip_code": "63462"
  },
  {
    "id": 40789,
    "name": "BEKARE",
    "zip_code": "63462"
  },
  {
    "id": 40790,
    "name": "BELANG (BLANG)",
    "zip_code": "63462"
  },
  {
    "id": 40791,
    "name": "BUNGKAL",
    "zip_code": "63462"
  },
  {
    "id": 40792,
    "name": "BUNGU",
    "zip_code": "63462"
  },
  {
    "id": 40793,
    "name": "KALISAT",
    "zip_code": "63462"
  },
  {
    "id": 40794,
    "name": "KETONGGO",
    "zip_code": "63462"
  },
  {
    "id": 40795,
    "name": "KORIPAN",
    "zip_code": "63462"
  },
  {
    "id": 40796,
    "name": "KUNTI",
    "zip_code": "63462"
  },
  {
    "id": 40797,
    "name": "KUPUK",
    "zip_code": "63462"
  },
  {
    "id": 40798,
    "name": "KWAJON",
    "zip_code": "63462"
  },
  {
    "id": 40799,
    "name": "MUNGGU",
    "zip_code": "63462"
  },
  {
    "id": 40800,
    "name": "NAMBAK",
    "zip_code": "63462"
  },
  {
    "id": 40801,
    "name": "PADAS",
    "zip_code": "63462"
  },
  {
    "id": 40802,
    "name": "PAGER",
    "zip_code": "63462"
  },
  {
    "id": 40803,
    "name": "PELEM",
    "zip_code": "63462"
  },
  {
    "id": 40804,
    "name": "SAMBILAWANG",
    "zip_code": "63462"
  }
]