[
  {
    "id": 44693,
    "name": "BAJANGREJO",
    "zip_code": "54171"
  },
  {
    "id": 44694,
    "name": "BANYU URIP",
    "zip_code": "54171"
  },
  {
    "id": 44695,
    "name": "BENCOREJO",
    "zip_code": "54171"
  },
  {
    "id": 44696,
    "name": "BORO KULON",
    "zip_code": "54171"
  },
  {
    "id": 44697,
    "name": "BORO WETAN",
    "zip_code": "54171"
  },
  {
    "id": 44698,
    "name": "CANDINGASINAN",
    "zip_code": "54171"
  },
  {
    "id": 44699,
    "name": "CANDISARI",
    "zip_code": "54171"
  },
  {
    "id": 44700,
    "name": "CENGKAWAKREJO",
    "zip_code": "54171"
  },
  {
    "id": 44701,
    "name": "CONDONGSARI",
    "zip_code": "54171"
  },
  {
    "id": 44702,
    "name": "GOLOK",
    "zip_code": "54171"
  },
  {
    "id": 44703,
    "name": "KERTOSONO",
    "zip_code": "54171"
  },
  {
    "id": 44704,
    "name": "KLEDUNG KARANGDALEM",
    "zip_code": "54171"
  },
  {
    "id": 44705,
    "name": "KLEDUNG KRADENAN",
    "zip_code": "54171"
  },
  {
    "id": 44706,
    "name": "KLIWONAN",
    "zip_code": "54171"
  },
  {
    "id": 44707,
    "name": "MALANGREJO",
    "zip_code": "54171"
  },
  {
    "id": 44708,
    "name": "PAKISREJO",
    "zip_code": "54171"
  },
  {
    "id": 44709,
    "name": "POPONGAN",
    "zip_code": "54171"
  },
  {
    "id": 44710,
    "name": "SAWIT",
    "zip_code": "54171"
  },
  {
    "id": 44711,
    "name": "SEBOROKRAPYAK",
    "zip_code": "54171"
  },
  {
    "id": 44712,
    "name": "SOKOWATEN",
    "zip_code": "54171"
  },
  {
    "id": 44713,
    "name": "SUMBER SARI",
    "zip_code": "54171"
  },
  {
    "id": 44714,
    "name": "SUROREJO",
    "zip_code": "54171"
  },
  {
    "id": 44715,
    "name": "TANJUNGANOM",
    "zip_code": "54171"
  },
  {
    "id": 44716,
    "name": "TEGALKUNING",
    "zip_code": "54171"
  },
  {
    "id": 44717,
    "name": "TEGALREJO",
    "zip_code": "54171"
  },
  {
    "id": 44718,
    "name": "TRIWARNO",
    "zip_code": "54171"
  },
  {
    "id": 44719,
    "name": "WANGUNREJO",
    "zip_code": "54171"
  }
]