[
  {
    "id": 55397,
    "name": "BANGSA NEGARA",
    "zip_code": "32362"
  },
  {
    "id": 55398,
    "name": "JATI MULYO I",
    "zip_code": "32362"
  },
  {
    "id": 55399,
    "name": "KARANG BINANGUN",
    "zip_code": "32362"
  },
  {
    "id": 55400,
    "name": "KARANG BINANGUN II",
    "zip_code": "32362"
  },
  {
    "id": 55401,
    "name": "LUBUK HARJO",
    "zip_code": "32386"
  },
  {
    "id": 55402,
    "name": "MARGA CINTA",
    "zip_code": "32362"
  },
  {
    "id": 55403,
    "name": "MEKAR JAYA",
    "zip_code": "32362"
  },
  {
    "id": 55404,
    "name": "PANDAN SARI I",
    "zip_code": "32362"
  },
  {
    "id": 55405,
    "name": "PELITA JAYA",
    "zip_code": "32362"
  },
  {
    "id": 55406,
    "name": "RANTAU JAYA",
    "zip_code": "32362"
  },
  {
    "id": 55407,
    "name": "TANAH MERAH",
    "zip_code": "32362"
  },
  {
    "id": 55408,
    "name": "TEBING SARI MULYA",
    "zip_code": "32362"
  },
  {
    "id": 55409,
    "name": "TUGU HARUM",
    "zip_code": "32362"
  },
  {
    "id": 55410,
    "name": "TUGU MULYO",
    "zip_code": "32362"
  },
  {
    "id": 55411,
    "name": "TULUS AYU",
    "zip_code": "32362"
  },
  {
    "id": 55412,
    "name": "YOSOWINANGUN",
    "zip_code": "32362"
  }
]