[
  {
    "id": 48168,
    "name": "AIR PACAH",
    "zip_code": "25176"
  },
  {
    "id": 48169,
    "name": "BALAI GADANG",
    "zip_code": "25171"
  },
  {
    "id": 48170,
    "name": "BATANG KABUNG (K GANTING)",
    "zip_code": "25172"
  },
  {
    "id": 48171,
    "name": "BATIPUH PANJANG",
    "zip_code": "25171"
  },
  {
    "id": 48172,
    "name": "BUNGO PASANG",
    "zip_code": "25171"
  },
  {
    "id": 48173,
    "name": "DADOK TUNGGUL HITAM",
    "zip_code": "25176"
  },
  {
    "id": 48174,
    "name": "KOTO PANJANG IKUA KOTO",
    "zip_code": "25175"
  },
  {
    "id": 48175,
    "name": "KOTO PULAI",
    "zip_code": "25171"
  },
  {
    "id": 48176,
    "name": "LUBUK BUAYA",
    "zip_code": "25173"
  },
  {
    "id": 48177,
    "name": "LUBUK MINTURUN",
    "zip_code": "25175"
  },
  {
    "id": 48178,
    "name": "PADANG SARAI",
    "zip_code": "25173"
  },
  {
    "id": 48179,
    "name": "PARUPUK TABING",
    "zip_code": "25171"
  },
  {
    "id": 48180,
    "name": "PASIR/PASIE NAN TIGO",
    "zip_code": "25171"
  }
]