[
  {
    "id": 19056,
    "name": "BULUSARI",
    "zip_code": "53254"
  },
  {
    "id": 19057,
    "name": "CINANGSI",
    "zip_code": "53254"
  },
  {
    "id": 19058,
    "name": "CISUMUR",
    "zip_code": "53254"
  },
  {
    "id": 19059,
    "name": "GANDRUNGMANGU",
    "zip_code": "53254"
  },
  {
    "id": 19060,
    "name": "GANDRUNGMANIS",
    "zip_code": "53254"
  },
  {
    "id": 19061,
    "name": "GINTUNGREJA",
    "zip_code": "53254"
  },
  {
    "id": 19062,
    "name": "KARANGANYAR",
    "zip_code": "53254"
  },
  {
    "id": 19063,
    "name": "KARANGGINTUNG",
    "zip_code": "53254"
  },
  {
    "id": 19064,
    "name": "KERTAJAYA",
    "zip_code": "53254"
  },
  {
    "id": 19065,
    "name": "LAYANSARI",
    "zip_code": "53254"
  },
  {
    "id": 19066,
    "name": "MUKTISARI",
    "zip_code": "53254"
  },
  {
    "id": 19067,
    "name": "RUNGKANG",
    "zip_code": "53254"
  },
  {
    "id": 19068,
    "name": "SIDAURIP",
    "zip_code": "53254"
  },
  {
    "id": 19069,
    "name": "WRINGINHARJO",
    "zip_code": "53254"
  }
]