[
  {
    "id": 34204,
    "name": "BANJAREJO",
    "zip_code": "64155"
  },
  {
    "id": 34205,
    "name": "BOGOKIDUL",
    "zip_code": "64155"
  },
  {
    "id": 34206,
    "name": "KAYEN LOR",
    "zip_code": "64155"
  },
  {
    "id": 34207,
    "name": "LANGENHARJO",
    "zip_code": "64155"
  },
  {
    "id": 34208,
    "name": "MEJONO",
    "zip_code": "64155"
  },
  {
    "id": 34209,
    "name": "MOJOAYU",
    "zip_code": "64155"
  },
  {
    "id": 34210,
    "name": "MOJOKEREP",
    "zip_code": "64155"
  },
  {
    "id": 34211,
    "name": "NGINO",
    "zip_code": "64155"
  },
  {
    "id": 34212,
    "name": "PAYAMAN",
    "zip_code": "64155"
  },
  {
    "id": 34213,
    "name": "PLEMAHAN",
    "zip_code": "64155"
  },
  {
    "id": 34214,
    "name": "PUHJARAK",
    "zip_code": "64155"
  },
  {
    "id": 34215,
    "name": "RINGINPITU",
    "zip_code": "64155"
  },
  {
    "id": 34216,
    "name": "SEBET",
    "zip_code": "64155"
  },
  {
    "id": 34217,
    "name": "SIDOWAREK",
    "zip_code": "64155"
  },
  {
    "id": 34218,
    "name": "SUKOHARJO",
    "zip_code": "64155"
  },
  {
    "id": 34219,
    "name": "TEGOWANGI",
    "zip_code": "64155"
  },
  {
    "id": 34220,
    "name": "WONOKERTO",
    "zip_code": "64155"
  }
]