[
  {
    "id": 42410,
    "name": "AEK KANOPAN",
    "zip_code": "21457"
  },
  {
    "id": 42411,
    "name": "AEK KANOPAN TIMUR",
    "zip_code": "21457"
  },
  {
    "id": 42412,
    "name": "KUALA BERINGIN",
    "zip_code": "21457"
  },
  {
    "id": 42413,
    "name": "PARPAUDANGAN",
    "zip_code": "21457"
  },
  {
    "id": 42414,
    "name": "PERKEBUNAN HANNA",
    "zip_code": "21457"
  },
  {
    "id": 42415,
    "name": "PERKEBUNAN KANOPAN ULU",
    "zip_code": "21457"
  },
  {
    "id": 42416,
    "name": "PERKEBUNAN LABUHAN HAJI",
    "zip_code": "21457"
  },
  {
    "id": 42417,
    "name": "PERKEBUNAN LONDUT",
    "zip_code": "21457"
  },
  {
    "id": 42418,
    "name": "PERKEBUNAN MAMBANG/MEMBANG MUDA",
    "zip_code": "21457"
  },
  {
    "id": 42419,
    "name": "PULO DOGOM",
    "zip_code": "21457"
  },
  {
    "id": 42420,
    "name": "SONO MARTANI",
    "zip_code": "21457"
  },
  {
    "id": 42421,
    "name": "SUKA RAME",
    "zip_code": "21457"
  },
  {
    "id": 42422,
    "name": "SUKA RAME BARU",
    "zip_code": "21457"
  }
]