[
  {
    "id": 40822,
    "name": "COPER",
    "zip_code": "63473"
  },
  {
    "id": 40823,
    "name": "JETIS",
    "zip_code": "63473"
  },
  {
    "id": 40824,
    "name": "JOSARI",
    "zip_code": "63473"
  },
  {
    "id": 40825,
    "name": "KARANGGEBANG",
    "zip_code": "63473"
  },
  {
    "id": 40826,
    "name": "KRADENAN (KRADINAN)",
    "zip_code": "63473"
  },
  {
    "id": 40827,
    "name": "KUTU KULON",
    "zip_code": "63473"
  },
  {
    "id": 40828,
    "name": "KUTU WETAN",
    "zip_code": "63473"
  },
  {
    "id": 40829,
    "name": "MOJOMATI",
    "zip_code": "63473"
  },
  {
    "id": 40830,
    "name": "MOJOREJO",
    "zip_code": "63473"
  },
  {
    "id": 40831,
    "name": "NGASINAN",
    "zip_code": "63473"
  },
  {
    "id": 40832,
    "name": "TEGALSARI",
    "zip_code": "63473"
  },
  {
    "id": 40833,
    "name": "TURI",
    "zip_code": "63473"
  },
  {
    "id": 40834,
    "name": "WINONG",
    "zip_code": "63473"
  },
  {
    "id": 40835,
    "name": "WONOKETRO",
    "zip_code": "63473"
  }
]