[
  {
    "id": 18348,
    "name": "ASEM",
    "zip_code": "42357"
  },
  {
    "id": 18349,
    "name": "ASEM MARGALUYU",
    "zip_code": "42357"
  },
  {
    "id": 18350,
    "name": "BOJONGCAE",
    "zip_code": "42357"
  },
  {
    "id": 18351,
    "name": "BOJONGLELES",
    "zip_code": "42357"
  },
  {
    "id": 18352,
    "name": "CIBADAK",
    "zip_code": "42357"
  },
  {
    "id": 18353,
    "name": "CIMENTENG JAYA",
    "zip_code": "42357"
  },
  {
    "id": 18354,
    "name": "CISANGU",
    "zip_code": "42357"
  },
  {
    "id": 18355,
    "name": "KADUAGUNG BARAT",
    "zip_code": "42318"
  },
  {
    "id": 18356,
    "name": "KADUAGUNG TENGAH",
    "zip_code": "42318"
  },
  {
    "id": 18357,
    "name": "KADUAGUNG TIMUR",
    "zip_code": "42318"
  },
  {
    "id": 18358,
    "name": "MALABAR",
    "zip_code": "42357"
  },
  {
    "id": 18359,
    "name": "MEKAR AGUNG",
    "zip_code": "42357"
  },
  {
    "id": 18360,
    "name": "PANANCANGAN",
    "zip_code": "42357"
  },
  {
    "id": 18361,
    "name": "PASAR KEONG",
    "zip_code": "42357"
  },
  {
    "id": 18362,
    "name": "TAMBAKBAYA",
    "zip_code": "42357"
  }
]