[
  {
    "id": 76379,
    "name": "BATANG HARI OGAN",
    "zip_code": "35363"
  },
  {
    "id": 76380,
    "name": "BUMIAGUNG",
    "zip_code": "35363"
  },
  {
    "id": 76381,
    "name": "GEDUNG/GEDONG GUMANTI",
    "zip_code": "35363"
  },
  {
    "id": 76382,
    "name": "GERNING",
    "zip_code": "35363"
  },
  {
    "id": 76383,
    "name": "GUNUNG SUGIH BARU",
    "zip_code": "35363"
  },
  {
    "id": 76384,
    "name": "KEJADIAN",
    "zip_code": "35363"
  },
  {
    "id": 76385,
    "name": "KOTA AGUNG",
    "zip_code": "35363"
  },
  {
    "id": 76386,
    "name": "KRESNO WIDODO",
    "zip_code": "35363"
  },
  {
    "id": 76387,
    "name": "MARGO MULYO",
    "zip_code": "35363"
  },
  {
    "id": 76388,
    "name": "MARGO REJO",
    "zip_code": "35363"
  },
  {
    "id": 76389,
    "name": "NEGARA RATUWATES",
    "zip_code": "35363"
  },
  {
    "id": 76390,
    "name": "PANCA BAKTI",
    "zip_code": "35363"
  },
  {
    "id": 76391,
    "name": "REJOAGUNG",
    "zip_code": "35363"
  },
  {
    "id": 76392,
    "name": "SINAR JATI",
    "zip_code": "35363"
  },
  {
    "id": 76393,
    "name": "SRIWEDARI",
    "zip_code": "35363"
  },
  {
    "id": 76394,
    "name": "TRIMULYO",
    "zip_code": "35363"
  }
]