[
  {
    "id": 58613,
    "name": "BAKONG PERMAI",
    "zip_code": "78762"
  },
  {
    "id": 58614,
    "name": "BATU TIGA",
    "zip_code": "78762"
  },
  {
    "id": 58615,
    "name": "BERINGIN",
    "zip_code": "78762"
  },
  {
    "id": 58616,
    "name": "NANGA DUA",
    "zip_code": "78762"
  },
  {
    "id": 58617,
    "name": "NANGA KELIBANG",
    "zip_code": "78762"
  },
  {
    "id": 58618,
    "name": "NANGA PAYANG",
    "zip_code": "78762"
  },
  {
    "id": 58619,
    "name": "NANGA SEMANGUT",
    "zip_code": "78762"
  },
  {
    "id": 58620,
    "name": "NANGA SURUK",
    "zip_code": "78762"
  },
  {
    "id": 58621,
    "name": "PANTAS BERSATU",
    "zip_code": "78762"
  },
  {
    "id": 58622,
    "name": "RIAM PIYANG",
    "zip_code": "78762"
  },
  {
    "id": 58623,
    "name": "SEGITAK",
    "zip_code": "78762"
  },
  {
    "id": 58624,
    "name": "SELAUP",
    "zip_code": "78762"
  },
  {
    "id": 58625,
    "name": "SEMANGUT UTARA",
    "zip_code": "78762"
  },
  {
    "id": 58626,
    "name": "SUNGAI BESAR",
    "zip_code": "78762"
  },
  {
    "id": 58627,
    "name": "TEMUYUK",
    "zip_code": "78762"
  }
]