[
  {
    "id": 44651,
    "name": "BALEDONO",
    "zip_code": "54118"
  },
  {
    "id": 44652,
    "name": "BRENGGONG",
    "zip_code": "54119"
  },
  {
    "id": 44653,
    "name": "CANGKREP KIDUL",
    "zip_code": "54117"
  },
  {
    "id": 44654,
    "name": "CANGKREP LOR",
    "zip_code": "54117"
  },
  {
    "id": 44655,
    "name": "DONORATI",
    "zip_code": "54119"
  },
  {
    "id": 44656,
    "name": "DOPLANG",
    "zip_code": "54114"
  },
  {
    "id": 44657,
    "name": "GANGGENG",
    "zip_code": "54119"
  },
  {
    "id": 44658,
    "name": "KEDUNG SARI",
    "zip_code": "54119"
  },
  {
    "id": 44659,
    "name": "KESENENG",
    "zip_code": "54119"
  },
  {
    "id": 44660,
    "name": "MRANTI",
    "zip_code": "54112"
  },
  {
    "id": 44661,
    "name": "MUDAL",
    "zip_code": "54119"
  },
  {
    "id": 44662,
    "name": "PACEKELAN",
    "zip_code": "54119"
  },
  {
    "id": 44663,
    "name": "PADUROSO",
    "zip_code": "54112"
  },
  {
    "id": 44664,
    "name": "PANGENJURU TENGAH",
    "zip_code": "54114"
  },
  {
    "id": 44665,
    "name": "PANGENREJO",
    "zip_code": "54115"
  },
  {
    "id": 44666,
    "name": "PLIPIR",
    "zip_code": "54119"
  },
  {
    "id": 44667,
    "name": "PURWOREJO",
    "zip_code": "54151"
  },
  {
    "id": 44668,
    "name": "SEMAWUNG",
    "zip_code": "54119"
  },
  {
    "id": 44669,
    "name": "SIDO MULYO",
    "zip_code": "54119"
  },
  {
    "id": 44670,
    "name": "SIDOREJO",
    "zip_code": "54119"
  },
  {
    "id": 44671,
    "name": "SINDURJAN",
    "zip_code": "54113"
  },
  {
    "id": 44672,
    "name": "SUDIMORO",
    "zip_code": "54119"
  },
  {
    "id": 44673,
    "name": "TAMBAKREJO",
    "zip_code": "54118"
  },
  {
    "id": 44674,
    "name": "WONOROTO",
    "zip_code": "54119"
  },
  {
    "id": 44675,
    "name": "WONOTULUS",
    "zip_code": "54119"
  }
]