[
  {
    "id": 10207,
    "name": "BUGHU",
    "zip_code": "23363"
  },
  {
    "id": 10208,
    "name": "LAM ARA CUT",
    "zip_code": "23363"
  },
  {
    "id": 10209,
    "name": "LAM ARA ENGKIT",
    "zip_code": "23363"
  },
  {
    "id": 10210,
    "name": "LAM ARA TUNONG",
    "zip_code": "23363"
  },
  {
    "id": 10211,
    "name": "LAMBARO SAMAHANI",
    "zip_code": "23363"
  },
  {
    "id": 10212,
    "name": "LAMSITEH COT",
    "zip_code": "23363"
  },
  {
    "id": 10213,
    "name": "LEUPUNG CUT",
    "zip_code": "23363"
  },
  {
    "id": 10214,
    "name": "LEUPUNG RAYEUK",
    "zip_code": "23363"
  },
  {
    "id": 10215,
    "name": "LEUPUNG RIWAT",
    "zip_code": "23363"
  },
  {
    "id": 10216,
    "name": "LUBOK BATEE",
    "zip_code": "23363"
  },
  {
    "id": 10217,
    "name": "LUBOK BUNI",
    "zip_code": "23363"
  },
  {
    "id": 10218,
    "name": "REULEUNG GEULUMPANG",
    "zip_code": "23363"
  },
  {
    "id": 10219,
    "name": "REULEUNG KARIENG",
    "zip_code": "23363"
  },
  {
    "id": 10220,
    "name": "TEUDAYAH",
    "zip_code": "23363"
  },
  {
    "id": 10221,
    "name": "TUMBO BARO",
    "zip_code": "23363"
  }
]