[
  {
    "id": 27565,
    "name": "BAWOFANAYAMA",
    "zip_code": "22865"
  },
  {
    "id": 27566,
    "name": "BAWOMATALUO",
    "zip_code": "22865"
  },
  {
    "id": 27567,
    "name": "BAWONAHONO",
    "zip_code": "22865"
  },
  {
    "id": 27568,
    "name": "BOTOHILI SILAMBO",
    "zip_code": "22865"
  },
  {
    "id": 27569,
    "name": "BOTOHILI SORAKE",
    "zip_code": "22865"
  },
  {
    "id": 27570,
    "name": "BOTOHILISALO'O",
    "zip_code": "22865"
  },
  {
    "id": 27571,
    "name": "BOTOHILITANO",
    "zip_code": "22865"
  },
  {
    "id": 27572,
    "name": "EHO ORAHILI",
    "zip_code": "22865"
  },
  {
    "id": 27573,
    "name": "ETE BATU",
    "zip_code": "22865"
  },
  {
    "id": 27574,
    "name": "HILIAMAETANIHA",
    "zip_code": "22865"
  },
  {
    "id": 27575,
    "name": "HILIFAROKHA",
    "zip_code": "22865"
  },
  {
    "id": 27576,
    "name": "HILIGITO",
    "zip_code": "22865"
  },
  {
    "id": 27577,
    "name": "HILIKARA MAHA",
    "zip_code": "22865"
  },
  {
    "id": 27578,
    "name": "HILIOFONALUO",
    "zip_code": "22865"
  },
  {
    "id": 27579,
    "name": "HILISALAWA",
    "zip_code": "22865"
  },
  {
    "id": 27580,
    "name": "HILIZIHONO",
    "zip_code": "22865"
  },
  {
    "id": 27581,
    "name": "HINAWALO FAU",
    "zip_code": "22865"
  },
  {
    "id": 27582,
    "name": "LAGUNDRI",
    "zip_code": "22865"
  },
  {
    "id": 27583,
    "name": "LAHUSA FAU",
    "zip_code": "22865"
  },
  {
    "id": 27584,
    "name": "ONO HONDRO",
    "zip_code": "22865"
  },
  {
    "id": 27585,
    "name": "ORAHILI FAOMASI",
    "zip_code": "22865"
  },
  {
    "id": 27586,
    "name": "ORAHILI FAU",
    "zip_code": "22865"
  },
  {
    "id": 27587,
    "name": "SILIWULAWA",
    "zip_code": "22865"
  },
  {
    "id": 27588,
    "name": "SIWALAWA",
    "zip_code": "22865"
  },
  {
    "id": 27589,
    "name": "SONDREGEASI",
    "zip_code": "22865"
  }
]