[
  {
    "id": 10959,
    "name": "AMPERA",
    "zip_code": "24671"
  },
  {
    "id": 10960,
    "name": "BAMBEL",
    "zip_code": "24671"
  },
  {
    "id": 10961,
    "name": "BAMBEL GABUNGAN",
    "zip_code": "24671"
  },
  {
    "id": 10962,
    "name": "BIAK MULI",
    "zip_code": "24671"
  },
  {
    "id": 10963,
    "name": "BIAK MULI BAKHU",
    "zip_code": "24671"
  },
  {
    "id": 10964,
    "name": "BIAK MULI PANTAI RAJA",
    "zip_code": "24671"
  },
  {
    "id": 10965,
    "name": "BIAK MULI SEJAHTERA",
    "zip_code": "24671"
  },
  {
    "id": 10966,
    "name": "CINTA DAMAI",
    "zip_code": "24671"
  },
  {
    "id": 10967,
    "name": "KUNING I",
    "zip_code": "24671"
  },
  {
    "id": 10968,
    "name": "KUNING II",
    "zip_code": "24671"
  },
  {
    "id": 10969,
    "name": "KUTE ANTARA",
    "zip_code": "24671"
  },
  {
    "id": 10970,
    "name": "KUTE BULUH",
    "zip_code": "24671"
  },
  {
    "id": 10971,
    "name": "KUTE LANG LANG",
    "zip_code": "24671"
  },
  {
    "id": 10972,
    "name": "KUTE LANG LANG BAKHU",
    "zip_code": "24671"
  },
  {
    "id": 10973,
    "name": "KUTE SERI",
    "zip_code": "24671"
  },
  {
    "id": 10974,
    "name": "LAWE HIJO",
    "zip_code": "24671"
  },
  {
    "id": 10975,
    "name": "LAWE HIJO METUAH",
    "zip_code": "24671"
  },
  {
    "id": 10976,
    "name": "LAWE KIHING",
    "zip_code": "24651"
  },
  {
    "id": 10977,
    "name": "LEMBAH HAJI",
    "zip_code": "24671"
  },
  {
    "id": 10978,
    "name": "LIKAT",
    "zip_code": "24671"
  },
  {
    "id": 10979,
    "name": "PANCAKH IMAN",
    "zip_code": "24671"
  },
  {
    "id": 10980,
    "name": "PEDESI",
    "zip_code": "24671"
  },
  {
    "id": 10981,
    "name": "PINDING",
    "zip_code": "24671"
  },
  {
    "id": 10982,
    "name": "PULO KEDONDONG",
    "zip_code": "24671"
  },
  {
    "id": 10983,
    "name": "PULO PERENGGE",
    "zip_code": "24671"
  },
  {
    "id": 10984,
    "name": "RIKIT",
    "zip_code": "24671"
  },
  {
    "id": 10985,
    "name": "TEMBILAKH BAKHU",
    "zip_code": "24671"
  },
  {
    "id": 10986,
    "name": "TERUTUNG MEGARA ASLI",
    "zip_code": "24671"
  },
  {
    "id": 10987,
    "name": "TERUTUNG PAYUNG GABUNGAN",
    "zip_code": "24671"
  },
  {
    "id": 10988,
    "name": "TERUTUNG PAYUNG HILIR",
    "zip_code": "24671"
  },
  {
    "id": 10989,
    "name": "TERUTUNG PAYUNG HULU",
    "zip_code": "24671"
  },
  {
    "id": 10990,
    "name": "TERUTUNG SEPERAI",
    "zip_code": "24671"
  },
  {
    "id": 10991,
    "name": "TUALANG SEMBILAR",
    "zip_code": "24671"
  }
]