[
  {
    "id": 72777,
    "name": "BABAKAN",
    "zip_code": "52255"
  },
  {
    "id": 72778,
    "name": "BLUBUK",
    "zip_code": "52255"
  },
  {
    "id": 72779,
    "name": "BOJONGSARI",
    "zip_code": "52255"
  },
  {
    "id": 72780,
    "name": "DUKUHSALAM",
    "zip_code": "52255"
  },
  {
    "id": 72781,
    "name": "JATI SAWIT",
    "zip_code": "52255"
  },
  {
    "id": 72782,
    "name": "KALIBUNTU",
    "zip_code": "52255"
  },
  {
    "id": 72783,
    "name": "KARANGDEMPEL",
    "zip_code": "52255"
  },
  {
    "id": 72784,
    "name": "KARANGJUNTI",
    "zip_code": "52255"
  },
  {
    "id": 72785,
    "name": "KARANGSAMBUNG",
    "zip_code": "52255"
  },
  {
    "id": 72786,
    "name": "KECIPIR",
    "zip_code": "52255"
  },
  {
    "id": 72787,
    "name": "KEDUNGNENG",
    "zip_code": "52255"
  },
  {
    "id": 72788,
    "name": "LIMBANGAN",
    "zip_code": "52255"
  },
  {
    "id": 72789,
    "name": "LOSARI KIDUL",
    "zip_code": "52255"
  },
  {
    "id": 72790,
    "name": "LOSARI LOR",
    "zip_code": "52255"
  },
  {
    "id": 72791,
    "name": "NEGLA",
    "zip_code": "52255"
  },
  {
    "id": 72792,
    "name": "PEKAUMAN",
    "zip_code": "52255"
  },
  {
    "id": 72793,
    "name": "PENGABEAN",
    "zip_code": "52255"
  },
  {
    "id": 72794,
    "name": "PRAPAG KIDUL",
    "zip_code": "52255"
  },
  {
    "id": 72795,
    "name": "PRAPAG LOR",
    "zip_code": "52255"
  },
  {
    "id": 72796,
    "name": "RADEGAN",
    "zip_code": "52255"
  },
  {
    "id": 72797,
    "name": "RANDUSARI",
    "zip_code": "52255"
  },
  {
    "id": 72798,
    "name": "RUNGKANG",
    "zip_code": "52255"
  }
]