[
  {
    "id": 44533,
    "name": "ANDONGSILI",
    "zip_code": "56351"
  },
  {
    "id": 44534,
    "name": "BLEDERAN",
    "zip_code": "56351"
  },
  {
    "id": 44535,
    "name": "BUMIREJO",
    "zip_code": "56351"
  },
  {
    "id": 44536,
    "name": "CANDIREJO",
    "zip_code": "56351"
  },
  {
    "id": 44537,
    "name": "DERODUWUR",
    "zip_code": "56351"
  },
  {
    "id": 44538,
    "name": "DERONGISOR",
    "zip_code": "56351"
  },
  {
    "id": 44539,
    "name": "GUNTUR MADU",
    "zip_code": "56351"
  },
  {
    "id": 44540,
    "name": "KALIBEBER",
    "zip_code": "56351"
  },
  {
    "id": 44541,
    "name": "KEBRENGAN",
    "zip_code": "56351"
  },
  {
    "id": 44542,
    "name": "KESENENG",
    "zip_code": "56351"
  },
  {
    "id": 44543,
    "name": "KRASAK",
    "zip_code": "56351"
  },
  {
    "id": 44544,
    "name": "LARANGAN KULON",
    "zip_code": "56351"
  },
  {
    "id": 44545,
    "name": "MOJOSARI",
    "zip_code": "56351"
  },
  {
    "id": 44546,
    "name": "MUDAL",
    "zip_code": "56351"
  },
  {
    "id": 44547,
    "name": "PUNGANGAN",
    "zip_code": "56351"
  },
  {
    "id": 44548,
    "name": "SLUKATAN",
    "zip_code": "56351"
  },
  {
    "id": 44549,
    "name": "SOJOPURO",
    "zip_code": "56351"
  },
  {
    "id": 44550,
    "name": "SUKOREJO",
    "zip_code": "56351"
  },
  {
    "id": 44551,
    "name": "WONOKROMO",
    "zip_code": "56351"
  }
]