[
  {
    "id": 53176,
    "name": "ANYAR",
    "zip_code": "30618"
  },
  {
    "id": 53177,
    "name": "ARISAN BUNTAL",
    "zip_code": "30618"
  },
  {
    "id": 53178,
    "name": "BANDING ANYAR",
    "zip_code": "30618"
  },
  {
    "id": 53179,
    "name": "BULUH CAWANG",
    "zip_code": "30618"
  },
  {
    "id": 53180,
    "name": "CELIKAH",
    "zip_code": "30611"
  },
  {
    "id": 53181,
    "name": "CINTA RAJA/RAYA",
    "zip_code": "30614"
  },
  {
    "id": 53182,
    "name": "JUA JUA",
    "zip_code": "30616"
  },
  {
    "id": 53183,
    "name": "KAYU AGUNG",
    "zip_code": "30618"
  },
  {
    "id": 53184,
    "name": "KEDATON",
    "zip_code": "30617"
  },
  {
    "id": 53185,
    "name": "KIJANG ULU",
    "zip_code": "30618"
  },
  {
    "id": 53186,
    "name": "KOTA RAYA",
    "zip_code": "30617"
  },
  {
    "id": 53187,
    "name": "LUBUK DALAM",
    "zip_code": "30618"
  },
  {
    "id": 53188,
    "name": "MANGUN JAYA",
    "zip_code": "30613"
  },
  {
    "id": 53189,
    "name": "MUARA BARU",
    "zip_code": "30618"
  },
  {
    "id": 53190,
    "name": "PAKU",
    "zip_code": "30612"
  },
  {
    "id": 53191,
    "name": "PERIGI",
    "zip_code": "30618"
  },
  {
    "id": 53192,
    "name": "SERIGENI BARU",
    "zip_code": "30618"
  },
  {
    "id": 53193,
    "name": "SERIGENI LAMA",
    "zip_code": "30618"
  },
  {
    "id": 53194,
    "name": "SIDAREKSA",
    "zip_code": "30615"
  },
  {
    "id": 53195,
    "name": "SUKADANA",
    "zip_code": "30611"
  },
  {
    "id": 53196,
    "name": "TANJUNG LUBUK",
    "zip_code": "30617"
  },
  {
    "id": 53197,
    "name": "TANJUNG MENANG",
    "zip_code": "30618"
  },
  {
    "id": 53198,
    "name": "TANJUNG RANCING",
    "zip_code": "30618"
  },
  {
    "id": 53199,
    "name": "TANJUNG SERANG",
    "zip_code": "30618"
  },
  {
    "id": 53200,
    "name": "TELOKO",
    "zip_code": "30618"
  }
]