[
  {
    "id": 28456,
    "name": "BANUA LUHU",
    "zip_code": "22458"
  },
  {
    "id": 28457,
    "name": "DOLOK SARIBU",
    "zip_code": "22458"
  },
  {
    "id": 28458,
    "name": "HASIBUAN",
    "zip_code": "22458"
  },
  {
    "id": 28459,
    "name": "LUBIS",
    "zip_code": "22458"
  },
  {
    "id": 28460,
    "name": "LUMBAN INA INA",
    "zip_code": "22458"
  },
  {
    "id": 28461,
    "name": "LUMBAN JULU",
    "zip_code": "22458"
  },
  {
    "id": 28462,
    "name": "LUMBAN MOTUNG",
    "zip_code": "22458"
  },
  {
    "id": 28463,
    "name": "LUMBAN SILINTONG",
    "zip_code": "22458"
  },
  {
    "id": 28464,
    "name": "PAGARAN",
    "zip_code": "22458"
  },
  {
    "id": 28465,
    "name": "PARHORBOAN",
    "zip_code": "22458"
  },
  {
    "id": 28466,
    "name": "SIBARAGAS",
    "zip_code": "22458"
  },
  {
    "id": 28467,
    "name": "SIMAMORA HASIBUAN",
    "zip_code": "22458"
  },
  {
    "id": 28468,
    "name": "SIPULTAK",
    "zip_code": "22458"
  },
  {
    "id": 28469,
    "name": "SIPULTAK DOLOK",
    "zip_code": "22458"
  }
]