[
  {
    "id": 69685,
    "name": "KEDUNGANYAR",
    "zip_code": "61176"
  },
  {
    "id": 69686,
    "name": "KEPUHKLAGEN",
    "zip_code": "61176"
  },
  {
    "id": 69687,
    "name": "KESAMBEN KULON",
    "zip_code": "61176"
  },
  {
    "id": 69688,
    "name": "LEBANISUKO",
    "zip_code": "61176"
  },
  {
    "id": 69689,
    "name": "LEBANIWARAS",
    "zip_code": "61176"
  },
  {
    "id": 69690,
    "name": "MONDOLUKU",
    "zip_code": "61176"
  },
  {
    "id": 69691,
    "name": "PASINAN LEMAHPUTIH",
    "zip_code": "61176"
  },
  {
    "id": 69692,
    "name": "PEDAGANGAN",
    "zip_code": "61176"
  },
  {
    "id": 69693,
    "name": "SEMBUNG",
    "zip_code": "61176"
  },
  {
    "id": 69694,
    "name": "SOKO (SOOKO)",
    "zip_code": "61176"
  },
  {
    "id": 69695,
    "name": "SUMBERAME",
    "zip_code": "61176"
  },
  {
    "id": 69696,
    "name": "SUMBERGEDE",
    "zip_code": "61176"
  },
  {
    "id": 69697,
    "name": "SUMBERWARU",
    "zip_code": "61176"
  },
  {
    "id": 69698,
    "name": "SUMENGKO",
    "zip_code": "61176"
  },
  {
    "id": 69699,
    "name": "WATESTANJUNG",
    "zip_code": "61176"
  },
  {
    "id": 69700,
    "name": "WRINGINANOM",
    "zip_code": "61176"
  }
]