[
  {
    "id": 26605,
    "name": "BARU",
    "zip_code": "82181"
  },
  {
    "id": 26606,
    "name": "BATANNYUH",
    "zip_code": "82181"
  },
  {
    "id": 26607,
    "name": "BERINGKIT",
    "zip_code": "82181"
  },
  {
    "id": 26608,
    "name": "CAU BELAYU",
    "zip_code": "82181"
  },
  {
    "id": 26609,
    "name": "GELUNTUNG",
    "zip_code": "82181"
  },
  {
    "id": 26610,
    "name": "KUKUH",
    "zip_code": "82181"
  },
  {
    "id": 26611,
    "name": "KUWUM",
    "zip_code": "82181"
  },
  {
    "id": 26612,
    "name": "MARGA",
    "zip_code": "82181"
  },
  {
    "id": 26613,
    "name": "MARGA DAJAN PURI",
    "zip_code": "82181"
  },
  {
    "id": 26614,
    "name": "MARGA DAUH PURI",
    "zip_code": "82181"
  },
  {
    "id": 26615,
    "name": "PAYANGAN",
    "zip_code": "82181"
  },
  {
    "id": 26616,
    "name": "PEKEN",
    "zip_code": "82181"
  },
  {
    "id": 26617,
    "name": "PETIGA",
    "zip_code": "82181"
  },
  {
    "id": 26618,
    "name": "SELANBAWAK",
    "zip_code": "82181"
  },
  {
    "id": 26619,
    "name": "TEGALJADI",
    "zip_code": "82181"
  },
  {
    "id": 26620,
    "name": "TUA",
    "zip_code": "82181"
  }
]