[
  {
    "id": 1431,
    "name": "BANDA EFRUAN",
    "zip_code": "97661"
  },
  {
    "id": 1432,
    "name": "BANDA ELI/ELY",
    "zip_code": "97661"
  },
  {
    "id": 1433,
    "name": "BANDA SUKU TIGAPULUH",
    "zip_code": "97661"
  },
  {
    "id": 1434,
    "name": "FANWAV",
    "zip_code": "97661"
  },
  {
    "id": 1435,
    "name": "HAAR OHOIMEL",
    "zip_code": "97661"
  },
  {
    "id": 1436,
    "name": "HAAR OHOIMUR GPM",
    "zip_code": "97661"
  },
  {
    "id": 1437,
    "name": "HAAR OHOIMUR RK",
    "zip_code": "97661"
  },
  {
    "id": 1438,
    "name": "HAAR OHOIWAIT",
    "zip_code": "97661"
  },
  {
    "id": 1439,
    "name": "HAAR RENRAHANTEL",
    "zip_code": "97661"
  },
  {
    "id": 1440,
    "name": "HAAR WASSAR",
    "zip_code": "97661"
  },
  {
    "id": 1441,
    "name": "HOKO",
    "zip_code": "97661"
  },
  {
    "id": 1442,
    "name": "HOLLAT",
    "zip_code": "97661"
  },
  {
    "id": 1443,
    "name": "HOLLAT SOLAIR",
    "zip_code": "97661"
  },
  {
    "id": 1444,
    "name": "HOLLAY",
    "zip_code": "97661"
  },
  {
    "id": 1445,
    "name": "KILWAIR",
    "zip_code": "97661"
  },
  {
    "id": 1446,
    "name": "LANGGIAR HAAR",
    "zip_code": "97661"
  },
  {
    "id": 1447,
    "name": "OHOIFARUAN",
    "zip_code": "97661"
  },
  {
    "id": 1448,
    "name": "OHOIFAU",
    "zip_code": "97661"
  },
  {
    "id": 1449,
    "name": "OHOIMAJANG",
    "zip_code": "97661"
  },
  {
    "id": 1450,
    "name": "OHOIRAUT",
    "zip_code": "97661"
  },
  {
    "id": 1451,
    "name": "OHOIWIRIN",
    "zip_code": "97661"
  },
  {
    "id": 1452,
    "name": "RENFAAN GPM",
    "zip_code": "97661"
  },
  {
    "id": 1453,
    "name": "RENFAAN ISLAM",
    "zip_code": "97661"
  },
  {
    "id": 1454,
    "name": "RENFAN (RENFAAN)",
    "zip_code": "97661"
  },
  {
    "id": 1455,
    "name": "SOIN",
    "zip_code": "97661"
  },
  {
    "id": 1456,
    "name": "TUBURLAY",
    "zip_code": "97661"
  },
  {
    "id": 1457,
    "name": "TUBURNGIL",
    "zip_code": "97661"
  },
  {
    "id": 1458,
    "name": "UR",
    "zip_code": "97661"
  },
  {
    "id": 1459,
    "name": "WATLAR",
    "zip_code": "97661"
  },
  {
    "id": 1460,
    "name": "YAMTIMUR",
    "zip_code": "97661"
  }
]