[
  {
    "id": 37159,
    "name": "KABALI DANA",
    "zip_code": "87253"
  },
  {
    "id": 37160,
    "name": "KALAKI KAMBE",
    "zip_code": "87253"
  },
  {
    "id": 37161,
    "name": "KALEMBU KANAIKA",
    "zip_code": "87253"
  },
  {
    "id": 37162,
    "name": "KALEMBU WERI",
    "zip_code": "87253"
  },
  {
    "id": 37163,
    "name": "KALIMBU TILU",
    "zip_code": "87253"
  },
  {
    "id": 37164,
    "name": "LAGA LETE",
    "zip_code": "87253"
  },
  {
    "id": 37165,
    "name": "LUA KOBA",
    "zip_code": "87253"
  },
  {
    "id": 37166,
    "name": "MAROKOTA",
    "zip_code": "87253"
  },
  {
    "id": 37167,
    "name": "MENNE ATE",
    "zip_code": "87253"
  },
  {
    "id": 37168,
    "name": "RABA EGE",
    "zip_code": "87253"
  },
  {
    "id": 37169,
    "name": "REDA PADA",
    "zip_code": "87253"
  },
  {
    "id": 37170,
    "name": "TAWO RARA",
    "zip_code": "87253"
  },
  {
    "id": 37171,
    "name": "WAIMANGURA",
    "zip_code": "87253"
  },
  {
    "id": 37172,
    "name": "WALI ATE",
    "zip_code": "87253"
  },
  {
    "id": 37173,
    "name": "WATU LABARA",
    "zip_code": "87253"
  },
  {
    "id": 37174,
    "name": "WEE KOMBAKA",
    "zip_code": "87253"
  },
  {
    "id": 37175,
    "name": "WEE KURA",
    "zip_code": "87253"
  }
]