[
  {
    "id": 50587,
    "name": "BAGAN BAKTI",
    "zip_code": "28992"
  },
  {
    "id": 50588,
    "name": "BAGAN BATU",
    "zip_code": "28992"
  },
  {
    "id": 50589,
    "name": "BAGAN BATU KOTA",
    "zip_code": "28992"
  },
  {
    "id": 50590,
    "name": "BAGAN MANUNGGAL",
    "zip_code": "28992"
  },
  {
    "id": 50591,
    "name": "BAGAN SAPTA PERMAI",
    "zip_code": "28992"
  },
  {
    "id": 50592,
    "name": "BAGAN SINEMBAH",
    "zip_code": "28992"
  },
  {
    "id": 50593,
    "name": "BAGAN SINEMBAH BARAT",
    "zip_code": "28992"
  },
  {
    "id": 50594,
    "name": "BAGAN SINEMBAH KOTA",
    "zip_code": "28992"
  },
  {
    "id": 50595,
    "name": "BAGAN SINEMBAH TIMUR",
    "zip_code": "28992"
  },
  {
    "id": 50596,
    "name": "BAGAN SINEMBAH UTARA",
    "zip_code": "28992"
  },
  {
    "id": 50597,
    "name": "BAHTERA MAKMUR",
    "zip_code": "28992"
  },
  {
    "id": 50598,
    "name": "BAHTERA MAKMUR KOTA",
    "zip_code": "28992"
  },
  {
    "id": 50599,
    "name": "BAKTI MAKMUR",
    "zip_code": "28992"
  },
  {
    "id": 50600,
    "name": "BALAI JAYA",
    "zip_code": "28992"
  },
  {
    "id": 50601,
    "name": "BALAI JAYA KOTA",
    "zip_code": "28992"
  },
  {
    "id": 50602,
    "name": "BALAM JAYA",
    "zip_code": "28992"
  },
  {
    "id": 50603,
    "name": "BALAM SEMPURNA",
    "zip_code": "28992"
  },
  {
    "id": 50604,
    "name": "BALAM SEMPURNA KOTA",
    "zip_code": "28992"
  },
  {
    "id": 50605,
    "name": "BHAYANGKARA JAYA",
    "zip_code": "28992"
  },
  {
    "id": 50606,
    "name": "GELORA",
    "zip_code": "28992"
  },
  {
    "id": 50607,
    "name": "HARAPAN MAKMUR",
    "zip_code": "28992"
  },
  {
    "id": 50608,
    "name": "HARAPAN MAKMUR SELATAN",
    "zip_code": "28992"
  },
  {
    "id": 50609,
    "name": "JAYA AGUNG",
    "zip_code": "28992"
  },
  {
    "id": 50610,
    "name": "KENCANA",
    "zip_code": "28992"
  },
  {
    "id": 50611,
    "name": "LUBUK JAWI",
    "zip_code": "28992"
  },
  {
    "id": 50612,
    "name": "MAKMUR JAYA",
    "zip_code": "28992"
  },
  {
    "id": 50613,
    "name": "MERANTI MAKMUR",
    "zip_code": "28992"
  },
  {
    "id": 50614,
    "name": "PANCA MUKTI",
    "zip_code": "28992"
  },
  {
    "id": 50615,
    "name": "PASIR PUTIH",
    "zip_code": "28992"
  },
  {
    "id": 50616,
    "name": "PASIR PUTIH BARAT",
    "zip_code": "28992"
  },
  {
    "id": 50617,
    "name": "PASIR PUTIH UTARA",
    "zip_code": "28992"
  },
  {
    "id": 50618,
    "name": "PELITA",
    "zip_code": "28992"
  },
  {
    "id": 50619,
    "name": "SALAK",
    "zip_code": "28992"
  },
  {
    "id": 50620,
    "name": "SUKA MAJU",
    "zip_code": "28992"
  }
]