[
  {
    "id": 80460,
    "name": "BABA BINANGA",
    "zip_code": "91253"
  },
  {
    "id": 80461,
    "name": "BARUGAE",
    "zip_code": "91253"
  },
  {
    "id": 80462,
    "name": "BATTUSAWE (BUTTU SAWE)",
    "zip_code": "91253"
  },
  {
    "id": 80463,
    "name": "BITTOENG",
    "zip_code": "91253"
  },
  {
    "id": 80464,
    "name": "BUNGI",
    "zip_code": "91253"
  },
  {
    "id": 80465,
    "name": "DATA",
    "zip_code": "91253"
  },
  {
    "id": 80466,
    "name": "KABALLANGANG",
    "zip_code": "91253"
  },
  {
    "id": 80467,
    "name": "KALIANG",
    "zip_code": "91253"
  },
  {
    "id": 80468,
    "name": "KATOMPORANG",
    "zip_code": "91253"
  },
  {
    "id": 80469,
    "name": "LAMPA",
    "zip_code": "91253"
  },
  {
    "id": 80470,
    "name": "MARONENG",
    "zip_code": "91253"
  },
  {
    "id": 80471,
    "name": "MASSEWAE",
    "zip_code": "91253"
  },
  {
    "id": 80472,
    "name": "PARIA",
    "zip_code": "91253"
  },
  {
    "id": 80473,
    "name": "PEKKABATA",
    "zip_code": "91253"
  },
  {
    "id": 80474,
    "name": "TATAE",
    "zip_code": "91253"
  }
]