[
  {
    "id": 70930,
    "name": "BALONGTANI",
    "zip_code": "61276"
  },
  {
    "id": 70931,
    "name": "BESUKI",
    "zip_code": "61276"
  },
  {
    "id": 70932,
    "name": "DUKUHSARI",
    "zip_code": "61276"
  },
  {
    "id": 70933,
    "name": "JEMIRAHAN",
    "zip_code": "61276"
  },
  {
    "id": 70934,
    "name": "KEBOGUYANG",
    "zip_code": "61276"
  },
  {
    "id": 70935,
    "name": "KEDUNGCANGKRING",
    "zip_code": "61276"
  },
  {
    "id": 70936,
    "name": "KEDUNGPANDAN",
    "zip_code": "61276"
  },
  {
    "id": 70937,
    "name": "KEDUNGREJO",
    "zip_code": "61276"
  },
  {
    "id": 70938,
    "name": "KUPANG",
    "zip_code": "61276"
  },
  {
    "id": 70939,
    "name": "PANGGREH",
    "zip_code": "61276"
  },
  {
    "id": 70940,
    "name": "PEJARAKAN",
    "zip_code": "61276"
  },
  {
    "id": 70941,
    "name": "PERMISAN",
    "zip_code": "61276"
  },
  {
    "id": 70942,
    "name": "SEMAMBUNG",
    "zip_code": "61276"
  },
  {
    "id": 70943,
    "name": "TAMBAK KALISOGO",
    "zip_code": "61276"
  },
  {
    "id": 70944,
    "name": "TROMPOASRI",
    "zip_code": "61276"
  }
]