[
  {
    "id": 48521,
    "name": "AMPING PARAK",
    "zip_code": "25662"
  },
  {
    "id": 48522,
    "name": "AMPING PARAK TIMUR",
    "zip_code": "25662"
  },
  {
    "id": 48523,
    "name": "AUR DURI SURANTIH",
    "zip_code": "25662"
  },
  {
    "id": 48524,
    "name": "GANTING MUDIAK SELATAN SURANTIH",
    "zip_code": "25662"
  },
  {
    "id": 48525,
    "name": "GANTING MUDIAK UTARA SURANTIH",
    "zip_code": "25662"
  },
  {
    "id": 48526,
    "name": "KOTO NAN TIGO SELATAN SURANTIH",
    "zip_code": "25662"
  },
  {
    "id": 48527,
    "name": "KOTO NAN TIGO UTARA SURANTIH",
    "zip_code": "25662"
  },
  {
    "id": 48528,
    "name": "KOTO TARATAK",
    "zip_code": "25662"
  },
  {
    "id": 48529,
    "name": "LANSANO TARATAK",
    "zip_code": "25662"
  },
  {
    "id": 48530,
    "name": "RAWANGGUNUNG MAMELO SURANTIH",
    "zip_code": "25662"
  },
  {
    "id": 48531,
    "name": "SURANTIH",
    "zip_code": "25662"
  },
  {
    "id": 48532,
    "name": "TARATAK",
    "zip_code": "25662"
  }
]