[
  {
    "id": 42696,
    "name": "AJINEMBAH",
    "zip_code": "22173"
  },
  {
    "id": 42697,
    "name": "BANDAR TONGGING",
    "zip_code": "22173"
  },
  {
    "id": 42698,
    "name": "DOKAN",
    "zip_code": "22173"
  },
  {
    "id": 42699,
    "name": "GARINGGING",
    "zip_code": "22173"
  },
  {
    "id": 42700,
    "name": "KODON-KODON",
    "zip_code": "22173"
  },
  {
    "id": 42701,
    "name": "MEREK",
    "zip_code": "22173"
  },
  {
    "id": 42702,
    "name": "MULIA RAKYAT",
    "zip_code": "22173"
  },
  {
    "id": 42703,
    "name": "NAGALINGGA",
    "zip_code": "22173"
  },
  {
    "id": 42704,
    "name": "NAGARA",
    "zip_code": "22173"
  },
  {
    "id": 42705,
    "name": "NEGERI TONGGING",
    "zip_code": "22173"
  },
  {
    "id": 42706,
    "name": "PANCUR BATU",
    "zip_code": "22173"
  },
  {
    "id": 42707,
    "name": "PANGAMBATEN",
    "zip_code": "22173"
  },
  {
    "id": 42708,
    "name": "PERTIBI LAMA",
    "zip_code": "22173"
  },
  {
    "id": 42709,
    "name": "PERTIBITEMBE",
    "zip_code": "22173"
  },
  {
    "id": 42710,
    "name": "REGAJI",
    "zip_code": "22173"
  },
  {
    "id": 42711,
    "name": "SIBOLANGIT",
    "zip_code": "22173"
  },
  {
    "id": 42712,
    "name": "SITUNGGALING",
    "zip_code": "22173"
  },
  {
    "id": 42713,
    "name": "SUKAMANDI",
    "zip_code": "22173"
  },
  {
    "id": 42714,
    "name": "TONGGING",
    "zip_code": "22173"
  }
]