[
  {
    "id": 35192,
    "name": "BAYUNTAA",
    "zip_code": "86253"
  },
  {
    "id": 35193,
    "name": "BEDALEWUN",
    "zip_code": "86253"
  },
  {
    "id": 35194,
    "name": "BOLENG",
    "zip_code": "86253"
  },
  {
    "id": 35195,
    "name": "BUNGALAWAN",
    "zip_code": "86253"
  },
  {
    "id": 35196,
    "name": "DOKENG",
    "zip_code": "86253"
  },
  {
    "id": 35197,
    "name": "DUABLOLONG",
    "zip_code": "86253"
  },
  {
    "id": 35198,
    "name": "HARUBALA",
    "zip_code": "86253"
  },
  {
    "id": 35199,
    "name": "HELANLANGOWUYO",
    "zip_code": "86253"
  },
  {
    "id": 35200,
    "name": "LAMABAYUNG",
    "zip_code": "86253"
  },
  {
    "id": 35201,
    "name": "LAMAWOLO",
    "zip_code": "86253"
  },
  {
    "id": 35202,
    "name": "LEBANUBA",
    "zip_code": "86253"
  },
  {
    "id": 35203,
    "name": "LEWAT",
    "zip_code": "86253"
  },
  {
    "id": 35204,
    "name": "LEWO KELENG",
    "zip_code": "86253"
  },
  {
    "id": 35205,
    "name": "LEWOPAO",
    "zip_code": "86253"
  },
  {
    "id": 35206,
    "name": "NELE LAMAWANGI",
    "zip_code": "86253"
  },
  {
    "id": 35207,
    "name": "NELEBLOLONG",
    "zip_code": "86253"
  },
  {
    "id": 35208,
    "name": "NELELAMADIKEN",
    "zip_code": "86253"
  },
  {
    "id": 35209,
    "name": "NELELAMAWANGI DUA",
    "zip_code": "86253"
  },
  {
    "id": 35210,
    "name": "NELERERENG",
    "zip_code": "86253"
  },
  {
    "id": 35211,
    "name": "NOBO",
    "zip_code": "86253"
  },
  {
    "id": 35212,
    "name": "RIAWALE/RIANWALE",
    "zip_code": "86253"
  }
]