[
  {
    "id": 11020,
    "name": "BUKIT MERDEKA",
    "zip_code": "24673"
  },
  {
    "id": 11021,
    "name": "BUKIT SEPAKAT",
    "zip_code": "24673"
  },
  {
    "id": 11022,
    "name": "DARUL AMAN",
    "zip_code": "24673"
  },
  {
    "id": 11023,
    "name": "ENMYA BATU DUA RATUS",
    "zip_code": "24673"
  },
  {
    "id": 11024,
    "name": "GABUNGAN PARSAORAN",
    "zip_code": "24673"
  },
  {
    "id": 11025,
    "name": "GAYA JAYA",
    "zip_code": "24673"
  },
  {
    "id": 11026,
    "name": "GELAH MUSARA",
    "zip_code": "24673"
  },
  {
    "id": 11027,
    "name": "KARYA INDAH",
    "zip_code": "24673"
  },
  {
    "id": 11028,
    "name": "KAYU MBELIN",
    "zip_code": "24673"
  },
  {
    "id": 11029,
    "name": "KEDATARAN GABUNGAN",
    "zip_code": "24673"
  },
  {
    "id": 11030,
    "name": "KERTIMBANG",
    "zip_code": "24673"
  },
  {
    "id": 11031,
    "name": "KUTE SERKE",
    "zip_code": "24673"
  },
  {
    "id": 11032,
    "name": "KUTE/KUTA TENGAH",
    "zip_code": "24673"
  },
  {
    "id": 11033,
    "name": "LAWE KESUMPAT",
    "zip_code": "24673"
  },
  {
    "id": 11034,
    "name": "LAWE LONING AMAN",
    "zip_code": "24673"
  },
  {
    "id": 11035,
    "name": "LAWE LONING GABUNGAN",
    "zip_code": "24673"
  },
  {
    "id": 11036,
    "name": "LAWE LONING I",
    "zip_code": "24673"
  },
  {
    "id": 11037,
    "name": "LAWE LONING SEPAKAT",
    "zip_code": "24673"
  },
  {
    "id": 11038,
    "name": "LAWE PEKHIDINEN",
    "zip_code": "24673"
  },
  {
    "id": 11039,
    "name": "LAWE RAKAT",
    "zip_code": "24673"
  },
  {
    "id": 11040,
    "name": "LAWE SERKE",
    "zip_code": "24673"
  },
  {
    "id": 11041,
    "name": "LAWE SIGALA BARAT",
    "zip_code": "24673"
  },
  {
    "id": 11042,
    "name": "LAWE SIGALA BARAT JAYA",
    "zip_code": "24673"
  },
  {
    "id": 11043,
    "name": "LAWE SIGALA II",
    "zip_code": "24673"
  },
  {
    "id": 11044,
    "name": "LAWE SIGALA TIMUR",
    "zip_code": "24673"
  },
  {
    "id": 11045,
    "name": "LAWE TUA GABUNGAN",
    "zip_code": "24673"
  },
  {
    "id": 11046,
    "name": "LAWE TUA MAKMUR",
    "zip_code": "24673"
  },
  {
    "id": 11047,
    "name": "LAWE TUA PERSATUAN",
    "zip_code": "24673"
  },
  {
    "id": 11048,
    "name": "MULIE DAMAI",
    "zip_code": "24673"
  },
  {
    "id": 11049,
    "name": "NDAUH NITENGGO",
    "zip_code": "24673"
  },
  {
    "id": 11050,
    "name": "SEBUNGKE",
    "zip_code": "24673"
  },
  {
    "id": 11051,
    "name": "SUKA DAMAI",
    "zip_code": "24673"
  },
  {
    "id": 11052,
    "name": "SUKA JAYA",
    "zip_code": "24673"
  },
  {
    "id": 11053,
    "name": "SUKA MAJU",
    "zip_code": "24673"
  },
  {
    "id": 11054,
    "name": "TANAH BARU",
    "zip_code": "24673"
  }
]