[
  {
    "id": 29239,
    "name": "AEK BARU JAE",
    "zip_code": "22983"
  },
  {
    "id": 29240,
    "name": "AEK BARU JULU",
    "zip_code": "22983"
  },
  {
    "id": 29241,
    "name": "AEK GUO",
    "zip_code": "22983"
  },
  {
    "id": 29242,
    "name": "AEK HOLBUNG",
    "zip_code": "22983"
  },
  {
    "id": 29243,
    "name": "AEK MANGGIS",
    "zip_code": "22983"
  },
  {
    "id": 29244,
    "name": "AEK NABARA",
    "zip_code": "22983"
  },
  {
    "id": 29245,
    "name": "AEK NANGALI",
    "zip_code": "22983"
  },
  {
    "id": 29246,
    "name": "AMPUNG JULU",
    "zip_code": "22983"
  },
  {
    "id": 29247,
    "name": "AMPUNG PADANG",
    "zip_code": "22983"
  },
  {
    "id": 29248,
    "name": "AMPUNG SIALA",
    "zip_code": "22983"
  },
  {
    "id": 29249,
    "name": "BANGKELANG",
    "zip_code": "22983"
  },
  {
    "id": 29250,
    "name": "BANJAR MALAYU",
    "zip_code": "22983"
  },
  {
    "id": 29251,
    "name": "BATU MADINDING",
    "zip_code": "22983"
  },
  {
    "id": 29252,
    "name": "BULU SOMA",
    "zip_code": "22983"
  },
  {
    "id": 29253,
    "name": "GUO BATU",
    "zip_code": "22983"
  },
  {
    "id": 29254,
    "name": "HADANGKAHAN",
    "zip_code": "22983"
  },
  {
    "id": 29255,
    "name": "HATUPANGAN",
    "zip_code": "22983"
  },
  {
    "id": 29256,
    "name": "HUTA LOBU",
    "zip_code": "22983"
  },
  {
    "id": 29257,
    "name": "JAMBUR BARU",
    "zip_code": "22983"
  },
  {
    "id": 29258,
    "name": "LUBUK BONDAR PANJANG",
    "zip_code": "22983"
  },
  {
    "id": 29259,
    "name": "LUBUK SAMBOA",
    "zip_code": "22983"
  },
  {
    "id": 29260,
    "name": "MUARA PARLAMPUNGAN",
    "zip_code": "22983"
  },
  {
    "id": 29261,
    "name": "MUARA SOMA",
    "zip_code": "22983"
  },
  {
    "id": 29262,
    "name": "RANTOBI",
    "zip_code": "22983"
  },
  {
    "id": 29263,
    "name": "RAO RAO",
    "zip_code": "22983"
  },
  {
    "id": 29264,
    "name": "SIMANGUNTONG",
    "zip_code": "22983"
  },
  {
    "id": 29265,
    "name": "SIPOGU",
    "zip_code": "22983"
  },
  {
    "id": 29266,
    "name": "SOPO TINJAK",
    "zip_code": "22983"
  },
  {
    "id": 29267,
    "name": "TARLOLA",
    "zip_code": "22983"
  },
  {
    "id": 29268,
    "name": "TOMBANG TALUANG",
    "zip_code": "22983"
  },
  {
    "id": 29269,
    "name": "TOR NAINCAT",
    "zip_code": "22983"
  }
]