[
  {
    "id": 36280,
    "name": "BOGOBOA",
    "zip_code": "86419"
  },
  {
    "id": 36281,
    "name": "LIBUNIO",
    "zip_code": "86419"
  },
  {
    "id": 36282,
    "name": "LOA",
    "zip_code": "86419"
  },
  {
    "id": 36283,
    "name": "MASU",
    "zip_code": "86419"
  },
  {
    "id": 36284,
    "name": "MASU KEDHI",
    "zip_code": "86419"
  },
  {
    "id": 36285,
    "name": "MELI WARU",
    "zip_code": "86419"
  },
  {
    "id": 36286,
    "name": "MENGERUDA",
    "zip_code": "86419"
  },
  {
    "id": 36287,
    "name": "NGABHEO",
    "zip_code": "86419"
  },
  {
    "id": 36288,
    "name": "PIGA",
    "zip_code": "86419"
  },
  {
    "id": 36289,
    "name": "PIGA I",
    "zip_code": "86419"
  },
  {
    "id": 36290,
    "name": "SESO",
    "zip_code": "86419"
  },
  {
    "id": 36291,
    "name": "TARAWAJA",
    "zip_code": "86419"
  },
  {
    "id": 36292,
    "name": "TARAWALI",
    "zip_code": "86419"
  },
  {
    "id": 36293,
    "name": "WAEPANA",
    "zip_code": "86419"
  }
]