[
  {
    "id": 71881,
    "name": "BANDUNG",
    "zip_code": "66274"
  },
  {
    "id": 71882,
    "name": "BANTENGAN",
    "zip_code": "66274"
  },
  {
    "id": 71883,
    "name": "BULUS",
    "zip_code": "66274"
  },
  {
    "id": 71884,
    "name": "GANDONG",
    "zip_code": "66274"
  },
  {
    "id": 71885,
    "name": "KEDUNGWILUT",
    "zip_code": "66274"
  },
  {
    "id": 71886,
    "name": "KESAMBI",
    "zip_code": "66274"
  },
  {
    "id": 71887,
    "name": "MERGAYU",
    "zip_code": "66274"
  },
  {
    "id": 71888,
    "name": "NGEPEH",
    "zip_code": "66274"
  },
  {
    "id": 71889,
    "name": "NGLAMPIR",
    "zip_code": "66274"
  },
  {
    "id": 71890,
    "name": "NGUNGGAHAN",
    "zip_code": "66274"
  },
  {
    "id": 71891,
    "name": "SEBALOR",
    "zip_code": "66274"
  },
  {
    "id": 71892,
    "name": "SINGGIT",
    "zip_code": "66274"
  },
  {
    "id": 71893,
    "name": "SOKO",
    "zip_code": "66274"
  },
  {
    "id": 71894,
    "name": "SUKOHARJO",
    "zip_code": "66274"
  },
  {
    "id": 71895,
    "name": "SURUHAN KIDUL",
    "zip_code": "66274"
  },
  {
    "id": 71896,
    "name": "SURUHAN LOR",
    "zip_code": "66274"
  },
  {
    "id": 71897,
    "name": "SUWARU",
    "zip_code": "66274"
  },
  {
    "id": 71898,
    "name": "TALUNKULON",
    "zip_code": "66274"
  }
]