[
  {
    "id": 2761,
    "name": "GERONGGANG",
    "zip_code": "72164"
  },
  {
    "id": 2762,
    "name": "SANG-SANG",
    "zip_code": "72164"
  },
  {
    "id": 2763,
    "name": "SEBULI",
    "zip_code": "72164"
  },
  {
    "id": 2764,
    "name": "SEI/SUNGAI PINANG",
    "zip_code": "72164"
  },
  {
    "id": 2765,
    "name": "SEI/SUNGAI PUNGGAWA",
    "zip_code": "72164"
  },
  {
    "id": 2766,
    "name": "SEMBILANG",
    "zip_code": "72164"
  },
  {
    "id": 2767,
    "name": "SENAKIN",
    "zip_code": "72164"
  },
  {
    "id": 2768,
    "name": "SENAKIN SEBERANG",
    "zip_code": "72164"
  },
  {
    "id": 2769,
    "name": "TAMIANG BAKUNG",
    "zip_code": "72164"
  },
  {
    "id": 2770,
    "name": "TANAH RATA",
    "zip_code": "72164"
  },
  {
    "id": 2771,
    "name": "TANJUNG BATU",
    "zip_code": "72164"
  },
  {
    "id": 2772,
    "name": "TANJUNG SELAYAR",
    "zip_code": "72164"
  },
  {
    "id": 2773,
    "name": "TEBING TINGGI",
    "zip_code": "72164"
  }
]