[
  {
    "id": 4036,
    "name": "ANDHIKA",
    "zip_code": "71161"
  },
  {
    "id": 4037,
    "name": "BATANG LANTIK",
    "zip_code": "71161"
  },
  {
    "id": 4038,
    "name": "HIYUNG",
    "zip_code": "71161"
  },
  {
    "id": 4039,
    "name": "KEPAYANG",
    "zip_code": "71161"
  },
  {
    "id": 4040,
    "name": "LABUNG",
    "zip_code": "71161"
  },
  {
    "id": 4041,
    "name": "MANDURIAN",
    "zip_code": "71161"
  },
  {
    "id": 4042,
    "name": "MANDURIAN HILIR",
    "zip_code": "71161"
  },
  {
    "id": 4043,
    "name": "PANDAHAN",
    "zip_code": "71161"
  },
  {
    "id": 4044,
    "name": "PANDULANGAN",
    "zip_code": "71161"
  },
  {
    "id": 4045,
    "name": "PAPAGAN MAKMUR",
    "zip_code": "71161"
  },
  {
    "id": 4046,
    "name": "PEMATANG KARANGAN",
    "zip_code": "71161"
  },
  {
    "id": 4047,
    "name": "PEMATANG KARANGAN HILIR",
    "zip_code": "71161"
  },
  {
    "id": 4048,
    "name": "PEMATANG KARANGAN HULU",
    "zip_code": "71161"
  },
  {
    "id": 4049,
    "name": "SEI/SUNGAI BAHALANG",
    "zip_code": "71161"
  },
  {
    "id": 4050,
    "name": "SERAWI",
    "zip_code": "71161"
  },
  {
    "id": 4051,
    "name": "SUKARAMAI",
    "zip_code": "71161"
  },
  {
    "id": 4052,
    "name": "TIRIK",
    "zip_code": "71161"
  }
]