[
  {
    "id": 30534,
    "name": "ALATA KARYA",
    "zip_code": "96252"
  },
  {
    "id": 30535,
    "name": "BOTUNGOBUNGO",
    "zip_code": "96252"
  },
  {
    "id": 30536,
    "name": "BOTUWOMBATA",
    "zip_code": "96252"
  },
  {
    "id": 30537,
    "name": "BUALEMO",
    "zip_code": "96252"
  },
  {
    "id": 30538,
    "name": "BULALO",
    "zip_code": "96252"
  },
  {
    "id": 30539,
    "name": "CISADANE",
    "zip_code": "96252"
  },
  {
    "id": 30540,
    "name": "KATIALADA",
    "zip_code": "96252"
  },
  {
    "id": 30541,
    "name": "LEBOTO",
    "zip_code": "96252"
  },
  {
    "id": 30542,
    "name": "MASURU",
    "zip_code": "96252"
  },
  {
    "id": 30543,
    "name": "MOLINGKAPOTO (MOLINGGAPOTO)",
    "zip_code": "96252"
  },
  {
    "id": 30544,
    "name": "MOLINGKAPOTO SELATAN",
    "zip_code": "96252"
  },
  {
    "id": 30545,
    "name": "MOLUO",
    "zip_code": "96252"
  },
  {
    "id": 30546,
    "name": "MOOTINELO",
    "zip_code": "96252"
  },
  {
    "id": 30547,
    "name": "OMBULODATA",
    "zip_code": "96252"
  },
  {
    "id": 30548,
    "name": "PONTOLO",
    "zip_code": "96252"
  },
  {
    "id": 30549,
    "name": "PONTOLO ATAS",
    "zip_code": "96252"
  },
  {
    "id": 30550,
    "name": "POSSO",
    "zip_code": "96252"
  },
  {
    "id": 30551,
    "name": "TITIDU",
    "zip_code": "96252"
  }
]