[
  {
    "id": 65639,
    "name": "BRAYO",
    "zip_code": "51253"
  },
  {
    "id": 65640,
    "name": "BROKOH",
    "zip_code": "51253"
  },
  {
    "id": 65641,
    "name": "DRINGO",
    "zip_code": "51253"
  },
  {
    "id": 65642,
    "name": "GRINGGINGSARI",
    "zip_code": "51253"
  },
  {
    "id": 65643,
    "name": "KEDUNGMALANG",
    "zip_code": "51253"
  },
  {
    "id": 65644,
    "name": "KEMLIGI",
    "zip_code": "51253"
  },
  {
    "id": 65645,
    "name": "KREYO",
    "zip_code": "51253"
  },
  {
    "id": 65646,
    "name": "PENANGKAN",
    "zip_code": "51253"
  },
  {
    "id": 65647,
    "name": "SENDANG",
    "zip_code": "51253"
  },
  {
    "id": 65648,
    "name": "SIGAYAM",
    "zip_code": "51253"
  },
  {
    "id": 65649,
    "name": "SILURAH",
    "zip_code": "51253"
  },
  {
    "id": 65650,
    "name": "SIWATU",
    "zip_code": "51253"
  },
  {
    "id": 65651,
    "name": "SODONG",
    "zip_code": "51253"
  },
  {
    "id": 65652,
    "name": "WATES",
    "zip_code": "51253"
  },
  {
    "id": 65653,
    "name": "WONOTUNGGAL",
    "zip_code": "51253"
  }
]