[
  {
    "id": 62118,
    "name": "BANYURIPAN",
    "zip_code": "57462"
  },
  {
    "id": 62119,
    "name": "BELUK",
    "zip_code": "57462"
  },
  {
    "id": 62120,
    "name": "BOGEM",
    "zip_code": "57462"
  },
  {
    "id": 62121,
    "name": "DUKUH",
    "zip_code": "57462"
  },
  {
    "id": 62122,
    "name": "GUNUNG GAJAH",
    "zip_code": "57462"
  },
  {
    "id": 62123,
    "name": "JAMBAKAN",
    "zip_code": "57462"
  },
  {
    "id": 62124,
    "name": "JARUM",
    "zip_code": "57462"
  },
  {
    "id": 62125,
    "name": "JOTANGAN",
    "zip_code": "57462"
  },
  {
    "id": 62126,
    "name": "KEBON",
    "zip_code": "57462"
  },
  {
    "id": 62127,
    "name": "KRAKITAN",
    "zip_code": "57462"
  },
  {
    "id": 62128,
    "name": "KRIKILAN",
    "zip_code": "57462"
  },
  {
    "id": 62129,
    "name": "NENGAHAN",
    "zip_code": "57462"
  },
  {
    "id": 62130,
    "name": "NGERANGAN",
    "zip_code": "57462"
  },
  {
    "id": 62131,
    "name": "PASEBAN",
    "zip_code": "57462"
  },
  {
    "id": 62132,
    "name": "TALANG",
    "zip_code": "57462"
  },
  {
    "id": 62133,
    "name": "TAWANGREJO",
    "zip_code": "57462"
  },
  {
    "id": 62134,
    "name": "TEGALREJO",
    "zip_code": "57462"
  },
  {
    "id": 62135,
    "name": "WIRO",
    "zip_code": "57462"
  }
]