[
  {
    "id": 38322,
    "name": "AMERTHA BUANA",
    "zip_code": "95772"
  },
  {
    "id": 38323,
    "name": "AMERTHA SARI",
    "zip_code": "95772"
  },
  {
    "id": 38324,
    "name": "DUMOGA",
    "zip_code": "95772"
  },
  {
    "id": 38325,
    "name": "DUMOGA EMPAT",
    "zip_code": "95772"
  },
  {
    "id": 38326,
    "name": "DUMOGA II",
    "zip_code": "95772"
  },
  {
    "id": 38327,
    "name": "DUMOGA TIGA",
    "zip_code": "95772"
  },
  {
    "id": 38328,
    "name": "IMANDI",
    "zip_code": "95772"
  },
  {
    "id": 38329,
    "name": "KEMBANG MERTHA",
    "zip_code": "95772"
  },
  {
    "id": 38330,
    "name": "KEMBANG SARI",
    "zip_code": "95772"
  },
  {
    "id": 38331,
    "name": "MODOMANG",
    "zip_code": "95772"
  },
  {
    "id": 38332,
    "name": "MOGOYUNGGUNG",
    "zip_code": "95772"
  },
  {
    "id": 38333,
    "name": "MOGOYUNGGUNG DUA",
    "zip_code": "95772"
  },
  {
    "id": 38334,
    "name": "MOGOYUNGGUNG SATU",
    "zip_code": "95772"
  },
  {
    "id": 38335,
    "name": "PINONOBATUAN",
    "zip_code": "95772"
  },
  {
    "id": 38336,
    "name": "PINONOBATUAN BARAT",
    "zip_code": "95772"
  },
  {
    "id": 38337,
    "name": "TONOM",
    "zip_code": "95772"
  }
]