[
  {
    "id": 31057,
    "name": "ALIYAN",
    "zip_code": "68462"
  },
  {
    "id": 31058,
    "name": "BLIMBING SARI",
    "zip_code": "68462"
  },
  {
    "id": 31059,
    "name": "BOMO",
    "zip_code": "68462"
  },
  {
    "id": 31060,
    "name": "BUBUK",
    "zip_code": "68462"
  },
  {
    "id": 31061,
    "name": "GINTANGAN",
    "zip_code": "68462"
  },
  {
    "id": 31062,
    "name": "GITIK",
    "zip_code": "68462"
  },
  {
    "id": 31063,
    "name": "GLADAG",
    "zip_code": "68462"
  },
  {
    "id": 31064,
    "name": "KALIGUNG",
    "zip_code": "68462"
  },
  {
    "id": 31065,
    "name": "KAOTAN",
    "zip_code": "68462"
  },
  {
    "id": 31066,
    "name": "KARANG BENDO",
    "zip_code": "68462"
  },
  {
    "id": 31067,
    "name": "KARANGREJO",
    "zip_code": "68462"
  },
  {
    "id": 31068,
    "name": "KEDALEMAN",
    "zip_code": "68462"
  },
  {
    "id": 31069,
    "name": "LEMAHBANG DEWO",
    "zip_code": "68462"
  },
  {
    "id": 31070,
    "name": "MANGIR",
    "zip_code": "68462"
  },
  {
    "id": 31071,
    "name": "PATOMAN",
    "zip_code": "68462"
  },
  {
    "id": 31072,
    "name": "PENGANTIGAN",
    "zip_code": "68462"
  },
  {
    "id": 31073,
    "name": "ROGOJAMPI",
    "zip_code": "68462"
  },
  {
    "id": 31074,
    "name": "WATU KEBO",
    "zip_code": "68462"
  }
]