[
  {
    "id": 50008,
    "name": "AIR JAMBAN",
    "zip_code": "28784"
  },
  {
    "id": 50009,
    "name": "AIR KULIM",
    "zip_code": "28784"
  },
  {
    "id": 50010,
    "name": "BABUSSALAM",
    "zip_code": "28784"
  },
  {
    "id": 50011,
    "name": "BALAI MAKAM",
    "zip_code": "28784"
  },
  {
    "id": 50012,
    "name": "BALIK ALAM",
    "zip_code": "28784"
  },
  {
    "id": 50013,
    "name": "BATANG SEROSA",
    "zip_code": "28784"
  },
  {
    "id": 50014,
    "name": "BATHIN BETUAH",
    "zip_code": "28784"
  },
  {
    "id": 50015,
    "name": "BATHIN SOBANGA",
    "zip_code": "28784"
  },
  {
    "id": 50016,
    "name": "BONCAH MAHANG",
    "zip_code": "28784"
  },
  {
    "id": 50017,
    "name": "BULUH MANIS",
    "zip_code": "28784"
  },
  {
    "id": 50018,
    "name": "BUMBUNG",
    "zip_code": "28784"
  },
  {
    "id": 50019,
    "name": "DURI BARAT",
    "zip_code": "28784"
  },
  {
    "id": 50020,
    "name": "DURI TIMUR",
    "zip_code": "28784"
  },
  {
    "id": 50021,
    "name": "GAJAH SAKTI",
    "zip_code": "28784"
  },
  {
    "id": 50022,
    "name": "HARAPAN BARU",
    "zip_code": "28784"
  },
  {
    "id": 50023,
    "name": "PAMESI",
    "zip_code": "28784"
  },
  {
    "id": 50024,
    "name": "PEMATANG OBO",
    "zip_code": "28784"
  },
  {
    "id": 50025,
    "name": "PEMATANG PUDU",
    "zip_code": "28784"
  },
  {
    "id": 50026,
    "name": "PETANI",
    "zip_code": "28784"
  },
  {
    "id": 50027,
    "name": "SEBANGAR",
    "zip_code": "28784"
  },
  {
    "id": 50028,
    "name": "SESUMBO AMPAI (KESUMO AMPAI)",
    "zip_code": "28784"
  },
  {
    "id": 50029,
    "name": "SIMPANG PADANG",
    "zip_code": "28784"
  },
  {
    "id": 50030,
    "name": "TALANG MANDI",
    "zip_code": "28784"
  },
  {
    "id": 50031,
    "name": "TAMBUSAI BATANG DUI",
    "zip_code": "28784"
  }
]