[
  {
    "id": 56148,
    "name": "BALAANG",
    "zip_code": "94753"
  },
  {
    "id": 56149,
    "name": "BANGKETA",
    "zip_code": "94753"
  },
  {
    "id": 56150,
    "name": "BATU HITAM",
    "zip_code": "94753"
  },
  {
    "id": 56151,
    "name": "BELLA",
    "zip_code": "94753"
  },
  {
    "id": 56152,
    "name": "BINOHU",
    "zip_code": "94753"
  },
  {
    "id": 56153,
    "name": "BOLOBUNGKANG",
    "zip_code": "94753"
  },
  {
    "id": 56154,
    "name": "DAMAI MAKMUR",
    "zip_code": "94753"
  },
  {
    "id": 56155,
    "name": "JAYA MAKMUR",
    "zip_code": "94753"
  },
  {
    "id": 56156,
    "name": "KABUA DUA",
    "zip_code": "94753"
  },
  {
    "id": 56157,
    "name": "MANTAN B",
    "zip_code": "94753"
  },
  {
    "id": 56158,
    "name": "OBOK BALINGARA",
    "zip_code": "94753"
  },
  {
    "id": 56159,
    "name": "PAKOWA BUNTA (POKOWA BUNTA)",
    "zip_code": "94753"
  },
  {
    "id": 56160,
    "name": "PETAK",
    "zip_code": "94753"
  },
  {
    "id": 56161,
    "name": "PIMBOMBO (PIBOMBO)",
    "zip_code": "94753"
  },
  {
    "id": 56162,
    "name": "PULO DALAGAN",
    "zip_code": "94753"
  },
  {
    "id": 56163,
    "name": "SAITI",
    "zip_code": "94753"
  },
  {
    "id": 56164,
    "name": "SUMBER AGUNG",
    "zip_code": "94753"
  },
  {
    "id": 56165,
    "name": "TEMEANG (TOMEANG)",
    "zip_code": "94753"
  },
  {
    "id": 56166,
    "name": "TETESULU",
    "zip_code": "94753"
  },
  {
    "id": 56167,
    "name": "TOBELOMBANG",
    "zip_code": "94753"
  }
]