[
  {
    "id": 11691,
    "name": "BULOH",
    "zip_code": "24162"
  },
  {
    "id": 11692,
    "name": "BUNGO",
    "zip_code": "24162"
  },
  {
    "id": 11693,
    "name": "CEURIH ALUE",
    "zip_code": "24162"
  },
  {
    "id": 11694,
    "name": "CEURIH BLANG MEE",
    "zip_code": "24162"
  },
  {
    "id": 11695,
    "name": "CEURIH COT",
    "zip_code": "24162"
  },
  {
    "id": 11696,
    "name": "CEURIH KEUPULA",
    "zip_code": "24162"
  },
  {
    "id": 11697,
    "name": "DABOH",
    "zip_code": "24162"
  },
  {
    "id": 11698,
    "name": "DAYAH BARO",
    "zip_code": "24162"
  },
  {
    "id": 11699,
    "name": "DAYAH BEUAH",
    "zip_code": "24162"
  },
  {
    "id": 11700,
    "name": "DAYAH REUBEE",
    "zip_code": "24162"
  },
  {
    "id": 11701,
    "name": "GAMPONG CUT (MEUNASAH CUT)",
    "zip_code": "24162"
  },
  {
    "id": 11702,
    "name": "GEUDONG",
    "zip_code": "24162"
  },
  {
    "id": 11703,
    "name": "GLEE",
    "zip_code": "24162"
  },
  {
    "id": 11704,
    "name": "JAMBEE",
    "zip_code": "24162"
  },
  {
    "id": 11705,
    "name": "KEUTAPANG AREE",
    "zip_code": "24162"
  },
  {
    "id": 11706,
    "name": "KEUTAPANG BAMBONG",
    "zip_code": "24162"
  },
  {
    "id": 11707,
    "name": "KRUENG",
    "zip_code": "24162"
  },
  {
    "id": 11708,
    "name": "KRUENG COT",
    "zip_code": "24162"
  },
  {
    "id": 11709,
    "name": "KRUMBOK",
    "zip_code": "24162"
  },
  {
    "id": 11710,
    "name": "KUMBANG",
    "zip_code": "24162"
  },
  {
    "id": 11711,
    "name": "LHEE MEUNASAH",
    "zip_code": "24162"
  },
  {
    "id": 11712,
    "name": "LUENG DAMA",
    "zip_code": "24162"
  },
  {
    "id": 11713,
    "name": "MESJID AREE",
    "zip_code": "24162"
  },
  {
    "id": 11714,
    "name": "MESJID BAMBONG",
    "zip_code": "24162"
  },
  {
    "id": 11715,
    "name": "MESJID BEUAH",
    "zip_code": "24162"
  },
  {
    "id": 11716,
    "name": "MESJID REUBEE",
    "zip_code": "24162"
  },
  {
    "id": 11717,
    "name": "METAREUM",
    "zip_code": "24162"
  },
  {
    "id": 11718,
    "name": "NEULOP",
    "zip_code": "24162"
  },
  {
    "id": 11719,
    "name": "PANGOE",
    "zip_code": "24162"
  },
  {
    "id": 11720,
    "name": "PANTE AREE",
    "zip_code": "24162"
  },
  {
    "id": 11721,
    "name": "PULO BAROH",
    "zip_code": "24162"
  },
  {
    "id": 11722,
    "name": "PULO TUNONG",
    "zip_code": "24162"
  },
  {
    "id": 11723,
    "name": "PUUK",
    "zip_code": "24162"
  },
  {
    "id": 11724,
    "name": "RAYA",
    "zip_code": "24162"
  },
  {
    "id": 11725,
    "name": "REUBA",
    "zip_code": "24162"
  },
  {
    "id": 11726,
    "name": "REUSEP",
    "zip_code": "24162"
  },
  {
    "id": 11727,
    "name": "RUNTOH",
    "zip_code": "24162"
  },
  {
    "id": 11728,
    "name": "SAGOE",
    "zip_code": "24162"
  },
  {
    "id": 11729,
    "name": "SEUKEUM",
    "zip_code": "24162"
  },
  {
    "id": 11730,
    "name": "SEUPEUNG",
    "zip_code": "24162"
  },
  {
    "id": 11731,
    "name": "SUKON LHONG",
    "zip_code": "24162"
  },
  {
    "id": 11732,
    "name": "TANJONG",
    "zip_code": "24162"
  },
  {
    "id": 11733,
    "name": "TUNONG",
    "zip_code": "24162"
  },
  {
    "id": 11734,
    "name": "ULEE TUTUE RAYA",
    "zip_code": "24162"
  }
]