[
  {
    "id": 76851,
    "name": "BA SIKOR",
    "zip_code": "77456"
  },
  {
    "id": 76852,
    "name": "BUDUK KINANGAN",
    "zip_code": "77456"
  },
  {
    "id": 76853,
    "name": "BUDUK KUBUL",
    "zip_code": "77456"
  },
  {
    "id": 76854,
    "name": "BUDUK TUMU",
    "zip_code": "77456"
  },
  {
    "id": 76855,
    "name": "BUNGAYAN",
    "zip_code": "77456"
  },
  {
    "id": 76856,
    "name": "CINGLAT",
    "zip_code": "77456"
  },
  {
    "id": 76857,
    "name": "KAMPUNG BARU",
    "zip_code": "77456"
  },
  {
    "id": 76858,
    "name": "LEMBADA",
    "zip_code": "77456"
  },
  {
    "id": 76859,
    "name": "LEMBUDUD",
    "zip_code": "77456"
  },
  {
    "id": 76860,
    "name": "LEPATAR",
    "zip_code": "77456"
  },
  {
    "id": 76861,
    "name": "LIANG ALIG",
    "zip_code": "77456"
  },
  {
    "id": 76862,
    "name": "LIANG BUA",
    "zip_code": "77456"
  },
  {
    "id": 76863,
    "name": "LIANG BUTAN",
    "zip_code": "77456"
  },
  {
    "id": 76864,
    "name": "LIANG TUER",
    "zip_code": "77456"
  },
  {
    "id": 76865,
    "name": "LIANG TURAN",
    "zip_code": "77456"
  },
  {
    "id": 76866,
    "name": "LONG BAWAN",
    "zip_code": "77456"
  },
  {
    "id": 76867,
    "name": "LONG BERAYANG",
    "zip_code": "77456"
  },
  {
    "id": 76868,
    "name": "LONG BIA DUNG",
    "zip_code": "77456"
  },
  {
    "id": 76869,
    "name": "LONG KABID",
    "zip_code": "77456"
  },
  {
    "id": 76870,
    "name": "LONG KATUNG",
    "zip_code": "77456"
  },
  {
    "id": 76871,
    "name": "LONG MANGAN",
    "zip_code": "77456"
  },
  {
    "id": 76872,
    "name": "LONG MATUNG",
    "zip_code": "77456"
  },
  {
    "id": 76873,
    "name": "LONG NAWANG",
    "zip_code": "77456"
  },
  {
    "id": 76874,
    "name": "LONG NUAT",
    "zip_code": "77456"
  },
  {
    "id": 76875,
    "name": "LONG PUAK",
    "zip_code": "77456"
  },
  {
    "id": 76876,
    "name": "LONG RUPAN",
    "zip_code": "77456"
  },
  {
    "id": 76877,
    "name": "LONG SEPAYANG",
    "zip_code": "77456"
  },
  {
    "id": 76878,
    "name": "LONG TENEM",
    "zip_code": "77456"
  },
  {
    "id": 76879,
    "name": "LONG TUGUL",
    "zip_code": "77456"
  },
  {
    "id": 76880,
    "name": "LONG UMUNG",
    "zip_code": "77456"
  },
  {
    "id": 76881,
    "name": "MA LIBU",
    "zip_code": "77456"
  },
  {
    "id": 76882,
    "name": "PA API",
    "zip_code": "77456"
  },
  {
    "id": 76883,
    "name": "PA BETUNG",
    "zip_code": "77456"
  },
  {
    "id": 76884,
    "name": "PA BUTAL",
    "zip_code": "77456"
  },
  {
    "id": 76885,
    "name": "PA DELUNG",
    "zip_code": "77456"
  },
  {
    "id": 76886,
    "name": "PA INAN",
    "zip_code": "77456"
  },
  {
    "id": 76887,
    "name": "PA KEBUAN",
    "zip_code": "77456"
  },
  {
    "id": 76888,
    "name": "PA KEMUT",
    "zip_code": "77456"
  },
  {
    "id": 76889,
    "name": "PA KIDANG",
    "zip_code": "77456"
  },
  {
    "id": 76890,
    "name": "PA LIDUNG",
    "zip_code": "77456"
  },
  {
    "id": 76891,
    "name": "PA LUTUT",
    "zip_code": "77456"
  },
  {
    "id": 76892,
    "name": "PA MALADE (PA MELADE)",
    "zip_code": "77456"
  },
  {
    "id": 76893,
    "name": "PA MATUNG",
    "zip_code": "77456"
  },
  {
    "id": 76894,
    "name": "PA MERING",
    "zip_code": "77456"
  },
  {
    "id": 76895,
    "name": "PA MULAK",
    "zip_code": "77456"
  },
  {
    "id": 76896,
    "name": "PA NADO",
    "zip_code": "77456"
  },
  {
    "id": 76897,
    "name": "PA PADI",
    "zip_code": "77456"
  },
  {
    "id": 76898,
    "name": "PA PALA",
    "zip_code": "77456"
  },
  {
    "id": 76899,
    "name": "PA PANI",
    "zip_code": "77456"
  },
  {
    "id": 76900,
    "name": "PA PAWAN",
    "zip_code": "77456"
  },
  {
    "id": 76901,
    "name": "PA PAYAK",
    "zip_code": "77456"
  },
  {
    "id": 76902,
    "name": "PA PIRIT",
    "zip_code": "77456"
  },
  {
    "id": 76903,
    "name": "PA PUTUK",
    "zip_code": "77456"
  },
  {
    "id": 76904,
    "name": "PA RANGEB (PARANGEB)",
    "zip_code": "77456"
  },
  {
    "id": 76905,
    "name": "PA RAYE",
    "zip_code": "77456"
  },
  {
    "id": 76906,
    "name": "PA RUPAI",
    "zip_code": "77456"
  },
  {
    "id": 76907,
    "name": "PA SIRE (PASIRE)",
    "zip_code": "77456"
  },
  {
    "id": 76908,
    "name": "PA TERUTUN",
    "zip_code": "77456"
  },
  {
    "id": 76909,
    "name": "PA UMUNG",
    "zip_code": "77456"
  },
  {
    "id": 76910,
    "name": "PA URUD",
    "zip_code": "77456"
  },
  {
    "id": 76911,
    "name": "SEMBUDUD",
    "zip_code": "77456"
  },
  {
    "id": 76912,
    "name": "SINAR BARU",
    "zip_code": "77456"
  },
  {
    "id": 76913,
    "name": "WA LAYA",
    "zip_code": "77456"
  },
  {
    "id": 76914,
    "name": "WA YAGUNG",
    "zip_code": "77456"
  },
  {
    "id": 76915,
    "name": "WA YANUD",
    "zip_code": "77456"
  }
]