[
  {
    "id": 79770,
    "name": "BUNTU DATU (BATU)",
    "zip_code": "91871"
  },
  {
    "id": 79771,
    "name": "BUNTU TANGTI",
    "zip_code": "91871"
  },
  {
    "id": 79772,
    "name": "GASING",
    "zip_code": "91871"
  },
  {
    "id": 79773,
    "name": "KANDORA",
    "zip_code": "91871"
  },
  {
    "id": 79774,
    "name": "KE PE TINORING",
    "zip_code": "91871"
  },
  {
    "id": 79775,
    "name": "LEMO",
    "zip_code": "91871"
  },
  {
    "id": 79776,
    "name": "MARINDING",
    "zip_code": "91871"
  },
  {
    "id": 79777,
    "name": "PA'TENGKO",
    "zip_code": "91871"
  },
  {
    "id": 79778,
    "name": "PAKALA",
    "zip_code": "91871"
  },
  {
    "id": 79779,
    "name": "PALIPU",
    "zip_code": "91871"
  },
  {
    "id": 79780,
    "name": "RANDANAN",
    "zip_code": "91871"
  },
  {
    "id": 79781,
    "name": "RANTE KALUA",
    "zip_code": "91871"
  },
  {
    "id": 79782,
    "name": "RANTEDADA",
    "zip_code": "91871"
  },
  {
    "id": 79783,
    "name": "SIMBUANG",
    "zip_code": "91871"
  },
  {
    "id": 79784,
    "name": "TAMPO",
    "zip_code": "91871"
  },
  {
    "id": 79785,
    "name": "TENGAN",
    "zip_code": "91871"
  },
  {
    "id": 79786,
    "name": "ULUWAY (ULUWAI)",
    "zip_code": "91871"
  },
  {
    "id": 79787,
    "name": "ULUWAY BARAT",
    "zip_code": "91871"
  }
]