[
  {
    "id": 46471,
    "name": "BALONGREJO",
    "zip_code": "64473"
  },
  {
    "id": 46472,
    "name": "BENDUNGREJO",
    "zip_code": "64473"
  },
  {
    "id": 46473,
    "name": "BERBEK",
    "zip_code": "64473"
  },
  {
    "id": 46474,
    "name": "BULU",
    "zip_code": "64473"
  },
  {
    "id": 46475,
    "name": "CEPOKO",
    "zip_code": "64473"
  },
  {
    "id": 46476,
    "name": "GROJOGAN",
    "zip_code": "64473"
  },
  {
    "id": 46477,
    "name": "KACANGAN",
    "zip_code": "64473"
  },
  {
    "id": 46478,
    "name": "MAGUAN",
    "zip_code": "64473"
  },
  {
    "id": 46479,
    "name": "MLILIR",
    "zip_code": "64473"
  },
  {
    "id": 46480,
    "name": "NGRAWAN",
    "zip_code": "64473"
  },
  {
    "id": 46481,
    "name": "PATRANREJO",
    "zip_code": "64473"
  },
  {
    "id": 46482,
    "name": "SALAMROJO",
    "zip_code": "64473"
  },
  {
    "id": 46483,
    "name": "SEMARE",
    "zip_code": "64473"
  },
  {
    "id": 46484,
    "name": "SENDANG BUMEN",
    "zip_code": "64473"
  },
  {
    "id": 46485,
    "name": "SENGKUT",
    "zip_code": "64473"
  },
  {
    "id": 46486,
    "name": "SONO PATIK",
    "zip_code": "64473"
  },
  {
    "id": 46487,
    "name": "SUMBER URIP",
    "zip_code": "64473"
  },
  {
    "id": 46488,
    "name": "SUMBERWINDU",
    "zip_code": "64473"
  },
  {
    "id": 46489,
    "name": "TIRIPAN",
    "zip_code": "64473"
  }
]