[
  {
    "id": 70528,
    "name": "BLUMBUNGAN",
    "zip_code": "69383"
  },
  {
    "id": 70529,
    "name": "DUKUH/DUKO TIMUR",
    "zip_code": "69383"
  },
  {
    "id": 70530,
    "name": "GRUJUGAN",
    "zip_code": "69383"
  },
  {
    "id": 70531,
    "name": "KADUARA BARAT",
    "zip_code": "69383"
  },
  {
    "id": 70532,
    "name": "LANCAR",
    "zip_code": "69383"
  },
  {
    "id": 70533,
    "name": "LARANGAN DALAM",
    "zip_code": "69383"
  },
  {
    "id": 70534,
    "name": "LARANGAN LUAR",
    "zip_code": "69383"
  },
  {
    "id": 70535,
    "name": "MONTOK",
    "zip_code": "69383"
  },
  {
    "id": 70536,
    "name": "PANAGUAN",
    "zip_code": "69383"
  },
  {
    "id": 70537,
    "name": "PELTONG",
    "zip_code": "69383"
  },
  {
    "id": 70538,
    "name": "TARABAN",
    "zip_code": "69383"
  },
  {
    "id": 70539,
    "name": "TENTENAN BARAT",
    "zip_code": "69383"
  },
  {
    "id": 70540,
    "name": "TENTENAN TIMUR",
    "zip_code": "69383"
  },
  {
    "id": 70541,
    "name": "TRASAK",
    "zip_code": "69383"
  }
]