[
  {
    "id": 44421,
    "name": "BOWONGSO",
    "zip_code": "56372"
  },
  {
    "id": 44422,
    "name": "BUTUH",
    "zip_code": "56372"
  },
  {
    "id": 44423,
    "name": "BUTUH KIDUL",
    "zip_code": "56372"
  },
  {
    "id": 44424,
    "name": "KALIKAJAR",
    "zip_code": "56372"
  },
  {
    "id": 44425,
    "name": "KALIKUNING",
    "zip_code": "56372"
  },
  {
    "id": 44426,
    "name": "KARANGDUWUR",
    "zip_code": "56372"
  },
  {
    "id": 44427,
    "name": "KEDALON",
    "zip_code": "56372"
  },
  {
    "id": 44428,
    "name": "KEMBARAN",
    "zip_code": "56372"
  },
  {
    "id": 44429,
    "name": "KWADUNGAN",
    "zip_code": "56372"
  },
  {
    "id": 44430,
    "name": "LAMUK",
    "zip_code": "56372"
  },
  {
    "id": 44431,
    "name": "MADURETNO",
    "zip_code": "56372"
  },
  {
    "id": 44432,
    "name": "MANGUNREJO",
    "zip_code": "56372"
  },
  {
    "id": 44433,
    "name": "MUNGKUNG",
    "zip_code": "56372"
  },
  {
    "id": 44434,
    "name": "PERBOTO",
    "zip_code": "56372"
  },
  {
    "id": 44435,
    "name": "PURWOJIWO",
    "zip_code": "56372"
  },
  {
    "id": 44436,
    "name": "REJOSARI",
    "zip_code": "56372"
  },
  {
    "id": 44437,
    "name": "SIMBANG",
    "zip_code": "56372"
  },
  {
    "id": 44438,
    "name": "TEGALOMBO",
    "zip_code": "56372"
  },
  {
    "id": 44439,
    "name": "WONOSARI",
    "zip_code": "56372"
  }
]