[
  {
    "id": 62694,
    "name": "BONAGUNG",
    "zip_code": "57277"
  },
  {
    "id": 62695,
    "name": "GABUGAN",
    "zip_code": "57277"
  },
  {
    "id": 62696,
    "name": "GADING",
    "zip_code": "57277"
  },
  {
    "id": 62697,
    "name": "GAWAN",
    "zip_code": "57277"
  },
  {
    "id": 62698,
    "name": "JONO",
    "zip_code": "57277"
  },
  {
    "id": 62699,
    "name": "KALIKOBOK",
    "zip_code": "57277"
  },
  {
    "id": 62700,
    "name": "KARANG TALUN",
    "zip_code": "57277"
  },
  {
    "id": 62701,
    "name": "KARANGASEM",
    "zip_code": "57277"
  },
  {
    "id": 62702,
    "name": "KECIK",
    "zip_code": "57277"
  },
  {
    "id": 62703,
    "name": "KETRO",
    "zip_code": "57277"
  },
  {
    "id": 62704,
    "name": "PADAS",
    "zip_code": "57277"
  },
  {
    "id": 62705,
    "name": "PENGKOL",
    "zip_code": "57277"
  },
  {
    "id": 62706,
    "name": "SAMBI DUWUR",
    "zip_code": "57277"
  },
  {
    "id": 62707,
    "name": "SLOGO",
    "zip_code": "57277"
  },
  {
    "id": 62708,
    "name": "SUWATU",
    "zip_code": "57277"
  },
  {
    "id": 62709,
    "name": "TANON",
    "zip_code": "57277"
  }
]