[
  {
    "id": 7231,
    "name": "GUNUNG KEMBANG",
    "zip_code": "38511"
  },
  {
    "id": 7232,
    "name": "GUNUNG SAKTI",
    "zip_code": "38511"
  },
  {
    "id": 7233,
    "name": "JERANGLAH RENDAH",
    "zip_code": "38511"
  },
  {
    "id": 7234,
    "name": "JERANGLAH TINGGI",
    "zip_code": "38511"
  },
  {
    "id": 7235,
    "name": "KAYU KUNYIT",
    "zip_code": "38511"
  },
  {
    "id": 7236,
    "name": "KEMBANG AYUN",
    "zip_code": "38511"
  },
  {
    "id": 7237,
    "name": "KETAPING",
    "zip_code": "38511"
  },
  {
    "id": 7238,
    "name": "KOTA PADANG",
    "zip_code": "38511"
  },
  {
    "id": 7239,
    "name": "LUBUK SIRIH ILIR",
    "zip_code": "38511"
  },
  {
    "id": 7240,
    "name": "LUBUK SIRIH ULU",
    "zip_code": "38511"
  },
  {
    "id": 7241,
    "name": "MANGGUL",
    "zip_code": "38511"
  },
  {
    "id": 7242,
    "name": "MELAO",
    "zip_code": "38511"
  },
  {
    "id": 7243,
    "name": "PADANG MANIS",
    "zip_code": "38511"
  },
  {
    "id": 7244,
    "name": "PADANG PANDAN",
    "zip_code": "38511"
  },
  {
    "id": 7245,
    "name": "TAMBANGAN",
    "zip_code": "38511"
  },
  {
    "id": 7246,
    "name": "TANJUNG BESAR",
    "zip_code": "38511"
  },
  {
    "id": 7247,
    "name": "TANJUNG RAMAN",
    "zip_code": "38511"
  },
  {
    "id": 7248,
    "name": "TERULUNG",
    "zip_code": "38511"
  }
]