[
  {
    "id": 55997,
    "name": "ARGAKENCANA",
    "zip_code": "94765"
  },
  {
    "id": 55998,
    "name": "BENTANG",
    "zip_code": "94765"
  },
  {
    "id": 55999,
    "name": "BUKIT JAYA",
    "zip_code": "94765"
  },
  {
    "id": 56000,
    "name": "BUMIHARJO",
    "zip_code": "94765"
  },
  {
    "id": 56001,
    "name": "CENDANAPURA",
    "zip_code": "94765"
  },
  {
    "id": 56002,
    "name": "MANSAHANG",
    "zip_code": "94765"
  },
  {
    "id": 56003,
    "name": "MINAHAKI",
    "zip_code": "94765"
  },
  {
    "id": 56004,
    "name": "MINAKARYA",
    "zip_code": "94765"
  },
  {
    "id": 56005,
    "name": "MOILONG",
    "zip_code": "94765"
  },
  {
    "id": 56006,
    "name": "MULYOHARJO",
    "zip_code": "94765"
  },
  {
    "id": 56007,
    "name": "PIONDO",
    "zip_code": "94765"
  },
  {
    "id": 56008,
    "name": "RUSA KENCANA",
    "zip_code": "94765"
  },
  {
    "id": 56009,
    "name": "SALUAN",
    "zip_code": "94765"
  },
  {
    "id": 56010,
    "name": "SAMALORE",
    "zip_code": "94765"
  },
  {
    "id": 56011,
    "name": "SELAMET RAHARJO",
    "zip_code": "94765"
  },
  {
    "id": 56012,
    "name": "SENTRAL SARI",
    "zip_code": "94765"
  },
  {
    "id": 56013,
    "name": "SIDOHARJO",
    "zip_code": "94765"
  },
  {
    "id": 56014,
    "name": "SINDANG BARU",
    "zip_code": "94765"
  },
  {
    "id": 56015,
    "name": "SINGKOYO",
    "zip_code": "94765"
  },
  {
    "id": 56016,
    "name": "TIRTA KENCANA",
    "zip_code": "94765"
  },
  {
    "id": 56017,
    "name": "TIRTA SARI",
    "zip_code": "94765"
  },
  {
    "id": 56018,
    "name": "TOHITI SARI",
    "zip_code": "94765"
  },
  {
    "id": 56019,
    "name": "TOILI",
    "zip_code": "94765"
  },
  {
    "id": 56020,
    "name": "TOLISU",
    "zip_code": "94765"
  },
  {
    "id": 56021,
    "name": "UWE MEA",
    "zip_code": "94765"
  },
  {
    "id": 82844,
    "name": "MEKAR KENCANA",
    "zip_code": "94764"
  }
]