[
  {
    "id": 29826,
    "name": "AEKHARUAYA",
    "zip_code": "22763"
  },
  {
    "id": 29827,
    "name": "HANDANG KOPO",
    "zip_code": "22763"
  },
  {
    "id": 29828,
    "name": "MATONDANG",
    "zip_code": "22763"
  },
  {
    "id": 29829,
    "name": "PARAN BATU (PAGARAN)",
    "zip_code": "22763"
  },
  {
    "id": 29830,
    "name": "PARINGGONAN",
    "zip_code": "22763"
  },
  {
    "id": 29831,
    "name": "PARINGGONAN JULU",
    "zip_code": "22763"
  },
  {
    "id": 29832,
    "name": "PASAR IPUH",
    "zip_code": "22763"
  },
  {
    "id": 29833,
    "name": "PINTU PADANG",
    "zip_code": "22763"
  },
  {
    "id": 29834,
    "name": "SIBUAL BUALI",
    "zip_code": "22763"
  },
  {
    "id": 29835,
    "name": "SIBULUS SALAM",
    "zip_code": "22763"
  },
  {
    "id": 29836,
    "name": "SIMANULDANG JAE",
    "zip_code": "22763"
  },
  {
    "id": 29837,
    "name": "SIMANULDANG JULU",
    "zip_code": "22763"
  },
  {
    "id": 29838,
    "name": "SIRAISAN",
    "zip_code": "22763"
  },
  {
    "id": 29839,
    "name": "TANJUNG",
    "zip_code": "22763"
  },
  {
    "id": 29840,
    "name": "TAPIAN NAULI",
    "zip_code": "22763"
  }
]