[
  {
    "id": 42095,
    "name": "BANDAR MANIS",
    "zip_code": "21186"
  },
  {
    "id": 42096,
    "name": "KERASAAN I",
    "zip_code": "21186"
  },
  {
    "id": 42097,
    "name": "KERASAAN II",
    "zip_code": "21186"
  },
  {
    "id": 42098,
    "name": "MARIAH BANDAR",
    "zip_code": "21186"
  },
  {
    "id": 42099,
    "name": "PARDOMUAN NAULI",
    "zip_code": "21186"
  },
  {
    "id": 42100,
    "name": "PEMATANG BANDAR",
    "zip_code": "21186"
  },
  {
    "id": 42101,
    "name": "PURBA GANDA",
    "zip_code": "21186"
  },
  {
    "id": 42102,
    "name": "PURWODADI",
    "zip_code": "21186"
  },
  {
    "id": 42103,
    "name": "PURWOSARI",
    "zip_code": "21186"
  },
  {
    "id": 42104,
    "name": "TALUN MADEAR",
    "zip_code": "21186"
  },
  {
    "id": 42105,
    "name": "TALUN REJO",
    "zip_code": "21186"
  },
  {
    "id": 42106,
    "name": "WANA REJO",
    "zip_code": "21186"
  },
  {
    "id": 43383,
    "name": "KANDANGAN",
    "zip_code": "21186"
  }
]