[
  {
    "id": 36195,
    "name": "DETUARA",
    "zip_code": "86374"
  },
  {
    "id": 36196,
    "name": "KURU",
    "zip_code": "86375"
  },
  {
    "id": 36197,
    "name": "KURU SARE",
    "zip_code": "86375"
  },
  {
    "id": 36198,
    "name": "LISE KURU",
    "zip_code": "86379"
  },
  {
    "id": 36199,
    "name": "MUKUREKU",
    "zip_code": "86376"
  },
  {
    "id": 36200,
    "name": "MUKUREKU SA ATE",
    "zip_code": "86376"
  },
  {
    "id": 36201,
    "name": "NDENGGA RONGGE",
    "zip_code": "86375"
  },
  {
    "id": 36202,
    "name": "NDIKOSAPU",
    "zip_code": "86378"
  },
  {
    "id": 36203,
    "name": "NGGUMBELAKA",
    "zip_code": "86376"
  },
  {
    "id": 36204,
    "name": "RUTU JEJA",
    "zip_code": "86377"
  },
  {
    "id": 36205,
    "name": "TANALANGI",
    "zip_code": "86374"
  },
  {
    "id": 36206,
    "name": "TANIWODA",
    "zip_code": "86374"
  },
  {
    "id": 36207,
    "name": "TIWUSORA",
    "zip_code": "86374"
  },
  {
    "id": 36208,
    "name": "WOLOGAI TIMUR",
    "zip_code": "86376"
  }
]