[
  {
    "id": 9499,
    "name": "ALUE DEAH TEUNGOH (ALUE DEYAH TENGOH)",
    "zip_code": "23232"
  },
  {
    "id": 9500,
    "name": "ASOI NANGGRO",
    "zip_code": "23234"
  },
  {
    "id": 9501,
    "name": "BLANG OI",
    "zip_code": "23233"
  },
  {
    "id": 9502,
    "name": "COT LAMKUWEUEH",
    "zip_code": "23233"
  },
  {
    "id": 9503,
    "name": "DEYAH BARO (DEAH BARO)",
    "zip_code": "23232"
  },
  {
    "id": 9504,
    "name": "DEYAH GELUMPANG (DEAH GLUMPANG)",
    "zip_code": "23232"
  },
  {
    "id": 9505,
    "name": "GAMPONG BARO",
    "zip_code": "23234"
  },
  {
    "id": 9506,
    "name": "GAMPONG BLANG",
    "zip_code": "23234"
  },
  {
    "id": 9507,
    "name": "GAMPONG PIE",
    "zip_code": "23233"
  },
  {
    "id": 9508,
    "name": "LAMBUNG",
    "zip_code": "23233"
  },
  {
    "id": 9509,
    "name": "LAMJABAT",
    "zip_code": "23234"
  },
  {
    "id": 9510,
    "name": "LAMPASEH ACEH",
    "zip_code": "23231"
  },
  {
    "id": 9511,
    "name": "PUNGE JURONG",
    "zip_code": "23231"
  },
  {
    "id": 9512,
    "name": "PUNGE UJONG",
    "zip_code": "23233"
  },
  {
    "id": 9513,
    "name": "SURIEN",
    "zip_code": "23234"
  },
  {
    "id": 9514,
    "name": "ULEE LHEUE",
    "zip_code": "23234"
  }
]