[
  {
    "id": 69801,
    "name": "BANGKOK",
    "zip_code": "62292"
  },
  {
    "id": 69802,
    "name": "BAPUH BARU",
    "zip_code": "62292"
  },
  {
    "id": 69803,
    "name": "BAPUHBANDUNG",
    "zip_code": "62292"
  },
  {
    "id": 69804,
    "name": "BEGAN",
    "zip_code": "62292"
  },
  {
    "id": 69805,
    "name": "DUDUK LOR",
    "zip_code": "62292"
  },
  {
    "id": 69806,
    "name": "DUKUHTUNGGAL",
    "zip_code": "62292"
  },
  {
    "id": 69807,
    "name": "GEMPOLPENDOWO",
    "zip_code": "62292"
  },
  {
    "id": 69808,
    "name": "GLAGAH",
    "zip_code": "62292"
  },
  {
    "id": 69809,
    "name": "JATIRENGGO",
    "zip_code": "62292"
  },
  {
    "id": 69810,
    "name": "KARANGAGUNG",
    "zip_code": "62292"
  },
  {
    "id": 69811,
    "name": "KARANGTURI",
    "zip_code": "62292"
  },
  {
    "id": 69812,
    "name": "KENTONG",
    "zip_code": "62292"
  },
  {
    "id": 69813,
    "name": "KONANG",
    "zip_code": "62292"
  },
  {
    "id": 69814,
    "name": "MARGOANYAR",
    "zip_code": "62292"
  },
  {
    "id": 69815,
    "name": "MEDANG",
    "zip_code": "62292"
  },
  {
    "id": 69816,
    "name": "MELUNTUR",
    "zip_code": "62292"
  },
  {
    "id": 69817,
    "name": "MELUWUR",
    "zip_code": "62292"
  },
  {
    "id": 69818,
    "name": "MENDOGO",
    "zip_code": "62292"
  },
  {
    "id": 69819,
    "name": "MENGANTI",
    "zip_code": "62292"
  },
  {
    "id": 69820,
    "name": "MOROCALAN",
    "zip_code": "62292"
  },
  {
    "id": 69821,
    "name": "PANGGANG",
    "zip_code": "62292"
  },
  {
    "id": 69822,
    "name": "PASI",
    "zip_code": "62292"
  },
  {
    "id": 69823,
    "name": "RAYUNGGUMUK",
    "zip_code": "62292"
  },
  {
    "id": 69824,
    "name": "SOKO",
    "zip_code": "62292"
  },
  {
    "id": 69825,
    "name": "SUDANGAN",
    "zip_code": "62292"
  },
  {
    "id": 69826,
    "name": "TANGGUNGPRIGEL",
    "zip_code": "62292"
  },
  {
    "id": 69827,
    "name": "WANGEN",
    "zip_code": "62292"
  },
  {
    "id": 69828,
    "name": "WEDORO",
    "zip_code": "62292"
  },
  {
    "id": 69829,
    "name": "WONOREJO",
    "zip_code": "62292"
  }
]