[
  {
    "id": 3448,
    "name": "BERINGIN KENCANA",
    "zip_code": "70567"
  },
  {
    "id": 3449,
    "name": "KARYA BARU",
    "zip_code": "70567"
  },
  {
    "id": 3450,
    "name": "KUALA LUPAK",
    "zip_code": "70567"
  },
  {
    "id": 3451,
    "name": "SEI/SUNGAI JINGAH BESAR",
    "zip_code": "70567"
  },
  {
    "id": 3452,
    "name": "SEI/SUNGAI TELAN BESAR",
    "zip_code": "70567"
  },
  {
    "id": 3453,
    "name": "SEI/SUNGAI TELAN KECIL",
    "zip_code": "70567"
  },
  {
    "id": 3454,
    "name": "SEI/SUNGAI TELAN MUARA",
    "zip_code": "70567"
  },
  {
    "id": 3455,
    "name": "SEI/SUNGAI TERAS DALAM",
    "zip_code": "70567"
  },
  {
    "id": 3456,
    "name": "SEI/SUNGAI TERAS LUAR",
    "zip_code": "70567"
  },
  {
    "id": 3457,
    "name": "TABUNGANEN KECIL",
    "zip_code": "70567"
  },
  {
    "id": 3458,
    "name": "TABUNGANEN MUARA",
    "zip_code": "70567"
  },
  {
    "id": 3459,
    "name": "TABUNGANEN PEMURUS",
    "zip_code": "70567"
  },
  {
    "id": 3460,
    "name": "TABUNGANEN TENGAH",
    "zip_code": "70567"
  },
  {
    "id": 3461,
    "name": "TANGGUL REJO",
    "zip_code": "70567"
  }
]