[
  {
    "id": 65460,
    "name": "BANDAR",
    "zip_code": "51254"
  },
  {
    "id": 65461,
    "name": "BATIOMBO",
    "zip_code": "51254"
  },
  {
    "id": 65462,
    "name": "BINANGUN",
    "zip_code": "51254"
  },
  {
    "id": 65463,
    "name": "CANDI",
    "zip_code": "51254"
  },
  {
    "id": 65464,
    "name": "KLUWIH",
    "zip_code": "51254"
  },
  {
    "id": 65465,
    "name": "MANGGIS",
    "zip_code": "51254"
  },
  {
    "id": 65466,
    "name": "PESALAKAN",
    "zip_code": "51254"
  },
  {
    "id": 65467,
    "name": "PUCANGGADING",
    "zip_code": "51254"
  },
  {
    "id": 65468,
    "name": "SIDAYU",
    "zip_code": "51254"
  },
  {
    "id": 65469,
    "name": "SIMPAR",
    "zip_code": "51254"
  },
  {
    "id": 65470,
    "name": "TAMBAHREJO",
    "zip_code": "51254"
  },
  {
    "id": 65471,
    "name": "TOMBO",
    "zip_code": "51254"
  },
  {
    "id": 65472,
    "name": "TOSO",
    "zip_code": "51254"
  },
  {
    "id": 65473,
    "name": "TUMBREP",
    "zip_code": "51254"
  },
  {
    "id": 65474,
    "name": "WONODADI",
    "zip_code": "51254"
  },
  {
    "id": 65475,
    "name": "WONOKERTO",
    "zip_code": "51254"
  },
  {
    "id": 65476,
    "name": "WONOMERTO",
    "zip_code": "51254"
  },
  {
    "id": 65477,
    "name": "WONOSEGORO",
    "zip_code": "51254"
  }
]