[
  {
    "id": 43484,
    "name": "HUTARIHIT",
    "zip_code": "22394"
  },
  {
    "id": 43485,
    "name": "JANJI MARAPOT",
    "zip_code": "22394"
  },
  {
    "id": 43486,
    "name": "NAINGGOLAN",
    "zip_code": "22394"
  },
  {
    "id": 43487,
    "name": "PANANGGANGAN",
    "zip_code": "22394"
  },
  {
    "id": 43488,
    "name": "PANANGGANGAN II",
    "zip_code": "22394"
  },
  {
    "id": 43489,
    "name": "PANGALOAN",
    "zip_code": "22394"
  },
  {
    "id": 43490,
    "name": "PARHUSIP III",
    "zip_code": "22394"
  },
  {
    "id": 43491,
    "name": "PASARAN I",
    "zip_code": "22394"
  },
  {
    "id": 43492,
    "name": "PASARAN PARSAORAN",
    "zip_code": "22394"
  },
  {
    "id": 43493,
    "name": "SIBONOR OMPU RATUS",
    "zip_code": "22394"
  },
  {
    "id": 43494,
    "name": "SINAGA URUK PANDIANGAN",
    "zip_code": "22394"
  },
  {
    "id": 43495,
    "name": "SIPINGGAN",
    "zip_code": "22394"
  },
  {
    "id": 43496,
    "name": "SIPINGGAN LUMBAN SIANTAR",
    "zip_code": "22394"
  },
  {
    "id": 43497,
    "name": "SIRUMAHOMBAR",
    "zip_code": "22394"
  },
  {
    "id": 43498,
    "name": "TOGUAN GALUNG",
    "zip_code": "22394"
  }
]