[
  {
    "id": 42173,
    "name": "AMBARISAN",
    "zip_code": "21171"
  },
  {
    "id": 42174,
    "name": "BAH BIAK",
    "zip_code": "21171"
  },
  {
    "id": 42175,
    "name": "BAH BUTONG I",
    "zip_code": "21171"
  },
  {
    "id": 42176,
    "name": "BAH BUTONG II",
    "zip_code": "21171"
  },
  {
    "id": 42177,
    "name": "BAHAL GAJAH",
    "zip_code": "21171"
  },
  {
    "id": 42178,
    "name": "BIRONG ULU MANRIAH",
    "zip_code": "21171"
  },
  {
    "id": 42179,
    "name": "BUKIT REJO",
    "zip_code": "21171"
  },
  {
    "id": 42180,
    "name": "KEBUN SAYUR BAH BUTONG",
    "zip_code": "21171"
  },
  {
    "id": 42181,
    "name": "MANIK HATARAN",
    "zip_code": "21171"
  },
  {
    "id": 42182,
    "name": "MANIK MARAJA",
    "zip_code": "21171"
  },
  {
    "id": 42183,
    "name": "MANIK RAMBUNG",
    "zip_code": "21171"
  },
  {
    "id": 42184,
    "name": "MEKAR SIDAMANIK",
    "zip_code": "21171"
  },
  {
    "id": 42185,
    "name": "SARIMATONDANG",
    "zip_code": "21171"
  },
  {
    "id": 42186,
    "name": "SIDAMANIK",
    "zip_code": "21171"
  },
  {
    "id": 42187,
    "name": "TIGA BOLON",
    "zip_code": "21171"
  }
]