[
  {
    "id": 1461,
    "name": "DUDUNWAHAN",
    "zip_code": "97611"
  },
  {
    "id": 1462,
    "name": "FAAN",
    "zip_code": "97611"
  },
  {
    "id": 1463,
    "name": "IBRA",
    "zip_code": "97611"
  },
  {
    "id": 1464,
    "name": "KELANIT",
    "zip_code": "97611"
  },
  {
    "id": 1465,
    "name": "KOLSER",
    "zip_code": "97611"
  },
  {
    "id": 1466,
    "name": "LANGGUR",
    "zip_code": "97611"
  },
  {
    "id": 1467,
    "name": "LETMAN",
    "zip_code": "97611"
  },
  {
    "id": 1468,
    "name": "LOON",
    "zip_code": "97611"
  },
  {
    "id": 1469,
    "name": "NGABUB",
    "zip_code": "97611"
  },
  {
    "id": 1470,
    "name": "OHODERTAWUN",
    "zip_code": "97611"
  },
  {
    "id": 1471,
    "name": "OHOIDER ATAS",
    "zip_code": "97611"
  },
  {
    "id": 1472,
    "name": "OHOIJANG/OHOIYONG WATDEK",
    "zip_code": "97611"
  },
  {
    "id": 1473,
    "name": "SATHEAN",
    "zip_code": "97611"
  },
  {
    "id": 1474,
    "name": "SITNIOHOI",
    "zip_code": "97611"
  },
  {
    "id": 1475,
    "name": "WEARLILIR",
    "zip_code": "97611"
  }
]