[
  {
    "id": 27116,
    "name": "DOLI-DOLI",
    "zip_code": "22862"
  },
  {
    "id": 27117,
    "name": "FADORO",
    "zip_code": "22862"
  },
  {
    "id": 27118,
    "name": "FADORO BAHILI",
    "zip_code": "22862"
  },
  {
    "id": 27119,
    "name": "HAYO",
    "zip_code": "22867"
  },
  {
    "id": 27120,
    "name": "HILIWALO'O I",
    "zip_code": "22862"
  },
  {
    "id": 27121,
    "name": "IRAONO GAMBO",
    "zip_code": "22862"
  },
  {
    "id": 27122,
    "name": "IRIANI GAMBO",
    "zip_code": "22862"
  },
  {
    "id": 27123,
    "name": "LAKHENA",
    "zip_code": "22862"
  },
  {
    "id": 27124,
    "name": "LASARA BAENE",
    "zip_code": "22862"
  },
  {
    "id": 27125,
    "name": "LOLOGOLU",
    "zip_code": "22862"
  },
  {
    "id": 27126,
    "name": "LOLOZIRUGI",
    "zip_code": "22862"
  },
  {
    "id": 27127,
    "name": "SIANA'A",
    "zip_code": "22862"
  },
  {
    "id": 27128,
    "name": "SIMAE'ASI",
    "zip_code": "22862"
  },
  {
    "id": 27129,
    "name": "SISARAHILI I",
    "zip_code": "22862"
  },
  {
    "id": 27130,
    "name": "TETEHOSI",
    "zip_code": "22862"
  },
  {
    "id": 27131,
    "name": "TUHEMBERUA",
    "zip_code": "22862"
  },
  {
    "id": 27132,
    "name": "TUHO'OWO",
    "zip_code": "22862"
  },
  {
    "id": 27133,
    "name": "TUMORI",
    "zip_code": "22862"
  },
  {
    "id": 27134,
    "name": "TUWUUNA",
    "zip_code": "22862"
  },
  {
    "id": 27135,
    "name": "ZUZUNDRAO",
    "zip_code": "22862"
  }
]