[
  {
    "id": 51658,
    "name": "BASARANG",
    "zip_code": "73564"
  },
  {
    "id": 51659,
    "name": "BASARANG JAYA",
    "zip_code": "73564"
  },
  {
    "id": 51660,
    "name": "BASUNGKAI",
    "zip_code": "73564"
  },
  {
    "id": 51661,
    "name": "BATU NINDAN",
    "zip_code": "73564"
  },
  {
    "id": 51662,
    "name": "BATUAH",
    "zip_code": "73564"
  },
  {
    "id": 51663,
    "name": "BUNGAI JAYA",
    "zip_code": "73564"
  },
  {
    "id": 51664,
    "name": "LUNUK RAMBA",
    "zip_code": "73564"
  },
  {
    "id": 51665,
    "name": "MALUEN",
    "zip_code": "73564"
  },
  {
    "id": 51666,
    "name": "NANING",
    "zip_code": "73564"
  },
  {
    "id": 51667,
    "name": "PANARUNG",
    "zip_code": "73564"
  },
  {
    "id": 51668,
    "name": "PANGKALAN REKAN",
    "zip_code": "73564"
  },
  {
    "id": 51669,
    "name": "PANGKALAN SARI",
    "zip_code": "73564"
  },
  {
    "id": 51670,
    "name": "TAMBUN RAYA",
    "zip_code": "73564"
  },
  {
    "id": 51671,
    "name": "TARUNG MANUAH",
    "zip_code": "73564"
  }
]